{
"type": "FeatureCollection",
"name": "furniture",
"crs": {"type":"name","properties":{"name":"urn:ogc:def:crs:OGC:1.3:CRS84"}},
"features": [
{"type":"Feature","properties":{"id":"L04-F001","kind":"shelf","room":"L04-01"},"geometry":{"type":"Polygon","coordinates":[[[90.38474255,23.74030785],[90.38459355,23.74027786],[90.3845927,23.74028137],[90.38474171,23.74031137],[90.38474255,23.74030785]]]}},
{"type":"Feature","properties":{"id":"L04-F002","kind":"shelf","room":"L04-01"},"geometry":{"type":"Polygon","coordinates":[[[90.38475987,23.74024204],[90.38475603,23.74024127],[90.38474068,23.74030517],[90.38474452,23.74030595],[90.38475987,23.74024204]]]}},
{"type":"Feature","properties":{"id":"L04-F003","kind":"shelf","room":"L04-01"},"geometry":{"type":"Polygon","coordinates":[[[90.38461182,23.74021224],[90.38460799,23.74021147],[90.38459264,23.74027538],[90.38459647,23.74027615],[90.38461182,23.74021224]]]}},
{"type":"Feature","properties":{"id":"L04-F004","kind":"table","room":"L04-01"},"geometry":{"type":"Polygon","coordinates":[[[90.38474661,23.74024489],[90.38472934,23.74024142],[90.38472744,23.74024932],[90.38474471,23.7402528],[90.38474661,23.74024489]]]}},
{"type":"Feature","properties":{"id":"L04-F005","kind":"chair","room":"L04-01"},"geometry":{"type":"Polygon","coordinates":[[[90.38474531,23.74023984],[90.38474108,23.74023899],[90.3847402,23.74024268],[90.38474442,23.74024353],[90.38474531,23.74023984]]]}},
{"type":"Feature","properties":{"id":"L04-F006","kind":"chair","room":"L04-01"},"geometry":{"type":"Polygon","coordinates":[[[90.3847421,23.74025319],[90.38473788,23.74025234],[90.38473699,23.74025603],[90.38474121,23.74025688],[90.3847421,23.74025319]]]}},
{"type":"Feature","properties":{"id":"L04-F007","kind":"chair","room":"L04-01"},"geometry":{"type":"Polygon","coordinates":[[[90.38473715,23.7402382],[90.38473293,23.74023735],[90.38473204,23.74024104],[90.38473626,23.74024189],[90.38473715,23.7402382]]]}},
{"type":"Feature","properties":{"id":"L04-F008","kind":"chair","room":"L04-01"},"geometry":{"type":"Polygon","coordinates":[[[90.38473394,23.74025155],[90.38472972,23.7402507],[90.38472883,23.74025439],[90.38473306,23.74025524],[90.38473394,23.74025155]]]}},
{"type":"Feature","properties":{"id":"L04-F009","kind":"table","room":"L04-01"},"geometry":{"type":"Polygon","coordinates":[[[90.38474154,23.74026597],[90.38472427,23.7402625],[90.38472237,23.7402704],[90.38473964,23.74027388],[90.38474154,23.74026597]]]}},
{"type":"Feature","properties":{"id":"L04-F010","kind":"chair","room":"L04-01"},"geometry":{"type":"Polygon","coordinates":[[[90.38474024,23.74026092],[90.38473602,23.74026007],[90.38473513,23.74026376],[90.38473936,23.74026461],[90.38474024,23.74026092]]]}},
{"type":"Feature","properties":{"id":"L04-F011","kind":"chair","room":"L04-01"},"geometry":{"type":"Polygon","coordinates":[[[90.38473703,23.74027427],[90.38473281,23.74027343],[90.38473193,23.74027711],[90.38473615,23.74027796],[90.38473703,23.74027427]]]}},
{"type":"Feature","properties":{"id":"L04-F012","kind":"chair","room":"L04-01"},"geometry":{"type":"Polygon","coordinates":[[[90.38473209,23.74025928],[90.38472786,23.74025843],[90.38472698,23.74026212],[90.3847312,23.74026297],[90.38473209,23.74025928]]]}},
{"type":"Feature","properties":{"id":"L04-F013","kind":"chair","room":"L04-01"},"geometry":{"type":"Polygon","coordinates":[[[90.38472888,23.74027263],[90.38472466,23.74027178],[90.38472377,23.74027547],[90.38472799,23.74027632],[90.38472888,23.74027263]]]}},
{"type":"Feature","properties":{"id":"L04-F014","kind":"table","room":"L04-01"},"geometry":{"type":"Polygon","coordinates":[[[90.38473648,23.74028705],[90.38471921,23.74028358],[90.38471731,23.74029148],[90.38473458,23.74029496],[90.38473648,23.74028705]]]}},
{"type":"Feature","properties":{"id":"L04-F015","kind":"chair","room":"L04-01"},"geometry":{"type":"Polygon","coordinates":[[[90.38473518,23.740282],[90.38473096,23.74028115],[90.38473007,23.74028484],[90.38473429,23.74028569],[90.38473518,23.740282]]]}},
{"type":"Feature","properties":{"id":"L04-F016","kind":"chair","room":"L04-01"},"geometry":{"type":"Polygon","coordinates":[[[90.38473197,23.74029535],[90.38472775,23.74029451],[90.38472686,23.74029819],[90.38473108,23.74029904],[90.38473197,23.74029535]]]}},
{"type":"Feature","properties":{"id":"L04-F017","kind":"chair","room":"L04-01"},"geometry":{"type":"Polygon","coordinates":[[[90.38472702,23.74028036],[90.3847228,23.74027951],[90.38472191,23.7402832],[90.38472614,23.74028405],[90.38472702,23.74028036]]]}},
{"type":"Feature","properties":{"id":"L04-F018","kind":"chair","room":"L04-01"},"geometry":{"type":"Polygon","coordinates":[[[90.38472381,23.74029371],[90.38471959,23.74029286],[90.38471871,23.74029655],[90.38472293,23.7402974],[90.38472381,23.74029371]]]}},
{"type":"Feature","properties":{"id":"L04-F019","kind":"table","room":"L04-01"},"geometry":{"type":"Polygon","coordinates":[[[90.38471878,23.74023929],[90.38470151,23.74023582],[90.38469961,23.74024372],[90.38471688,23.7402472],[90.38471878,23.74023929]]]}},
{"type":"Feature","properties":{"id":"L04-F020","kind":"chair","room":"L04-01"},"geometry":{"type":"Polygon","coordinates":[[[90.38471748,23.74023424],[90.38471326,23.74023339],[90.38471237,23.74023708],[90.38471659,23.74023793],[90.38471748,23.74023424]]]}},
{"type":"Feature","properties":{"id":"L04-F021","kind":"chair","room":"L04-01"},"geometry":{"type":"Polygon","coordinates":[[[90.38471427,23.74024759],[90.38471005,23.74024674],[90.38470916,23.74025043],[90.38471339,23.74025128],[90.38471427,23.74024759]]]}},
{"type":"Feature","properties":{"id":"L04-F022","kind":"chair","room":"L04-01"},"geometry":{"type":"Polygon","coordinates":[[[90.38470932,23.7402326],[90.3847051,23.74023175],[90.38470421,23.74023544],[90.38470844,23.74023629],[90.38470932,23.7402326]]]}},
{"type":"Feature","properties":{"id":"L04-F023","kind":"chair","room":"L04-01"},"geometry":{"type":"Polygon","coordinates":[[[90.38470612,23.74024595],[90.38470189,23.7402451],[90.38470101,23.74024879],[90.38470523,23.74024964],[90.38470612,23.74024595]]]}},
{"type":"Feature","properties":{"id":"L04-F024","kind":"table","room":"L04-01"},"geometry":{"type":"Polygon","coordinates":[[[90.38471372,23.74026037],[90.38469645,23.7402569],[90.38469455,23.7402648],[90.38471182,23.74026828],[90.38471372,23.74026037]]]}},
{"type":"Feature","properties":{"id":"L04-F025","kind":"chair","room":"L04-01"},"geometry":{"type":"Polygon","coordinates":[[[90.38471241,23.74025532],[90.38470819,23.74025447],[90.38470731,23.74025816],[90.38471153,23.74025901],[90.38471241,23.74025532]]]}},
{"type":"Feature","properties":{"id":"L04-F026","kind":"chair","room":"L04-01"},"geometry":{"type":"Polygon","coordinates":[[[90.38470921,23.74026867],[90.38470499,23.74026782],[90.3847041,23.74027151],[90.38470832,23.74027236],[90.38470921,23.74026867]]]}},
{"type":"Feature","properties":{"id":"L04-F027","kind":"chair","room":"L04-01"},"geometry":{"type":"Polygon","coordinates":[[[90.38470426,23.74025368],[90.38470004,23.74025283],[90.38469915,23.74025652],[90.38470337,23.74025737],[90.38470426,23.74025368]]]}},
{"type":"Feature","properties":{"id":"L04-F028","kind":"chair","room":"L04-01"},"geometry":{"type":"Polygon","coordinates":[[[90.38470105,23.74026703],[90.38469683,23.74026618],[90.38469594,23.74026987],[90.38470017,23.74027072],[90.38470105,23.74026703]]]}},
{"type":"Feature","properties":{"id":"L04-F029","kind":"table","room":"L04-01"},"geometry":{"type":"Polygon","coordinates":[[[90.38470865,23.74028145],[90.38469138,23.74027798],[90.38468948,23.74028588],[90.38470675,23.74028936],[90.38470865,23.74028145]]]}},
{"type":"Feature","properties":{"id":"L04-F030","kind":"chair","room":"L04-01"},"geometry":{"type":"Polygon","coordinates":[[[90.38470735,23.7402764],[90.38470313,23.74027555],[90.38470224,23.74027924],[90.38470647,23.74028009],[90.38470735,23.7402764]]]}},
{"type":"Feature","properties":{"id":"L04-F031","kind":"chair","room":"L04-01"},"geometry":{"type":"Polygon","coordinates":[[[90.38470414,23.74028975],[90.38469992,23.7402889],[90.38469904,23.74029259],[90.38470326,23.74029344],[90.38470414,23.74028975]]]}},
{"type":"Feature","properties":{"id":"L04-F032","kind":"chair","room":"L04-01"},"geometry":{"type":"Polygon","coordinates":[[[90.3846992,23.74027476],[90.38469497,23.74027391],[90.38469409,23.7402776],[90.38469831,23.74027845],[90.3846992,23.74027476]]]}},
{"type":"Feature","properties":{"id":"L04-F033","kind":"chair","room":"L04-01"},"geometry":{"type":"Polygon","coordinates":[[[90.38469599,23.74028811],[90.38469177,23.74028726],[90.38469088,23.74029095],[90.3846951,23.7402918],[90.38469599,23.74028811]]]}},
{"type":"Feature","properties":{"id":"L04-F034","kind":"table","room":"L04-01"},"geometry":{"type":"Polygon","coordinates":[[[90.38469095,23.74023369],[90.38467368,23.74023022],[90.38467178,23.74023812],[90.38468905,23.7402416],[90.38469095,23.74023369]]]}},
{"type":"Feature","properties":{"id":"L04-F035","kind":"chair","room":"L04-01"},"geometry":{"type":"Polygon","coordinates":[[[90.38468965,23.74022864],[90.38468543,23.74022779],[90.38468454,23.74023148],[90.38468877,23.74023233],[90.38468965,23.74022864]]]}},
{"type":"Feature","properties":{"id":"L04-F036","kind":"chair","room":"L04-01"},"geometry":{"type":"Polygon","coordinates":[[[90.38468645,23.74024199],[90.38468222,23.74024114],[90.38468134,23.74024483],[90.38468556,23.74024568],[90.38468645,23.74024199]]]}},
{"type":"Feature","properties":{"id":"L04-F037","kind":"chair","room":"L04-01"},"geometry":{"type":"Polygon","coordinates":[[[90.3846815,23.740227],[90.38467727,23.74022615],[90.38467639,23.74022984],[90.38468061,23.74023069],[90.3846815,23.740227]]]}},
{"type":"Feature","properties":{"id":"L04-F038","kind":"chair","room":"L04-01"},"geometry":{"type":"Polygon","coordinates":[[[90.38467829,23.74024035],[90.38467407,23.7402395],[90.38467318,23.74024319],[90.3846774,23.74024404],[90.38467829,23.74024035]]]}},
{"type":"Feature","properties":{"id":"L04-F039","kind":"table","room":"L04-01"},"geometry":{"type":"Polygon","coordinates":[[[90.38468589,23.74025477],[90.38466862,23.7402513],[90.38466672,23.7402592],[90.38468399,23.74026268],[90.38468589,23.74025477]]]}},
{"type":"Feature","properties":{"id":"L04-F040","kind":"chair","room":"L04-01"},"geometry":{"type":"Polygon","coordinates":[[[90.38468459,23.74024972],[90.38468037,23.74024887],[90.38467948,23.74025256],[90.3846837,23.74025341],[90.38468459,23.74024972]]]}},
{"type":"Feature","properties":{"id":"L04-F041","kind":"chair","room":"L04-01"},"geometry":{"type":"Polygon","coordinates":[[[90.38468138,23.74026307],[90.38467716,23.74026222],[90.38467627,23.74026591],[90.3846805,23.74026676],[90.38468138,23.74026307]]]}},
{"type":"Feature","properties":{"id":"L04-F042","kind":"chair","room":"L04-01"},"geometry":{"type":"Polygon","coordinates":[[[90.38467643,23.74024808],[90.38467221,23.74024723],[90.38467132,23.74025092],[90.38467555,23.74025177],[90.38467643,23.74024808]]]}},
{"type":"Feature","properties":{"id":"L04-F043","kind":"chair","room":"L04-01"},"geometry":{"type":"Polygon","coordinates":[[[90.38467323,23.74026143],[90.384669,23.74026058],[90.38466812,23.74026427],[90.38467234,23.74026512],[90.38467323,23.74026143]]]}},
{"type":"Feature","properties":{"id":"L04-F044","kind":"table","room":"L04-01"},"geometry":{"type":"Polygon","coordinates":[[[90.38468083,23.74027585],[90.38466356,23.74027238],[90.38466166,23.74028028],[90.38467893,23.74028376],[90.38468083,23.74027585]]]}},
{"type":"Feature","properties":{"id":"L04-F045","kind":"chair","room":"L04-01"},"geometry":{"type":"Polygon","coordinates":[[[90.38467952,23.7402708],[90.3846753,23.74026995],[90.38467442,23.74027364],[90.38467864,23.74027449],[90.38467952,23.7402708]]]}},
{"type":"Feature","properties":{"id":"L04-F046","kind":"chair","room":"L04-01"},"geometry":{"type":"Polygon","coordinates":[[[90.38467632,23.74028415],[90.3846721,23.7402833],[90.38467121,23.74028699],[90.38467543,23.74028784],[90.38467632,23.74028415]]]}},
{"type":"Feature","properties":{"id":"L04-F047","kind":"chair","room":"L04-01"},"geometry":{"type":"Polygon","coordinates":[[[90.38467137,23.74026916],[90.38466715,23.74026831],[90.38466626,23.740272],[90.38467048,23.74027285],[90.38467137,23.74026916]]]}},
{"type":"Feature","properties":{"id":"L04-F048","kind":"chair","room":"L04-01"},"geometry":{"type":"Polygon","coordinates":[[[90.38466816,23.74028251],[90.38466394,23.74028166],[90.38466305,23.74028535],[90.38466728,23.7402862],[90.38466816,23.74028251]]]}},
{"type":"Feature","properties":{"id":"L04-F049","kind":"table","room":"L04-01"},"geometry":{"type":"Polygon","coordinates":[[[90.38466313,23.74022809],[90.38464586,23.74022462],[90.38464396,23.74023252],[90.38466123,23.740236],[90.38466313,23.74022809]]]}},
{"type":"Feature","properties":{"id":"L04-F050","kind":"chair","room":"L04-01"},"geometry":{"type":"Polygon","coordinates":[[[90.38466183,23.74022304],[90.3846576,23.74022219],[90.38465672,23.74022588],[90.38466094,23.74022673],[90.38466183,23.74022304]]]}},
{"type":"Feature","properties":{"id":"L04-F051","kind":"chair","room":"L04-01"},"geometry":{"type":"Polygon","coordinates":[[[90.38465862,23.74023639],[90.3846544,23.74023554],[90.38465351,23.74023923],[90.38465773,23.74024008],[90.38465862,23.74023639]]]}},
{"type":"Feature","properties":{"id":"L04-F052","kind":"chair","room":"L04-01"},"geometry":{"type":"Polygon","coordinates":[[[90.38465367,23.7402214],[90.38464945,23.74022055],[90.38464856,23.74022424],[90.38465278,23.74022509],[90.38465367,23.7402214]]]}},
{"type":"Feature","properties":{"id":"L04-F053","kind":"chair","room":"L04-01"},"geometry":{"type":"Polygon","coordinates":[[[90.38465046,23.74023475],[90.38464624,23.7402339],[90.38464535,23.74023759],[90.38464958,23.74023844],[90.38465046,23.74023475]]]}},
{"type":"Feature","properties":{"id":"L04-F054","kind":"table","room":"L04-01"},"geometry":{"type":"Polygon","coordinates":[[[90.38465806,23.74024917],[90.38464079,23.7402457],[90.38463889,23.7402536],[90.38465616,23.74025708],[90.38465806,23.74024917]]]}},
{"type":"Feature","properties":{"id":"L04-F055","kind":"chair","room":"L04-01"},"geometry":{"type":"Polygon","coordinates":[[[90.38465676,23.74024412],[90.38465254,23.74024327],[90.38465165,23.74024696],[90.38465588,23.74024781],[90.38465676,23.74024412]]]}},
{"type":"Feature","properties":{"id":"L04-F056","kind":"chair","room":"L04-01"},"geometry":{"type":"Polygon","coordinates":[[[90.38465356,23.74025747],[90.38464933,23.74025662],[90.38464845,23.74026031],[90.38465267,23.74026116],[90.38465356,23.74025747]]]}},
{"type":"Feature","properties":{"id":"L04-F057","kind":"chair","room":"L04-01"},"geometry":{"type":"Polygon","coordinates":[[[90.38464861,23.74024248],[90.38464438,23.74024163],[90.3846435,23.74024532],[90.38464772,23.74024617],[90.38464861,23.74024248]]]}},
{"type":"Feature","properties":{"id":"L04-F058","kind":"chair","room":"L04-01"},"geometry":{"type":"Polygon","coordinates":[[[90.3846454,23.74025583],[90.38464118,23.74025498],[90.38464029,23.74025867],[90.38464451,23.74025952],[90.3846454,23.74025583]]]}},
{"type":"Feature","properties":{"id":"L04-F059","kind":"table","room":"L04-01"},"geometry":{"type":"Polygon","coordinates":[[[90.384653,23.74027025],[90.38463573,23.74026678],[90.38463383,23.74027468],[90.3846511,23.74027816],[90.384653,23.74027025]]]}},
{"type":"Feature","properties":{"id":"L04-F060","kind":"chair","room":"L04-01"},"geometry":{"type":"Polygon","coordinates":[[[90.3846517,23.7402652],[90.38464748,23.74026435],[90.38464659,23.74026804],[90.38465081,23.74026889],[90.3846517,23.7402652]]]}},
{"type":"Feature","properties":{"id":"L04-F061","kind":"chair","room":"L04-01"},"geometry":{"type":"Polygon","coordinates":[[[90.38464849,23.74027855],[90.38464427,23.7402777],[90.38464338,23.74028139],[90.38464761,23.74028224],[90.38464849,23.74027855]]]}},
{"type":"Feature","properties":{"id":"L04-F062","kind":"chair","room":"L04-01"},"geometry":{"type":"Polygon","coordinates":[[[90.38464354,23.74026356],[90.38463932,23.74026271],[90.38463843,23.7402664],[90.38464266,23.74026725],[90.38464354,23.74026356]]]}},
{"type":"Feature","properties":{"id":"L04-F063","kind":"chair","room":"L04-01"},"geometry":{"type":"Polygon","coordinates":[[[90.38464034,23.74027691],[90.38463611,23.74027606],[90.38463523,23.74027975],[90.38463945,23.7402806],[90.38464034,23.74027691]]]}},
{"type":"Feature","properties":{"id":"L04-F064","kind":"table","room":"L04-01"},"geometry":{"type":"Polygon","coordinates":[[[90.3846353,23.74022249],[90.38461803,23.74021901],[90.38461613,23.74022692],[90.3846334,23.7402304],[90.3846353,23.74022249]]]}},
{"type":"Feature","properties":{"id":"L04-F065","kind":"chair","room":"L04-01"},"geometry":{"type":"Polygon","coordinates":[[[90.384634,23.74021744],[90.38462978,23.74021659],[90.38462889,23.74022028],[90.38463311,23.74022113],[90.384634,23.74021744]]]}},
{"type":"Feature","properties":{"id":"L04-F066","kind":"chair","room":"L04-01"},"geometry":{"type":"Polygon","coordinates":[[[90.38463079,23.74023079],[90.38462657,23.74022994],[90.38462568,23.74023363],[90.38462991,23.74023448],[90.38463079,23.74023079]]]}},
{"type":"Feature","properties":{"id":"L04-F067","kind":"chair","room":"L04-01"},"geometry":{"type":"Polygon","coordinates":[[[90.38462584,23.7402158],[90.38462162,23.74021495],[90.38462074,23.74021864],[90.38462496,23.74021949],[90.38462584,23.7402158]]]}},
{"type":"Feature","properties":{"id":"L04-F068","kind":"chair","room":"L04-01"},"geometry":{"type":"Polygon","coordinates":[[[90.38462264,23.74022915],[90.38461841,23.7402283],[90.38461753,23.74023199],[90.38462175,23.74023284],[90.38462264,23.74022915]]]}},
{"type":"Feature","properties":{"id":"L04-F069","kind":"table","room":"L04-01"},"geometry":{"type":"Polygon","coordinates":[[[90.38463024,23.74024357],[90.38461297,23.74024009],[90.38461107,23.740248],[90.38462834,23.74025148],[90.38463024,23.74024357]]]}},
{"type":"Feature","properties":{"id":"L04-F070","kind":"chair","room":"L04-01"},"geometry":{"type":"Polygon","coordinates":[[[90.38462894,23.74023852],[90.38462471,23.74023767],[90.38462383,23.74024136],[90.38462805,23.74024221],[90.38462894,23.74023852]]]}},
{"type":"Feature","properties":{"id":"L04-F071","kind":"chair","room":"L04-01"},"geometry":{"type":"Polygon","coordinates":[[[90.38462573,23.74025187],[90.38462151,23.74025102],[90.38462062,23.74025471],[90.38462484,23.74025556],[90.38462573,23.74025187]]]}},
{"type":"Feature","properties":{"id":"L04-F072","kind":"chair","room":"L04-01"},"geometry":{"type":"Polygon","coordinates":[[[90.38462078,23.74023688],[90.38461656,23.74023603],[90.38461567,23.74023972],[90.38461989,23.74024057],[90.38462078,23.74023688]]]}},
{"type":"Feature","properties":{"id":"L04-F073","kind":"chair","room":"L04-01"},"geometry":{"type":"Polygon","coordinates":[[[90.38461757,23.74025023],[90.38461335,23.74024938],[90.38461246,23.74025307],[90.38461669,23.74025392],[90.38461757,23.74025023]]]}},
{"type":"Feature","properties":{"id":"L04-F074","kind":"table","room":"L04-01"},"geometry":{"type":"Polygon","coordinates":[[[90.38462517,23.74026465],[90.3846079,23.74026117],[90.384606,23.74026908],[90.38462327,23.74027256],[90.38462517,23.74026465]]]}},
{"type":"Feature","properties":{"id":"L04-F075","kind":"chair","room":"L04-01"},"geometry":{"type":"Polygon","coordinates":[[[90.38462387,23.7402596],[90.38461965,23.74025875],[90.38461876,23.74026244],[90.38462299,23.74026329],[90.38462387,23.7402596]]]}},
{"type":"Feature","properties":{"id":"L04-F076","kind":"chair","room":"L04-01"},"geometry":{"type":"Polygon","coordinates":[[[90.38462067,23.74027295],[90.38461644,23.7402721],[90.38461556,23.74027579],[90.38461978,23.74027664],[90.38462067,23.74027295]]]}},
{"type":"Feature","properties":{"id":"L04-F077","kind":"chair","room":"L04-01"},"geometry":{"type":"Polygon","coordinates":[[[90.38461572,23.74025796],[90.38461149,23.74025711],[90.38461061,23.7402608],[90.38461483,23.74026165],[90.38461572,23.74025796]]]}},
{"type":"Feature","properties":{"id":"L04-F078","kind":"chair","room":"L04-01"},"geometry":{"type":"Polygon","coordinates":[[[90.38461251,23.74027131],[90.38460829,23.74027046],[90.3846074,23.74027415],[90.38461162,23.740275],[90.38461251,23.74027131]]]}},
{"type":"Feature","properties":{"id":"L04-F079","kind":"desk","room":"L04-02"},"geometry":{"type":"Polygon","coordinates":[[[90.38477151,23.74014685],[90.38475711,23.74014395],[90.38475551,23.74015063],[90.3847699,23.74015352],[90.38477151,23.74014685]]]}},
{"type":"Feature","properties":{"id":"L04-F080","kind":"chair","room":"L04-02","height_m":1},"geometry":{"type":"Polygon","coordinates":[[[90.38476866,23.74013983],[90.38476291,23.74013867],[90.38476173,23.74014359],[90.38476748,23.74014475],[90.38476866,23.74013983]]]}},
{"type":"Feature","properties":{"id":"L04-F081","kind":"chair","room":"L04-02"},"geometry":{"type":"Polygon","coordinates":[[[90.38476926,23.74015496],[90.38476494,23.74015409],[90.38476399,23.74015804],[90.38476831,23.74015891],[90.38476926,23.74015496]]]}},
{"type":"Feature","properties":{"id":"L04-F082","kind":"chair","room":"L04-02"},"geometry":{"type":"Polygon","coordinates":[[[90.38475976,23.74015305],[90.38475544,23.74015218],[90.38475449,23.74015613],[90.38475881,23.740157],[90.38475976,23.74015305]]]}},
{"type":"Feature","properties":{"id":"L04-F083","kind":"desk","room":"L04-02"},"geometry":{"type":"Polygon","coordinates":[[[90.38473282,23.74013906],[90.38471842,23.74013616],[90.38471682,23.74014284],[90.38473121,23.74014574],[90.38473282,23.74013906]]]}},
{"type":"Feature","properties":{"id":"L04-F084","kind":"chair","room":"L04-02","height_m":1},"geometry":{"type":"Polygon","coordinates":[[[90.38472997,23.74013204],[90.38472422,23.74013089],[90.38472304,23.7401358],[90.38472879,23.74013696],[90.38472997,23.74013204]]]}},
{"type":"Feature","properties":{"id":"L04-F085","kind":"chair","room":"L04-02"},"geometry":{"type":"Polygon","coordinates":[[[90.38473057,23.74014717],[90.38472625,23.7401463],[90.3847253,23.74015026],[90.38472962,23.74015112],[90.38473057,23.74014717]]]}},
{"type":"Feature","properties":{"id":"L04-F086","kind":"chair","room":"L04-02"},"geometry":{"type":"Polygon","coordinates":[[[90.38472107,23.74014526],[90.38471675,23.74014439],[90.3847158,23.74014834],[90.38472012,23.74014921],[90.38472107,23.74014526]]]}},
{"type":"Feature","properties":{"id":"L04-F087","kind":"cabinet","room":"L04-02"},"geometry":{"type":"Polygon","coordinates":[[[90.38478908,23.74011831],[90.38477277,23.74011502],[90.38477189,23.74011871],[90.3847882,23.740122],[90.38478908,23.74011831]]]}},
{"type":"Feature","properties":{"id":"L04-F088","kind":"plant","room":"L04-02"},"geometry":{"type":"Polygon","coordinates":[[[90.38472043,23.74010495],[90.38471592,23.74010404],[90.38471493,23.74010817],[90.38471944,23.74010908],[90.38472043,23.74010495]]]}},
{"type":"Feature","properties":{"id":"L04-F089","kind":"shelf","room":"L04-03"},"geometry":{"type":"Polygon","coordinates":[[[90.38469539,23.74016645],[90.38468373,23.7401641],[90.38468267,23.74016849],[90.38469434,23.74017084],[90.38469539,23.74016645]]]}},
{"type":"Feature","properties":{"id":"L04-F090","kind":"shelf","room":"L04-03"},"geometry":{"type":"Polygon","coordinates":[[[90.38467413,23.74016217],[90.38466246,23.74015982],[90.38466141,23.74016421],[90.38467308,23.74016656],[90.38467413,23.74016217]]]}},
{"type":"Feature","properties":{"id":"L04-F091","kind":"shelf","room":"L04-03"},"geometry":{"type":"Polygon","coordinates":[[[90.38469877,23.74015239],[90.3846871,23.74015004],[90.38468605,23.74015444],[90.38469772,23.74015679],[90.38469877,23.74015239]]]}},
{"type":"Feature","properties":{"id":"L04-F092","kind":"shelf","room":"L04-03"},"geometry":{"type":"Polygon","coordinates":[[[90.38467751,23.74014811],[90.38466584,23.74014577],[90.38466478,23.74015016],[90.38467645,23.74015251],[90.38467751,23.74014811]]]}},
{"type":"Feature","properties":{"id":"L04-F093","kind":"shelf","room":"L04-03"},"geometry":{"type":"Polygon","coordinates":[[[90.38470215,23.74013834],[90.38469048,23.74013599],[90.38468942,23.74014038],[90.38470109,23.74014273],[90.38470215,23.74013834]]]}},
{"type":"Feature","properties":{"id":"L04-F094","kind":"shelf","room":"L04-03"},"geometry":{"type":"Polygon","coordinates":[[[90.38468088,23.74013406],[90.38466921,23.74013171],[90.38466816,23.7401361],[90.38467983,23.74013845],[90.38468088,23.74013406]]]}},
{"type":"Feature","properties":{"id":"L04-F095","kind":"shelf","room":"L04-03"},"geometry":{"type":"Polygon","coordinates":[[[90.38470552,23.74012429],[90.38469385,23.74012194],[90.3846928,23.74012633],[90.38470447,23.74012868],[90.38470552,23.74012429]]]}},
{"type":"Feature","properties":{"id":"L04-F096","kind":"shelf","room":"L04-03"},"geometry":{"type":"Polygon","coordinates":[[[90.38468426,23.74012001],[90.38467259,23.74011766],[90.38467153,23.74012205],[90.3846832,23.7401244],[90.38468426,23.74012001]]]}},
{"type":"Feature","properties":{"id":"L04-F097","kind":"shelf","room":"L04-03"},"geometry":{"type":"Polygon","coordinates":[[[90.3847089,23.74011023],[90.38469723,23.74010788],[90.38469617,23.74011228],[90.38470784,23.74011463],[90.3847089,23.74011023]]]}},
{"type":"Feature","properties":{"id":"L04-F098","kind":"shelf","room":"L04-03"},"geometry":{"type":"Polygon","coordinates":[[[90.38468763,23.74010595],[90.38467597,23.7401036],[90.38467491,23.740108],[90.38468658,23.74011035],[90.38468763,23.74010595]]]}},
{"type":"Feature","properties":{"id":"L04-F099","kind":"desk","room":"L04-04"},"geometry":{"type":"Polygon","coordinates":[[[90.38465544,23.74012349],[90.38464104,23.74012059],[90.38463944,23.74012727],[90.38465383,23.74013016],[90.38465544,23.74012349]]]}},
{"type":"Feature","properties":{"id":"L04-F100","kind":"chair","room":"L04-04","height_m":1},"geometry":{"type":"Polygon","coordinates":[[[90.38465259,23.74011647],[90.38464684,23.74011531],[90.38464566,23.74012023],[90.38465141,23.74012139],[90.38465259,23.74011647]]]}},
{"type":"Feature","properties":{"id":"L04-F101","kind":"chair","room":"L04-04"},"geometry":{"type":"Polygon","coordinates":[[[90.38465319,23.7401316],[90.38464887,23.74013073],[90.38464792,23.74013468],[90.38465224,23.74013555],[90.38465319,23.7401316]]]}},
{"type":"Feature","properties":{"id":"L04-F102","kind":"chair","room":"L04-04"},"geometry":{"type":"Polygon","coordinates":[[[90.38464369,23.74012969],[90.38463937,23.74012882],[90.38463842,23.74013277],[90.38464274,23.74013364],[90.38464369,23.74012969]]]}},
{"type":"Feature","properties":{"id":"L04-F103","kind":"cabinet","room":"L04-04"},"geometry":{"type":"Polygon","coordinates":[[[90.38467302,23.74009495],[90.38465946,23.74009222],[90.38465857,23.74009591],[90.38467213,23.74009863],[90.38467302,23.74009495]]]}},
{"type":"Feature","properties":{"id":"L04-F104","kind":"plant","room":"L04-04"},"geometry":{"type":"Polygon","coordinates":[[[90.38464305,23.74008937],[90.38463854,23.74008847],[90.38463755,23.74009259],[90.38464206,23.7400935],[90.38464305,23.74008937]]]}},
{"type":"Feature","properties":{"id":"L04-F105","kind":"shelf","room":"L04-05"},"geometry":{"type":"Polygon","coordinates":[[[90.38463347,23.74008653],[90.38448447,23.74005654],[90.38448363,23.74006005],[90.38463263,23.74009004],[90.38463347,23.74008653]]]}},
{"type":"Feature","properties":{"id":"L04-F106","kind":"shelf","room":"L04-05"},"geometry":{"type":"Polygon","coordinates":[[[90.38463354,23.74009252],[90.3846297,23.74009175],[90.38461435,23.74015566],[90.38461819,23.74015643],[90.38463354,23.74009252]]]}},
{"type":"Feature","properties":{"id":"L04-F107","kind":"shelf","room":"L04-05"},"geometry":{"type":"Polygon","coordinates":[[[90.3844855,23.74006273],[90.38448166,23.74006196],[90.38446631,23.74012586],[90.38447015,23.74012664],[90.3844855,23.74006273]]]}},
{"type":"Feature","properties":{"id":"L04-F108","kind":"table","room":"L04-05"},"geometry":{"type":"Polygon","coordinates":[[[90.38460936,23.74014084],[90.38459209,23.74013737],[90.38459019,23.74014527],[90.38460746,23.74014875],[90.38460936,23.74014084]]]}},
{"type":"Feature","properties":{"id":"L04-F109","kind":"chair","room":"L04-05"},"geometry":{"type":"Polygon","coordinates":[[[90.38460485,23.74014914],[90.38460063,23.74014829],[90.38459974,23.74015198],[90.38460396,23.74015283],[90.38460485,23.74014914]]]}},
{"type":"Feature","properties":{"id":"L04-F110","kind":"chair","room":"L04-05"},"geometry":{"type":"Polygon","coordinates":[[[90.38460806,23.74013579],[90.38460384,23.74013494],[90.38460295,23.74013863],[90.38460717,23.74013948],[90.38460806,23.74013579]]]}},
{"type":"Feature","properties":{"id":"L04-F111","kind":"chair","room":"L04-05"},"geometry":{"type":"Polygon","coordinates":[[[90.38459669,23.7401475],[90.38459247,23.74014665],[90.38459159,23.74015034],[90.38459581,23.74015119],[90.38459669,23.7401475]]]}},
{"type":"Feature","properties":{"id":"L04-F112","kind":"chair","room":"L04-05"},"geometry":{"type":"Polygon","coordinates":[[[90.3845999,23.74013415],[90.38459568,23.7401333],[90.38459479,23.74013699],[90.38459902,23.74013784],[90.3845999,23.74013415]]]}},
{"type":"Feature","properties":{"id":"L04-F113","kind":"table","room":"L04-05"},"geometry":{"type":"Polygon","coordinates":[[[90.38461442,23.74011976],[90.38459715,23.74011629],[90.38459525,23.74012419],[90.38461252,23.74012767],[90.38461442,23.74011976]]]}},
{"type":"Feature","properties":{"id":"L04-F114","kind":"chair","room":"L04-05"},"geometry":{"type":"Polygon","coordinates":[[[90.38460991,23.74012806],[90.38460569,23.74012721],[90.38460481,23.7401309],[90.38460903,23.74013175],[90.38460991,23.74012806]]]}},
{"type":"Feature","properties":{"id":"L04-F115","kind":"chair","room":"L04-05"},"geometry":{"type":"Polygon","coordinates":[[[90.38461312,23.74011471],[90.3846089,23.74011386],[90.38460801,23.74011755],[90.38461223,23.7401184],[90.38461312,23.74011471]]]}},
{"type":"Feature","properties":{"id":"L04-F116","kind":"chair","room":"L04-05"},"geometry":{"type":"Polygon","coordinates":[[[90.38460176,23.74012642],[90.38459754,23.74012557],[90.38459665,23.74012926],[90.38460087,23.74013011],[90.38460176,23.74012642]]]}},
{"type":"Feature","properties":{"id":"L04-F117","kind":"chair","room":"L04-05"},"geometry":{"type":"Polygon","coordinates":[[[90.38460497,23.74011307],[90.38460074,23.74011222],[90.38459986,23.74011591],[90.38460408,23.74011676],[90.38460497,23.74011307]]]}},
{"type":"Feature","properties":{"id":"L04-F118","kind":"table","room":"L04-05"},"geometry":{"type":"Polygon","coordinates":[[[90.38461949,23.74009868],[90.38460221,23.74009521],[90.38460032,23.74010311],[90.38461759,23.74010659],[90.38461949,23.74009868]]]}},
{"type":"Feature","properties":{"id":"L04-F119","kind":"chair","room":"L04-05"},"geometry":{"type":"Polygon","coordinates":[[[90.38461498,23.74010698],[90.38461076,23.74010613],[90.38460987,23.74010982],[90.38461409,23.74011067],[90.38461498,23.74010698]]]}},
{"type":"Feature","properties":{"id":"L04-F120","kind":"chair","room":"L04-05"},"geometry":{"type":"Polygon","coordinates":[[[90.38461818,23.74009363],[90.38461396,23.74009278],[90.38461308,23.74009647],[90.3846173,23.74009732],[90.38461818,23.74009363]]]}},
{"type":"Feature","properties":{"id":"L04-F121","kind":"chair","room":"L04-05"},"geometry":{"type":"Polygon","coordinates":[[[90.38460682,23.74010534],[90.3846026,23.74010449],[90.38460171,23.74010818],[90.38460594,23.74010903],[90.38460682,23.74010534]]]}},
{"type":"Feature","properties":{"id":"L04-F122","kind":"chair","room":"L04-05"},"geometry":{"type":"Polygon","coordinates":[[[90.38461003,23.74009199],[90.38460581,23.74009114],[90.38460492,23.74009483],[90.38460914,23.74009568],[90.38461003,23.74009199]]]}},
{"type":"Feature","properties":{"id":"L04-F123","kind":"table","room":"L04-05"},"geometry":{"type":"Polygon","coordinates":[[[90.38458153,23.74013524],[90.38456426,23.74013177],[90.38456236,23.74013967],[90.38457963,23.74014315],[90.38458153,23.74013524]]]}},
{"type":"Feature","properties":{"id":"L04-F124","kind":"chair","room":"L04-05"},"geometry":{"type":"Polygon","coordinates":[[[90.38457702,23.74014354],[90.3845728,23.74014269],[90.38457192,23.74014638],[90.38457614,23.74014723],[90.38457702,23.74014354]]]}},
{"type":"Feature","properties":{"id":"L04-F125","kind":"chair","room":"L04-05"},"geometry":{"type":"Polygon","coordinates":[[[90.38458023,23.74013019],[90.38457601,23.74012934],[90.38457512,23.74013303],[90.38457934,23.74013388],[90.38458023,23.74013019]]]}},
{"type":"Feature","properties":{"id":"L04-F126","kind":"chair","room":"L04-05"},"geometry":{"type":"Polygon","coordinates":[[[90.38456887,23.7401419],[90.38456465,23.74014105],[90.38456376,23.74014474],[90.38456798,23.74014559],[90.38456887,23.7401419]]]}},
{"type":"Feature","properties":{"id":"L04-F127","kind":"chair","room":"L04-05"},"geometry":{"type":"Polygon","coordinates":[[[90.38457207,23.74012855],[90.38456785,23.7401277],[90.38456697,23.74013139],[90.38457119,23.74013224],[90.38457207,23.74012855]]]}},
{"type":"Feature","properties":{"id":"L04-F128","kind":"table","room":"L04-05"},"geometry":{"type":"Polygon","coordinates":[[[90.3845866,23.74011416],[90.38456932,23.74011069],[90.38456743,23.74011859],[90.3845847,23.74012207],[90.3845866,23.74011416]]]}},
{"type":"Feature","properties":{"id":"L04-F129","kind":"chair","room":"L04-05"},"geometry":{"type":"Polygon","coordinates":[[[90.38458209,23.74012246],[90.38457787,23.74012161],[90.38457698,23.7401253],[90.3845812,23.74012615],[90.38458209,23.74012246]]]}},
{"type":"Feature","properties":{"id":"L04-F130","kind":"chair","room":"L04-05"},"geometry":{"type":"Polygon","coordinates":[[[90.38458529,23.74010911],[90.38458107,23.74010826],[90.38458019,23.74011195],[90.38458441,23.7401128],[90.38458529,23.74010911]]]}},
{"type":"Feature","properties":{"id":"L04-F131","kind":"chair","room":"L04-05"},"geometry":{"type":"Polygon","coordinates":[[[90.38457393,23.74012082],[90.38456971,23.74011997],[90.38456882,23.74012366],[90.38457305,23.74012451],[90.38457393,23.74012082]]]}},
{"type":"Feature","properties":{"id":"L04-F132","kind":"chair","room":"L04-05"},"geometry":{"type":"Polygon","coordinates":[[[90.38457714,23.74010747],[90.38457292,23.74010662],[90.38457203,23.74011031],[90.38457625,23.74011116],[90.38457714,23.74010747]]]}},
{"type":"Feature","properties":{"id":"L04-F133","kind":"table","room":"L04-05"},"geometry":{"type":"Polygon","coordinates":[[[90.38459166,23.74009308],[90.38457439,23.74008961],[90.38457249,23.74009751],[90.38458976,23.74010099],[90.38459166,23.74009308]]]}},
{"type":"Feature","properties":{"id":"L04-F134","kind":"chair","room":"L04-05"},"geometry":{"type":"Polygon","coordinates":[[[90.38458715,23.74010138],[90.38458293,23.74010053],[90.38458204,23.74010422],[90.38458627,23.74010507],[90.38458715,23.74010138]]]}},
{"type":"Feature","properties":{"id":"L04-F135","kind":"chair","room":"L04-05"},"geometry":{"type":"Polygon","coordinates":[[[90.38459036,23.74008803],[90.38458614,23.74008718],[90.38458525,23.74009087],[90.38458947,23.74009172],[90.38459036,23.74008803]]]}},
{"type":"Feature","properties":{"id":"L04-F136","kind":"chair","room":"L04-05"},"geometry":{"type":"Polygon","coordinates":[[[90.384579,23.74009974],[90.38457477,23.74009889],[90.38457389,23.74010258],[90.38457811,23.74010343],[90.384579,23.74009974]]]}},
{"type":"Feature","properties":{"id":"L04-F137","kind":"chair","room":"L04-05"},"geometry":{"type":"Polygon","coordinates":[[[90.3845822,23.74008639],[90.38457798,23.74008554],[90.38457709,23.74008923],[90.38458132,23.74009008],[90.3845822,23.74008639]]]}},
{"type":"Feature","properties":{"id":"L04-F138","kind":"table","room":"L04-05"},"geometry":{"type":"Polygon","coordinates":[[[90.38455371,23.74012964],[90.38453643,23.74012617],[90.38453454,23.74013407],[90.38455181,23.74013755],[90.38455371,23.74012964]]]}},
{"type":"Feature","properties":{"id":"L04-F139","kind":"chair","room":"L04-05"},"geometry":{"type":"Polygon","coordinates":[[[90.3845492,23.74013794],[90.38454498,23.74013709],[90.38454409,23.74014078],[90.38454831,23.74014163],[90.3845492,23.74013794]]]}},
{"type":"Feature","properties":{"id":"L04-F140","kind":"chair","room":"L04-05"},"geometry":{"type":"Polygon","coordinates":[[[90.3845524,23.74012459],[90.38454818,23.74012374],[90.3845473,23.74012743],[90.38455152,23.74012828],[90.3845524,23.74012459]]]}},
{"type":"Feature","properties":{"id":"L04-F141","kind":"chair","room":"L04-05"},"geometry":{"type":"Polygon","coordinates":[[[90.38454104,23.7401363],[90.38453682,23.74013545],[90.38453593,23.74013914],[90.38454016,23.74013999],[90.38454104,23.7401363]]]}},
{"type":"Feature","properties":{"id":"L04-F142","kind":"chair","room":"L04-05"},"geometry":{"type":"Polygon","coordinates":[[[90.38454425,23.74012295],[90.38454003,23.7401221],[90.38453914,23.74012579],[90.38454336,23.74012664],[90.38454425,23.74012295]]]}},
{"type":"Feature","properties":{"id":"L04-F143","kind":"table","room":"L04-05"},"geometry":{"type":"Polygon","coordinates":[[[90.38455877,23.74010856],[90.3845415,23.74010509],[90.3845396,23.74011299],[90.38455687,23.74011647],[90.38455877,23.74010856]]]}},
{"type":"Feature","properties":{"id":"L04-F144","kind":"chair","room":"L04-05"},"geometry":{"type":"Polygon","coordinates":[[[90.38455426,23.74011686],[90.38455004,23.74011601],[90.38454915,23.7401197],[90.38455338,23.74012055],[90.38455426,23.74011686]]]}},
{"type":"Feature","properties":{"id":"L04-F145","kind":"chair","room":"L04-05"},"geometry":{"type":"Polygon","coordinates":[[[90.38455747,23.74010351],[90.38455325,23.74010266],[90.38455236,23.74010635],[90.38455658,23.7401072],[90.38455747,23.74010351]]]}},
{"type":"Feature","properties":{"id":"L04-F146","kind":"chair","room":"L04-05"},"geometry":{"type":"Polygon","coordinates":[[[90.38454611,23.74011522],[90.38454188,23.74011437],[90.384541,23.74011806],[90.38454522,23.74011891],[90.38454611,23.74011522]]]}},
{"type":"Feature","properties":{"id":"L04-F147","kind":"chair","room":"L04-05"},"geometry":{"type":"Polygon","coordinates":[[[90.38454931,23.74010187],[90.38454509,23.74010102],[90.3845442,23.74010471],[90.38454843,23.74010556],[90.38454931,23.74010187]]]}},
{"type":"Feature","properties":{"id":"L04-F148","kind":"table","room":"L04-05"},"geometry":{"type":"Polygon","coordinates":[[[90.38456383,23.74008748],[90.38454656,23.740084],[90.38454466,23.74009191],[90.38456193,23.74009539],[90.38456383,23.74008748]]]}},
{"type":"Feature","properties":{"id":"L04-F149","kind":"chair","room":"L04-05"},"geometry":{"type":"Polygon","coordinates":[[[90.38455932,23.74009578],[90.3845551,23.74009493],[90.38455422,23.74009862],[90.38455844,23.74009947],[90.38455932,23.74009578]]]}},
{"type":"Feature","properties":{"id":"L04-F150","kind":"chair","room":"L04-05"},"geometry":{"type":"Polygon","coordinates":[[[90.38456253,23.74008243],[90.38455831,23.74008158],[90.38455742,23.74008527],[90.38456165,23.74008612],[90.38456253,23.74008243]]]}},
{"type":"Feature","properties":{"id":"L04-F151","kind":"chair","room":"L04-05"},"geometry":{"type":"Polygon","coordinates":[[[90.38455117,23.74009414],[90.38454695,23.74009329],[90.38454606,23.74009698],[90.38455028,23.74009783],[90.38455117,23.74009414]]]}},
{"type":"Feature","properties":{"id":"L04-F152","kind":"chair","room":"L04-05"},"geometry":{"type":"Polygon","coordinates":[[[90.38455438,23.74008079],[90.38455015,23.74007994],[90.38454927,23.74008363],[90.38455349,23.74008448],[90.38455438,23.74008079]]]}},
{"type":"Feature","properties":{"id":"L04-F153","kind":"table","room":"L04-05"},"geometry":{"type":"Polygon","coordinates":[[[90.38452588,23.74012404],[90.38450861,23.74012056],[90.38450671,23.74012847],[90.38452398,23.74013195],[90.38452588,23.74012404]]]}},
{"type":"Feature","properties":{"id":"L04-F154","kind":"chair","room":"L04-05"},"geometry":{"type":"Polygon","coordinates":[[[90.38452137,23.74013234],[90.38451715,23.74013149],[90.38451626,23.74013518],[90.38452048,23.74013603],[90.38452137,23.74013234]]]}},
{"type":"Feature","properties":{"id":"L04-F155","kind":"chair","room":"L04-05"},"geometry":{"type":"Polygon","coordinates":[[[90.38452458,23.74011899],[90.38452036,23.74011814],[90.38451947,23.74012183],[90.38452369,23.74012268],[90.38452458,23.74011899]]]}},
{"type":"Feature","properties":{"id":"L04-F156","kind":"chair","room":"L04-05"},"geometry":{"type":"Polygon","coordinates":[[[90.38451322,23.7401307],[90.38450899,23.74012985],[90.38450811,23.74013354],[90.38451233,23.74013439],[90.38451322,23.7401307]]]}},
{"type":"Feature","properties":{"id":"L04-F157","kind":"chair","room":"L04-05"},"geometry":{"type":"Polygon","coordinates":[[[90.38451642,23.74011735],[90.3845122,23.7401165],[90.38451131,23.74012019],[90.38451554,23.74012104],[90.38451642,23.74011735]]]}},
{"type":"Feature","properties":{"id":"L04-F158","kind":"table","room":"L04-05"},"geometry":{"type":"Polygon","coordinates":[[[90.38453094,23.74010296],[90.38451367,23.74009948],[90.38451177,23.74010739],[90.38452904,23.74011087],[90.38453094,23.74010296]]]}},
{"type":"Feature","properties":{"id":"L04-F159","kind":"chair","room":"L04-05"},"geometry":{"type":"Polygon","coordinates":[[[90.38452643,23.74011126],[90.38452221,23.74011041],[90.38452133,23.7401141],[90.38452555,23.74011495],[90.38452643,23.74011126]]]}},
{"type":"Feature","properties":{"id":"L04-F160","kind":"chair","room":"L04-05"},"geometry":{"type":"Polygon","coordinates":[[[90.38452964,23.74009791],[90.38452542,23.74009706],[90.38452453,23.74010075],[90.38452876,23.7401016],[90.38452964,23.74009791]]]}},
{"type":"Feature","properties":{"id":"L04-F161","kind":"chair","room":"L04-05"},"geometry":{"type":"Polygon","coordinates":[[[90.38451828,23.74010962],[90.38451406,23.74010877],[90.38451317,23.74011246],[90.38451739,23.74011331],[90.38451828,23.74010962]]]}},
{"type":"Feature","properties":{"id":"L04-F162","kind":"chair","room":"L04-05"},"geometry":{"type":"Polygon","coordinates":[[[90.38452149,23.74009627],[90.38451726,23.74009542],[90.38451638,23.74009911],[90.3845206,23.74009996],[90.38452149,23.74009627]]]}},
{"type":"Feature","properties":{"id":"L04-F163","kind":"table","room":"L04-05"},"geometry":{"type":"Polygon","coordinates":[[[90.38453601,23.74008188],[90.38451874,23.7400784],[90.38451684,23.74008631],[90.38453411,23.74008979],[90.38453601,23.74008188]]]}},
{"type":"Feature","properties":{"id":"L04-F164","kind":"chair","room":"L04-05"},"geometry":{"type":"Polygon","coordinates":[[[90.3845315,23.74009018],[90.38452728,23.74008933],[90.38452639,23.74009302],[90.38453061,23.74009387],[90.3845315,23.74009018]]]}},
{"type":"Feature","properties":{"id":"L04-F165","kind":"chair","room":"L04-05"},"geometry":{"type":"Polygon","coordinates":[[[90.38453471,23.74007683],[90.38453048,23.74007598],[90.3845296,23.74007967],[90.38453382,23.74008052],[90.38453471,23.74007683]]]}},
{"type":"Feature","properties":{"id":"L04-F166","kind":"chair","room":"L04-05"},"geometry":{"type":"Polygon","coordinates":[[[90.38452334,23.74008854],[90.38451912,23.74008769],[90.38451823,23.74009138],[90.38452246,23.74009223],[90.38452334,23.74008854]]]}},
{"type":"Feature","properties":{"id":"L04-F167","kind":"chair","room":"L04-05"},"geometry":{"type":"Polygon","coordinates":[[[90.38452655,23.74007519],[90.38452233,23.74007434],[90.38452144,23.74007803],[90.38452566,23.74007888],[90.38452655,23.74007519]]]}},
{"type":"Feature","properties":{"id":"L04-F168","kind":"table","room":"L04-05"},"geometry":{"type":"Polygon","coordinates":[[[90.38449805,23.74011844],[90.38448078,23.74011496],[90.38447888,23.74012287],[90.38449615,23.74012635],[90.38449805,23.74011844]]]}},
{"type":"Feature","properties":{"id":"L04-F169","kind":"chair","room":"L04-05"},"geometry":{"type":"Polygon","coordinates":[[[90.38449354,23.74012674],[90.38448932,23.74012589],[90.38448844,23.74012958],[90.38449266,23.74013043],[90.38449354,23.74012674]]]}},
{"type":"Feature","properties":{"id":"L04-F170","kind":"chair","room":"L04-05"},"geometry":{"type":"Polygon","coordinates":[[[90.38449675,23.74011339],[90.38449253,23.74011254],[90.38449164,23.74011623],[90.38449587,23.74011708],[90.38449675,23.74011339]]]}},
{"type":"Feature","properties":{"id":"L04-F171","kind":"chair","room":"L04-05"},"geometry":{"type":"Polygon","coordinates":[[[90.38448539,23.7401251],[90.38448117,23.74012425],[90.38448028,23.74012794],[90.3844845,23.74012879],[90.38448539,23.7401251]]]}},
{"type":"Feature","properties":{"id":"L04-F172","kind":"chair","room":"L04-05"},"geometry":{"type":"Polygon","coordinates":[[[90.3844886,23.74011175],[90.38448437,23.7401109],[90.38448349,23.74011459],[90.38448771,23.74011544],[90.3844886,23.74011175]]]}},
{"type":"Feature","properties":{"id":"L04-F173","kind":"table","room":"L04-05"},"geometry":{"type":"Polygon","coordinates":[[[90.38450312,23.74009736],[90.38448585,23.74009388],[90.38448395,23.74010179],[90.38450122,23.74010526],[90.38450312,23.74009736]]]}},
{"type":"Feature","properties":{"id":"L04-F174","kind":"chair","room":"L04-05"},"geometry":{"type":"Polygon","coordinates":[[[90.38449861,23.74010566],[90.38449439,23.74010481],[90.3844935,23.7401085],[90.38449772,23.74010935],[90.38449861,23.74010566]]]}},
{"type":"Feature","properties":{"id":"L04-F175","kind":"chair","room":"L04-05"},"geometry":{"type":"Polygon","coordinates":[[[90.38450182,23.74009231],[90.38449759,23.74009146],[90.38449671,23.74009515],[90.38450093,23.740096],[90.38450182,23.74009231]]]}},
{"type":"Feature","properties":{"id":"L04-F176","kind":"chair","room":"L04-05"},"geometry":{"type":"Polygon","coordinates":[[[90.38449045,23.74010402],[90.38448623,23.74010317],[90.38448534,23.74010686],[90.38448957,23.74010771],[90.38449045,23.74010402]]]}},
{"type":"Feature","properties":{"id":"L04-F177","kind":"chair","room":"L04-05"},"geometry":{"type":"Polygon","coordinates":[[[90.38449366,23.74009067],[90.38448944,23.74008982],[90.38448855,23.74009351],[90.38449277,23.74009436],[90.38449366,23.74009067]]]}},
{"type":"Feature","properties":{"id":"L04-F178","kind":"table","room":"L04-05"},"geometry":{"type":"Polygon","coordinates":[[[90.38450818,23.74007628],[90.38449091,23.7400728],[90.38448901,23.74008071],[90.38450628,23.74008418],[90.38450818,23.74007628]]]}},
{"type":"Feature","properties":{"id":"L04-F179","kind":"chair","room":"L04-05"},"geometry":{"type":"Polygon","coordinates":[[[90.38450367,23.74008458],[90.38449945,23.74008373],[90.38449856,23.74008742],[90.38450279,23.74008827],[90.38450367,23.74008458]]]}},
{"type":"Feature","properties":{"id":"L04-F180","kind":"chair","room":"L04-05"},"geometry":{"type":"Polygon","coordinates":[[[90.38450688,23.74007123],[90.38450266,23.74007038],[90.38450177,23.74007407],[90.38450599,23.74007492],[90.38450688,23.74007123]]]}},
{"type":"Feature","properties":{"id":"L04-F181","kind":"chair","room":"L04-05"},"geometry":{"type":"Polygon","coordinates":[[[90.38449552,23.74008294],[90.38449129,23.74008209],[90.38449041,23.74008578],[90.38449463,23.74008663],[90.38449552,23.74008294]]]}},
{"type":"Feature","properties":{"id":"L04-F182","kind":"chair","room":"L04-05"},"geometry":{"type":"Polygon","coordinates":[[[90.38449872,23.74006959],[90.3844945,23.74006874],[90.38449361,23.74007243],[90.38449784,23.74007328],[90.38449872,23.74006959]]]}},
{"type":"Feature","properties":{"id":"L04-F183","kind":"shelf","room":"L04-06"},"geometry":{"type":"Polygon","coordinates":[[[90.38459628,23.74024134],[90.38456527,23.7402351],[90.38456422,23.74023949],[90.38459523,23.74024573],[90.38459628,23.74024134]]]}},
{"type":"Feature","properties":{"id":"L04-F184","kind":"shelf","room":"L04-06"},"geometry":{"type":"Polygon","coordinates":[[[90.38455568,23.74023317],[90.38452466,23.74022693],[90.38452361,23.74023132],[90.38455462,23.74023756],[90.38455568,23.74023317]]]}},
{"type":"Feature","properties":{"id":"L04-F185","kind":"shelf","room":"L04-06"},"geometry":{"type":"Polygon","coordinates":[[[90.38459291,23.74025539],[90.38456189,23.74024915],[90.38456084,23.74025354],[90.38459185,23.74025979],[90.38459291,23.74025539]]]}},
{"type":"Feature","properties":{"id":"L04-F186","kind":"shelf","room":"L04-06"},"geometry":{"type":"Polygon","coordinates":[[[90.3845523,23.74024722],[90.38452129,23.74024098],[90.38452023,23.74024537],[90.38455124,23.74025161],[90.3845523,23.74024722]]]}},
{"type":"Feature","properties":{"id":"L04-F187","kind":"shelf","room":"L04-06"},"geometry":{"type":"Polygon","coordinates":[[[90.38458953,23.74026945],[90.38455852,23.74026321],[90.38455746,23.7402676],[90.38458848,23.74027384],[90.38458953,23.74026945]]]}},
{"type":"Feature","properties":{"id":"L04-F188","kind":"shelf","room":"L04-06"},"geometry":{"type":"Polygon","coordinates":[[[90.38454892,23.74026127],[90.38451791,23.74025503],[90.38451686,23.74025942],[90.38454787,23.74026567],[90.38454892,23.74026127]]]}},
{"type":"Feature","properties":{"id":"L04-F189","kind":"basin","room":"L04-07"},"geometry":{"type":"Polygon","coordinates":[[[90.38452725,23.74019522],[90.38452197,23.74019416],[90.38451555,23.7402209],[90.38452083,23.74022196],[90.38452725,23.74019522]]]}},
{"type":"Feature","properties":{"id":"L04-F190","kind":"cubicle","room":"L04-07"},"geometry":{"type":"Polygon","coordinates":[[[90.38447942,23.7402443],[90.38447894,23.74024421],[90.38447567,23.74025782],[90.38447615,23.74025792],[90.38447942,23.7402443]]]}},
{"type":"Feature","properties":{"id":"L04-F191","kind":"cubicle","room":"L04-07"},"geometry":{"type":"Polygon","coordinates":[[[90.38449142,23.74024672],[90.38449094,23.74024662],[90.38448767,23.74026023],[90.38448815,23.74026033],[90.38449142,23.74024672]]]}},
{"type":"Feature","properties":{"id":"L04-F192","kind":"cubicle","room":"L04-07"},"geometry":{"type":"Polygon","coordinates":[[[90.38450341,23.74024913],[90.38450293,23.74024903],[90.38449966,23.74026265],[90.38450014,23.74026274],[90.38450341,23.74024913]]]}},
{"type":"Feature","properties":{"id":"L04-F193","kind":"basin","room":"L04-08"},"geometry":{"type":"Polygon","coordinates":[[[90.38448856,23.74018743],[90.38448328,23.74018637],[90.38447686,23.74021311],[90.38448214,23.74021417],[90.38448856,23.74018743]]]}},
{"type":"Feature","properties":{"id":"L04-F194","kind":"cubicle","room":"L04-08"},"geometry":{"type":"Polygon","coordinates":[[[90.38444073,23.74023651],[90.38444025,23.74023642],[90.38443698,23.74025003],[90.38443746,23.74025013],[90.38444073,23.74023651]]]}},
{"type":"Feature","properties":{"id":"L04-F195","kind":"cubicle","room":"L04-08"},"geometry":{"type":"Polygon","coordinates":[[[90.38445273,23.74023893],[90.38445225,23.74023883],[90.38444898,23.74025245],[90.38444946,23.74025254],[90.38445273,23.74023893]]]}},
{"type":"Feature","properties":{"id":"L04-F196","kind":"cubicle","room":"L04-08"},"geometry":{"type":"Polygon","coordinates":[[[90.38446472,23.74024134],[90.38446424,23.74024125],[90.38446097,23.74025486],[90.38446145,23.74025496],[90.38446472,23.74024134]]]}}
]
}
