{
"type": "FeatureCollection",
"name": "pois",
"crs": {"type":"name","properties":{"name":"urn:ogc:def:crs:OGC:1.3:CRS84"}},
"features": [
{"type":"Feature","properties":{"id":"lift-a","name":"Lift A","class":"lift"},"geometry":{"type":"Point","coordinates":[90.3845824,23.74021037]}},
{"type":"Feature","properties":{"id":"stair-1","name":"Stair 1","class":"stairs"},"geometry":{"type":"Point","coordinates":[90.38455145,23.74020414]}},
{"type":"Feature","properties":{"id":"stair-2","name":"Stair 2","class":"stairs"},"geometry":{"type":"Point","coordinates":[90.38475249,23.74021201]}}
]
}
