{
"type": "FeatureCollection",
"name": "shops",
"crs": {"type":"name","properties":{"name":"urn:ogc:def:crs:OGC:1.3:CRS84"}},
"features": [
{"type":"Feature","properties":{"id":"L04-01","name":"Office 401","class":"office","room_number":"401"},"geometry":{"type":"Polygon","coordinates":[[[90.38476468,23.74022827],[90.3846873,23.7402127],[90.38466689,23.74029769],[90.38474427,23.74031326],[90.38476468,23.74022827]]]}},
{"type":"Feature","properties":{"id":"L04-02","name":"Office 402","class":"office","room_number":"402"},"geometry":{"type":"Polygon","coordinates":[[[90.38479143,23.74011694],[90.38471405,23.74010136],[90.38469363,23.74018635],[90.38477101,23.74020192],[90.38479143,23.74011694]]]}},
{"type":"Feature","properties":{"id":"L04-03","name":"Office 403","class":"office","room_number":"403"},"geometry":{"type":"Polygon","coordinates":[[[90.3846873,23.7402127],[90.38460992,23.74019713],[90.38458951,23.74028211],[90.38466689,23.74029769],[90.3846873,23.7402127]]]}},
{"type":"Feature","properties":{"id":"L04-04","name":"Office 404","class":"office","room_number":"404"},"geometry":{"type":"Polygon","coordinates":[[[90.38471405,23.74010136],[90.38463667,23.74008579],[90.38461625,23.74017078],[90.38469363,23.74018635],[90.38471405,23.74010136]]]}},
{"type":"Feature","properties":{"id":"L04-05","name":"Store","class":"store","room_number":"405"},"geometry":{"type":"Polygon","coordinates":[[[90.38460275,23.74022699],[90.38452537,23.74021141],[90.38451213,23.74026654],[90.38458951,23.74028211],[90.38460275,23.74022699]]]}},
{"type":"Feature","properties":{"id":"L04-06","name":"Office 406","class":"office","room_number":"406"},"geometry":{"type":"Polygon","coordinates":[[[90.38463667,23.74008579],[90.38455929,23.74007021],[90.38453887,23.7401552],[90.38461625,23.74017078],[90.38463667,23.74008579]]]}},
{"type":"Feature","properties":{"id":"L04-07","name":"Washroom","class":"toilet","room_number":"407"},"geometry":{"type":"Polygon","coordinates":[[[90.38453254,23.74018155],[90.38445516,23.74016598],[90.38443475,23.74025096],[90.38451213,23.74026654],[90.38453254,23.74018155]]]}},
{"type":"Feature","properties":{"id":"L04-08","name":"Office 408","class":"office","room_number":"408"},"geometry":{"type":"Polygon","coordinates":[[[90.38455929,23.74007021],[90.38448191,23.74005464],[90.38446149,23.74013963],[90.38453887,23.7401552],[90.38455929,23.74007021]]]}}
]
}
