{
"type": "FeatureCollection",
"name": "walls",
"crs": {"type":"name","properties":{"name":"urn:ogc:def:crs:OGC:1.3:CRS84"}},
"features": [
{"type":"Feature","properties":{"id":1,"kind":"partition","thickness_m":0.1},"geometry":{"type":"LineString","coordinates":[[90.38460275,23.74022699],[90.38456886,23.74022017]]}},
{"type":"Feature","properties":{"id":2,"kind":"partition","thickness_m":0.1},"geometry":{"type":"LineString","coordinates":[[90.38455926,23.74021824],[90.38452537,23.74021141]]}},
{"type":"Feature","properties":{"id":3,"kind":"partition","thickness_m":0.1},"geometry":{"type":"LineString","coordinates":[[90.38460992,23.74019713],[90.38458951,23.74028211]]}},
{"type":"Feature","properties":{"id":4,"kind":"partition","thickness_m":0.1},"geometry":{"type":"LineString","coordinates":[[90.38453255,23.74018155],[90.38451213,23.74026654]]}},
{"type":"Feature","properties":{"id":5,"kind":"partition","thickness_m":0.1},"geometry":{"type":"LineString","coordinates":[[90.38449386,23.74017376],[90.38447344,23.74025875]]}},
{"type":"Feature","properties":{"id":6,"kind":"partition","thickness_m":0.1},"geometry":{"type":"LineString","coordinates":[[90.38471404,23.74010136],[90.38469363,23.74018635]]}},
{"type":"Feature","properties":{"id":7,"kind":"partition","thickness_m":0.1},"geometry":{"type":"LineString","coordinates":[[90.38467536,23.74009357],[90.38465494,23.74017856]]}},
{"type":"Feature","properties":{"id":8,"kind":"partition","thickness_m":0.1},"geometry":{"type":"LineString","coordinates":[[90.38463667,23.74008579],[90.38461625,23.74017078]]}},
{"type":"Feature","properties":{"id":9,"kind":"corridor","thickness_m":0.12},"geometry":{"type":"LineString","coordinates":[[90.38476468,23.74022827],[90.38475413,23.74022615]]}},
{"type":"Feature","properties":{"id":10,"kind":"corridor","thickness_m":0.12},"geometry":{"type":"LineString","coordinates":[[90.38474453,23.74022422],[90.38463007,23.74020118]]}},
{"type":"Feature","properties":{"id":11,"kind":"corridor","thickness_m":0.12},"geometry":{"type":"LineString","coordinates":[[90.38462048,23.74019925],[90.38460992,23.74019713]]}},
{"type":"Feature","properties":{"id":12,"kind":"corridor","thickness_m":0.12},"geometry":{"type":"LineString","coordinates":[[90.38453254,23.74018155],[90.384518,23.74017862]]}},
{"type":"Feature","properties":{"id":13,"kind":"corridor","thickness_m":0.12},"geometry":{"type":"LineString","coordinates":[[90.3845084,23.74017669],[90.38447931,23.74017084]]}},
{"type":"Feature","properties":{"id":14,"kind":"corridor","thickness_m":0.12},"geometry":{"type":"LineString","coordinates":[[90.38446971,23.7401689],[90.38445516,23.74016598]]}},
{"type":"Feature","properties":{"id":15,"kind":"corridor","thickness_m":0.12},"geometry":{"type":"LineString","coordinates":[[90.38477101,23.74020192],[90.38476046,23.7401998]]}},
{"type":"Feature","properties":{"id":16,"kind":"corridor","thickness_m":0.12},"geometry":{"type":"LineString","coordinates":[[90.38475086,23.74019787],[90.38467908,23.74018342]]}},
{"type":"Feature","properties":{"id":17,"kind":"corridor","thickness_m":0.12},"geometry":{"type":"LineString","coordinates":[[90.38466949,23.74018149],[90.38464039,23.74017563]]}},
{"type":"Feature","properties":{"id":18,"kind":"corridor","thickness_m":0.12},"geometry":{"type":"LineString","coordinates":[[90.3846308,23.7401737],[90.3846057,23.74016865]]}},
{"type":"Feature","properties":{"id":19,"kind":"corridor","thickness_m":0.12},"geometry":{"type":"LineString","coordinates":[[90.3845961,23.74016672],[90.38448164,23.74014368]]}},
{"type":"Feature","properties":{"id":20,"kind":"corridor","thickness_m":0.12},"geometry":{"type":"LineString","coordinates":[[90.38447205,23.74014175],[90.38446149,23.74013963]]}},
{"type":"Feature","properties":{"id":21,"kind":"outer","thickness_m":0.22},"geometry":{"type":"LineString","coordinates":[[90.38479143,23.74011694],[90.38448191,23.74005464]]}},
{"type":"Feature","properties":{"id":22,"kind":"outer","thickness_m":0.22},"geometry":{"type":"LineString","coordinates":[[90.38474427,23.74031326],[90.38443475,23.74025096]]}},
{"type":"Feature","properties":{"id":23,"kind":"outer","thickness_m":0.22},"geometry":{"type":"LineString","coordinates":[[90.38479143,23.74011694],[90.38474427,23.74031326]]}},
{"type":"Feature","properties":{"id":24,"kind":"outer","thickness_m":0.22},"geometry":{"type":"LineString","coordinates":[[90.38448191,23.74005464],[90.38443475,23.74025096]]}}
]
}
