{
"type": "FeatureCollection",
"name": "pois",
"crs": {"type":"name","properties":{"name":"urn:ogc:def:crs:OGC:1.3:CRS84"}},
"features": [
{"type":"Feature","properties":{"id":"lift-a","name":"Lift A","class":"lift"},"geometry":{"type":"Point","coordinates":[90.40363707,24.22181201]}},
{"type":"Feature","properties":{"id":"stair-1","name":"Stair 1","class":"stairs"},"geometry":{"type":"Point","coordinates":[90.40366435,24.22181734]}},
{"type":"Feature","properties":{"id":"stair-2","name":"Stair 2","class":"stairs"},"geometry":{"type":"Point","coordinates":[90.40343469,24.22173996]}},
{"type":"Feature","properties":{"id":"entrance","name":"Main Entrance","class":"entrance"},"geometry":{"type":"Point","coordinates":[90.40368003,24.22168843]}},
{"type":"Feature","properties":{"id":"info","name":"Information Desk","class":"info"},"geometry":{"type":"Point","coordinates":[90.4036527,24.22173019]}}
]
}
