{
"type": "FeatureCollection",
"name": "shops",
"crs": {"type":"name","properties":{"name":"urn:ogc:def:crs:OGC:1.3:CRS84"}},
"features": [
{"type":"Feature","properties":{"id":"L01-01","name":"Reception","class":"reception","room_number":"101"},"geometry":{"type":"Polygon","coordinates":[[[90.40341617,24.22175015],[90.40348438,24.22176346],[90.40346517,24.22184532],[90.40339696,24.22183201],[90.40341617,24.22175015]]]}},
{"type":"Feature","properties":{"id":"L01-02","name":"Medical Room","class":"first-aid","room_number":"102"},"geometry":{"type":"Polygon","coordinates":[[[90.40344156,24.2216419],[90.40350978,24.22165521],[90.40349057,24.22173707],[90.40342236,24.22172376],[90.40344156,24.2216419]]]}},
{"type":"Feature","properties":{"id":"L01-03","name":"Canteen","class":"food","room_number":"103"},"geometry":{"type":"Polygon","coordinates":[[[90.40348438,24.22176346],[90.4035526,24.22177677],[90.40353339,24.22185863],[90.40346517,24.22184532],[90.40348438,24.22176346]]]}},
{"type":"Feature","properties":{"id":"L01-04","name":"Prayer Room","class":"prayer","room_number":"104"},"geometry":{"type":"Polygon","coordinates":[[[90.40350978,24.22165521],[90.403578,24.22166852],[90.40355879,24.22175039],[90.40349057,24.22173707],[90.40350978,24.22165521]]]}},
{"type":"Feature","properties":{"id":"L01-05","name":"Production Hall 105","class":"production","room_number":"105"},"geometry":{"type":"Polygon","coordinates":[[[90.4035526,24.22177677],[90.40362081,24.22179008],[90.4036016,24.22187194],[90.40353339,24.22185863],[90.4035526,24.22177677]]]}},
{"type":"Feature","properties":{"id":"L01-06","name":"Production Hall 106","class":"production","room_number":"106"},"geometry":{"type":"Polygon","coordinates":[[[90.403578,24.22166852],[90.40364621,24.22168183],[90.403627,24.2217637],[90.40355879,24.22175039],[90.403578,24.22166852]]]}},
{"type":"Feature","properties":{"id":"L01-07","name":"Store","class":"store","room_number":"107"},"geometry":{"type":"Polygon","coordinates":[[[90.4036138,24.22181998],[90.40368201,24.22183329],[90.40366982,24.22188526],[90.4036016,24.22187194],[90.4036138,24.22181998]]]}},
{"type":"Feature","properties":{"id":"L01-08","name":"Production Hall 108","class":"production","room_number":"108"},"geometry":{"type":"Polygon","coordinates":[[[90.40368903,24.22180339],[90.40375724,24.2218167],[90.40373803,24.22189857],[90.40366982,24.22188526],[90.40368903,24.22180339]]]}},
{"type":"Feature","properties":{"id":"L01-09","name":"Production Hall 109","class":"production","room_number":"109"},"geometry":{"type":"Polygon","coordinates":[[[90.40371443,24.22169515],[90.40378264,24.22170846],[90.40376343,24.22179032],[90.40369522,24.22177701],[90.40371443,24.22169515]]]}},
{"type":"Feature","properties":{"id":"L01-10","name":"Production Hall 110","class":"production","room_number":"110"},"geometry":{"type":"Polygon","coordinates":[[[90.40375724,24.2218167],[90.40382546,24.22183002],[90.40380625,24.22191188],[90.40373803,24.22189857],[90.40375724,24.2218167]]]}},
{"type":"Feature","properties":{"id":"L01-11","name":"Production Hall 111","class":"production","room_number":"111"},"geometry":{"type":"Polygon","coordinates":[[[90.40378264,24.22170846],[90.40385086,24.22172177],[90.40383165,24.22180363],[90.40376343,24.22179032],[90.40378264,24.22170846]]]}},
{"type":"Feature","properties":{"id":"L01-12","name":"Washroom","class":"toilet","room_number":"112"},"geometry":{"type":"Polygon","coordinates":[[[90.40382546,24.22183002],[90.40389367,24.22184333],[90.40387447,24.22192519],[90.40380625,24.22191188],[90.40382546,24.22183002]]]}},
{"type":"Feature","properties":{"id":"L01-13","name":"Production Hall 113","class":"production","room_number":"113"},"geometry":{"type":"Polygon","coordinates":[[[90.40385086,24.22172177],[90.40391907,24.22173508],[90.40389986,24.22181694],[90.40383165,24.22180363],[90.40385086,24.22172177]]]}}
]
}
