{
"type": "FeatureCollection",
"name": "ConnectedRoad",
"crs": {"type":"name","properties":{"name":"urn:ogc:def:crs:OGC:1.3:CRS84"}},
"features": [
{ "type": "Feature", "properties": { "id": 101, "area": 1, "road_type": 1, "rline_type": 1, "line_type": 0, "cline_type": 0, "rline": 0.000015, "lline": 0.00001, "width": 0.00002, "base_m": 0, "top_m": 0.04, "thickness_m": 5.65, "color": "#878787" }, "geometry": {"type":"MultiLineString","coordinates":[[[90.385007732519,23.739048066707941],[90.384940539971339,23.739289986195146],[90.384871000191666,23.739540097673302],[90.384806335985161,23.73977443356112],[90.385013542536285,23.739815386274202],[90.385255674590809,23.73986446538969],[90.385313084995488,23.739876102226596],[90.385615822338494,23.739936840187642],[90.385679223052989,23.739696767752303],[90.38571584924189,23.739558552012369]]]} },
{ "type": "Feature", "properties": { "id": 102, "area": 1, "road_type": 1, "rline_type": 1, "line_type": 0, "cline_type": 0, "rline": 0.000015, "lline": 0.00001, "width": 0.00002, "base_m": 0, "top_m": 0.04, "thickness_m": 5.65, "color": "#878787" }, "geometry": {"type":"MultiLineString","coordinates":[[[90.384940539971339,23.739289986195146],[90.385275632753775,23.739368625499448],[90.385611842518685,23.739447526888593]]]} },
{ "type": "Feature", "properties": { "id": 103, "area": 1, "road_type": 1, "rline_type": 1, "line_type": 0, "cline_type": 0, "rline": 0.000015, "lline": 0.00001, "width": 0.00002, "base_m": 0, "top_m": 0.04, "thickness_m": 5.65, "color": "#878787" }, "geometry": {"type":"MultiLineString","coordinates":[[[90.384940539971339,23.739289986195146],[90.384087699138959,23.739123461080915],[90.383779050693519,23.739059267311468],[90.383732777764067,23.739049643307819]]]} },
{ "type": "Feature", "properties": { "id": 104, "area": 1, "road_type": 1, "rline_type": 1, "line_type": 0, "cline_type": 0, "rline": 0.000015, "lline": 0.00001, "width": 0.00002, "base_m": 0, "top_m": 0.04, "thickness_m": 5.65, "color": "#878787" }, "geometry": {"type":"MultiLineString","coordinates":[[[90.384087699138959,23.739123461080915],[90.384010806377546,23.739456004245202],[90.383975710473493,23.739607785801478],[90.384054593790239,23.739623612102395],[90.38418165220078,23.739649103732347],[90.384343903868668,23.739681656160091]]]} },
{ "type": "Feature", "properties": { "id": 105, "area": 1, "road_type": 1, "rline_type": 1, "line_type": 0, "cline_type": 0, "rline": 0.000015, "lline": 0.00001, "width": 0.00002, "base_m": 0, "top_m": 0.04, "thickness_m": 5.65, "color": "#878787" }, "geometry": {"type":"MultiLineString","coordinates":[[[90.384343903868668,23.739681656160091],[90.384748074351094,23.739762744577778],[90.384806335985161,23.73977443356112]]]} },
{ "type": "Feature", "properties": { "id": 106, "area": 1, "road_type": 1, "rline_type": 1, "line_type": 0, "cline_type": 0, "rline": 0.000015, "lline": 0.00001, "width": 0.00002, "base_m": 0, "top_m": 0.04, "thickness_m": 5.65, "color": "#878787" }, "geometry": {"type":"MultiLineString","coordinates":[[[90.385615822338494,23.739936840187642],[90.385725639005415,23.739957859030675],[90.385733102248167,23.739926762185849],[90.385850806677709,23.739946324355454],[90.385983513345934,23.739967509442899],[90.386011798048543,23.739836577566372]]]} },
{ "type": "Feature", "properties": { "id": 107, "area": 1, "road_type": 1, "rline_type": 1, "line_type": 0, "cline_type": 0, "rline": 0.000015, "lline": 0.00001, "width": 0.00002, "base_m": 0, "top_m": 0.04, "thickness_m": 5.65, "color": "#878787" }, "geometry": {"type":"MultiLineString","coordinates":[[[90.384720887932247,23.73987979473015],[90.384740997699751,23.739887200421386],[90.384758328327905,23.739899118143768],[90.38476878252186,23.739910538992049],[90.38478019783193,23.739932988846078],[90.38478324633725,23.73995263359167],[90.384780636528347,23.739972331202623],[90.384775058584239,23.739986329122853],[90.384766604518802,23.739999061954414],[90.384755599217115,23.740010040382156],[90.384742465606664,23.740018842511752],[90.384727708404739,23.740025130082778],[90.384711894722429,23.740028661467775],[90.384695632270564,23.740029300957815],[90.384679546006097,23.740027023977724],[90.384664254115165,23.740021918030379],[90.384650344256542,23.740014179334192],[90.384638350978264,23.740004105282473],[90.38462873517534,23.739992083014876],[90.384623832158255,23.739983211418433],[90.384618948325439,23.739968997816447],[90.384617420802229,23.739959154369672],[90.384617787308329,23.739944258060547],[90.384621321540081,23.739929713429643],[90.384630709728881,23.73991182907255],[90.384640907069468,23.739900215267149],[90.384648999528252,23.739893583920974],[90.384662733922212,23.739885586923563],[90.384672725533576,23.7398816886272],[90.384688539215915,23.739878157238223],[90.384704801667766,23.739877517747434],[90.384715583983308,23.739878714797253],[90.384720887932247,23.73987979473015]]]} },
{ "type": "Feature", "properties": { "id": 108, "area": 1, "road_type": 1, "rline_type": 1, "line_type": 0, "cline_type": 0, "rline": 0.000015, "lline": 0.00001, "width": 0.00002, "base_m": 0, "top_m": 0.04, "thickness_m": 5.65, "color": "#878787" }, "geometry": {"type":"MultiLineString","coordinates":[[[90.384748074351094,23.739762744577774],[90.384715583983308,23.739878714797253]]]} },
{ "type": "Feature", "properties": { "id": 109, "area": 1, "road_type": 1, "rline_type": 1, "line_type": 0, "cline_type": 0, "rline": 0.000015, "lline": 0.00001, "width": 0.00002, "base_m": 0, "top_m": 0.04, "thickness_m": 5.65, "color": "#878787" }, "geometry": {"type":"MultiLineString","coordinates":[[[90.384967056822731,23.739564063512844],[90.384871000191666,23.739540097673302]]]} },
{ "type": "Feature", "properties": { "id": 110, "area": 1, "road_type": 1, "rline_type": 1, "line_type": 0, "cline_type": 0, "rline": 0.000015, "lline": 0.00001, "width": 0.00002, "base_m": 0, "top_m": 0.04, "thickness_m": 5.65, "color": "#878787" }, "geometry": {"type":"MultiLineString","coordinates":[[[90.383691550379496,23.740838846756525],[90.383794884037144,23.740391176467977],[90.383825820198126,23.740254996879138],[90.383857340568483,23.740116245626968],[90.383909878590629,23.7398905677553],[90.3839219885419,23.739838549220316],[90.383975710473493,23.739607785801478]]]} },
{ "type": "Feature", "properties": { "id": 111, "area": 1, "road_type": 1, "rline_type": 1, "line_type": 0, "cline_type": 0, "rline": 0.000015, "lline": 0.00001, "width": 0.00002, "base_m": 0, "top_m": 0.04, "thickness_m": 5.65, "color": "#878787" }, "geometry": {"type":"MultiLineString","coordinates":[[[90.384871000191666,23.739540097673302],[90.384748829573397,23.739511171414367]]]} },
{ "type": "Feature", "properties": { "id": 112, "area": 1, "road_type": 1, "rline_type": 1, "line_type": 0, "cline_type": 0, "rline": 0.000015, "lline": 0.00001, "width": 0.00002, "base_m": 0, "top_m": 0.04, "thickness_m": 5.65, "color": "#878787" }, "geometry": {"type":"MultiLineString","coordinates":[[[90.384621321540081,23.739929713429643],[90.384513589199074,23.739906731308039],[90.384481284911558,23.739900270450534]]]} },
{ "type": "Feature", "properties": { "id": 113, "area": 1, "road_type": 1, "rline_type": 1, "line_type": 0, "cline_type": 0, "rline": 0.000015, "lline": 0.00001, "width": 0.00002, "base_m": 0, "top_m": 0.04, "thickness_m": 5.65, "color": "#878787" }, "geometry": {"type":"MultiLineString","coordinates":[[[90.38440256816169,23.741002869167151],[90.384507471937596,23.740498529505992]]]} },
{ "type": "Feature", "properties": { "id": 114, "area": 1, "road_type": 1, "rline_type": 1, "line_type": 0, "cline_type": 0, "rline": 0.000015, "lline": 0.00001, "width": 0.00002, "base_m": 0, "top_m": 0.04, "thickness_m": 5.65, "color": "#878787" }, "geometry": {"type":"MultiLineString","coordinates":[[[90.385725639005415,23.739957859030675],[90.385639608261243,23.740301713944572],[90.385546741448579,23.740669014718524],[90.385522817588821,23.740762914927302],[90.385519570580442,23.740775803227201],[90.385783767158401,23.740808949400524]]]} },
{ "type": "Feature", "properties": { "id": 115, "area": 1, "road_type": 1, "rline_type": 1, "line_type": 0, "cline_type": 0, "rline": 0.000015, "lline": 0.00001, "width": 0.00002, "base_m": 0, "top_m": 0.04, "thickness_m": 5.65, "color": "#878787" }, "geometry": {"type":"MultiLineString","coordinates":[[[90.38571584924189,23.739558552012369],[90.385721123466695,23.739540077644644],[90.385655141959433,23.739457338288226],[90.385611842518685,23.739447526888593]]]} },
{ "type": "Feature", "properties": { "id": 116, "area": 1, "road_type": 1, "rline_type": 1, "line_type": 0, "cline_type": 0, "rline": 0.000006, "lline": 0.000004, "width": 0.000008, "base_m": 0, "top_m": 0.04, "thickness_m": 2.98, "color": "#878787" }, "geometry": {"type":"MultiLineString","coordinates":[[[90.383779050693519,23.739059267311468],[90.383763150022006,23.739123029039074]]]} },
{ "type": "Feature", "properties": { "id": 117, "area": 1, "road_type": 1, "rline_type": 1, "line_type": 0, "cline_type": 0, "rline": 0.000006, "lline": 0.000004, "width": 0.000008, "base_m": 0, "top_m": 0.04, "thickness_m": 2.98, "color": "#878787" }, "geometry": {"type":"MultiLineString","coordinates":[[[90.383975710473493,23.739607785801478],[90.383842450571265,23.739581049969459],[90.383754358297011,23.739563104244429],[90.383683850741491,23.739548906555168],[90.383621983138056,23.739536448640656]]]} },
{ "type": "Feature", "properties": { "id": 118, "area": 1, "road_type": 1, "rline_type": 1, "line_type": 0, "cline_type": 0, "rline": 0.000006, "lline": 0.000004, "width": 0.000008, "base_m": 0, "top_m": 0.04, "thickness_m": 2.98, "color": "#878787" }, "geometry": {"type":"MultiLineString","coordinates":[[[90.383683850741491,23.739548906555168],[90.383665530884002,23.739630244858873]]]} },
{ "type": "Feature", "properties": { "id": 119, "area": 1, "road_type": 1, "rline_type": 1, "line_type": 0, "cline_type": 0, "rline": 0.000006, "lline": 0.000004, "width": 0.000008, "base_m": 0, "top_m": 0.04, "thickness_m": 2.98, "color": "#878787" }, "geometry": {"type":"MultiLineString","coordinates":[[[90.385013542536285,23.739815386274202],[90.384975284203463,23.739982770231535]]]} },
{ "type": "Feature", "properties": { "id": 120, "area": 1, "road_type": 1, "rline_type": 1, "line_type": 0, "cline_type": 0, "rline": 0.000006, "lline": 0.000004, "width": 0.000008, "base_m": 0, "top_m": 0.04, "thickness_m": 2.98, "color": "#878787" }, "geometry": {"type":"MultiLineString","coordinates":[[[90.384679546006097,23.740027023977724],[90.384668659718628,23.740067164215866]]]} },
{ "type": "Feature", "properties": { "id": 121, "area": 1, "road_type": 1, "rline_type": 1, "line_type": 0, "cline_type": 0, "rline": 0.000006, "lline": 0.000004, "width": 0.000008, "base_m": 0, "top_m": 0.04, "thickness_m": 2.98, "color": "#878787" }, "geometry": {"type":"MultiLineString","coordinates":[[[90.383779050693519,23.739059267311468],[90.3837887201976,23.739020392815412]]]} },
{ "type": "Feature", "properties": { "id": 122, "area": 1, "road_type": 1, "rline_type": 1, "line_type": 0, "cline_type": 0, "rline": 0.000006, "lline": 0.000004, "width": 0.000008, "base_m": 0, "top_m": 0.04, "thickness_m": 2.98, "color": "#878787" }, "geometry": {"type":"MultiLineString","coordinates":[[[90.383857340568483,23.740116245626968],[90.383804820308015,23.740103874972863],[90.383755922264484,23.740092471871794],[90.383699293304957,23.740080029928883]]]} },
{ "type": "Feature", "properties": { "id": 123, "area": 1, "road_type": 1, "rline_type": 1, "line_type": 0, "cline_type": 0, "rline": 0.000006, "lline": 0.000004, "width": 0.000008, "base_m": 0, "top_m": 0.04, "thickness_m": 2.98, "color": "#878787" }, "geometry": {"type":"MultiLineString","coordinates":[[[90.383794884037144,23.740391176467977],[90.384315915373477,23.740481115272889]]]} },
{ "type": "Feature", "properties": { "id": 124, "area": 1, "road_type": 1, "rline_type": 1, "line_type": 0, "cline_type": 0, "rline": 0.000006, "lline": 0.000004, "width": 0.000008, "base_m": 0, "top_m": 0.04, "thickness_m": 2.98, "color": "#878787" }, "geometry": {"type":"MultiLineString","coordinates":[[[90.386753587524552,23.740245769891747],[90.386935692436381,23.740276188306865]]]} },
{ "type": "Feature", "properties": { "id": 125, "area": 1, "road_type": 1, "rline_type": 1, "line_type": 0, "cline_type": 0, "rline": 0.000006, "lline": 0.000004, "width": 0.000008, "base_m": 0, "top_m": 0.04, "thickness_m": 2.98, "color": "#878787" }, "geometry": {"type":"MultiLineString","coordinates":[[[90.386788788301786,23.740038633085124],[90.387042156889265,23.740058392454639],[90.387037695521755,23.740258748415535]]]} },
{ "type": "Feature", "properties": { "id": 126, "area": 1, "road_type": 1, "rline_type": 1, "line_type": 0, "cline_type": 0, "rline": 0.000006, "lline": 0.000004, "width": 0.000008, "base_m": 0, "top_m": 0.04, "thickness_m": 2.98, "color": "#878787" }, "geometry": {"type":"MultiLineString","coordinates":[[[90.383857340568483,23.740116245626968],[90.383983386446175,23.740142366976617]]]} },
{ "type": "Feature", "properties": { "id": 127, "area": 1, "road_type": 1, "rline_type": 1, "line_type": 0, "cline_type": 0, "rline": 0.000006, "lline": 0.000004, "width": 0.000008, "base_m": 0, "top_m": 0.04, "thickness_m": 2.98, "color": "#878787" }, "geometry": {"type":"MultiLineString","coordinates":[[[90.385983513345934,23.739967509442899],[90.386229045094993,23.740010645924784],[90.386400699678418,23.739980792953752],[90.386788788301786,23.740038633085124],[90.386753587524552,23.740245769891747],[90.386669376417672,23.74073691273562],[90.386425409954583,23.740738614461172],[90.386171566369171,23.740740385082063],[90.385996235794323,23.740741608055561],[90.385818566743325,23.740742510167689],[90.385519570580442,23.740775803227201]]]} },
{ "type": "Feature", "properties": { "id": 128, "area": 1, "road_type": 1, "rline_type": 1, "line_type": 0, "cline_type": 0, "rline": 0.000006, "lline": 0.000004, "width": 0.000008, "base_m": 0, "top_m": 0.04, "thickness_m": 2.98, "color": "#878787" }, "geometry": {"type":"MultiLineString","coordinates":[[[90.386400699678418,23.739980792953752],[90.386393795553701,23.739622230907674]]]} },
{ "type": "Feature", "properties": { "id": 129, "area": 1, "road_type": 1, "rline_type": 1, "line_type": 0, "cline_type": 0, "rline": 0.000006, "lline": 0.000004, "width": 0.000008, "base_m": 0, "top_m": 0.04, "thickness_m": 2.98, "color": "#878787" }, "geometry": {"type":"MultiLineString","coordinates":[[[90.385519570580442,23.740775803227201],[90.385467115494166,23.740768217216864],[90.385437969848113,23.740857616341394],[90.385427632476123,23.740892648546502]]]} },
{ "type": "Feature", "properties": { "id": 130, "area": 1, "road_type": 1, "rline_type": 1, "line_type": 0, "cline_type": 0, "rline": 0.000006, "lline": 0.000004, "width": 0.000008, "base_m": 0, "top_m": 0.04, "thickness_m": 2.98, "color": "#878787" }, "geometry": {"type":"MultiLineString","coordinates":[[[90.383842450571265,23.739581049969459],[90.383855878926497,23.739519719978279]]]} },
{ "type": "Feature", "properties": { "id": 131, "area": 1, "road_type": 1, "rline_type": 1, "line_type": 0, "cline_type": 0, "rline": 0.000006, "lline": 0.000004, "width": 0.000008, "base_m": 0, "top_m": 0.04, "thickness_m": 2.98, "color": "#878787" }, "geometry": {"type":"MultiLineString","coordinates":[[[90.385679223052989,23.739696767752303],[90.38584226454492,23.739702245168019]]]} },
{ "type": "Feature", "properties": { "id": 132, "area": 1, "road_type": 1, "rline_type": 1, "line_type": 0, "cline_type": 0, "rline": 0.000006, "lline": 0.000004, "width": 0.000008, "base_m": 0, "top_m": 0.04, "thickness_m": 2.98, "color": "#878787" }, "geometry": {"type":"MultiLineString","coordinates":[[[90.386171566369171,23.740740385082063],[90.386186570563623,23.74060482696137]]]} },
{ "type": "Feature", "properties": { "id": 133, "area": 1, "road_type": 1, "rline_type": 1, "line_type": 0, "cline_type": 0, "rline": 0.000006, "lline": 0.000004, "width": 0.000008, "base_m": 0, "top_m": 0.04, "thickness_m": 2.98, "color": "#878787" }, "geometry": {"type":"MultiLineString","coordinates":[[[90.385996235794323,23.740741608055561],[90.385999303762659,23.740678844160183]]]} },
{ "type": "Feature", "properties": { "id": 134, "area": 1, "road_type": 1, "rline_type": 1, "line_type": 0, "cline_type": 0, "rline": 0.000006, "lline": 0.000004, "width": 0.000008, "base_m": 0, "top_m": 0.04, "thickness_m": 2.98, "color": "#878787" }, "geometry": {"type":"MultiLineString","coordinates":[[[90.384343903868668,23.739681656160091],[90.384362331065731,23.739608120690104]]]} },
{ "type": "Feature", "properties": { "id": 135, "area": null, "road_type": null, "rline_type": null, "line_type": null, "cline_type": null, "rline": null, "lline": null, "width": null, "base_m": 0, "top_m": 0.04, "thickness_m": 4.2, "color": "#878787" }, "geometry": {"type":"MultiLineString","coordinates":[[[90.384054593790239,23.739623612102395],[90.383986883681331,23.739905890831697],[90.383909878590629,23.7398905677553]]]} },
{ "type": "Feature", "properties": { "id": 200, "area": 2, "road_type": 2, "rline_type": 1, "line_type": 0, "cline_type": 0, "rline": 0.000006, "lline": 0.000004, "width": 0.000008, "base_m": 0, "top_m": 0.04, "thickness_m": 2.98, "color": "#878787" }, "geometry": {"type":"MultiLineString","coordinates":[[[90.388430318829975,23.739681705226264],[90.388430230078782,23.739746200013705],[90.388695530213354,23.739756225145328],[90.388918615765647,23.739765152547516]]]} },
{ "type": "Feature", "properties": { "id": 201, "area": 2, "road_type": 2, "rline_type": 1, "line_type": 0, "cline_type": 0, "rline": 0.000006, "lline": 0.000004, "width": 0.000008, "base_m": 0, "top_m": 0.04, "thickness_m": 2.98, "color": "#878787" }, "geometry": {"type":"MultiLineString","coordinates":[[[90.388430230078782,23.739746200013705],[90.388214617508098,23.739738441637193],[90.387895294982229,23.739727509747372],[90.387549531792317,23.739714507300043],[90.387374518124474,23.739709314160216],[90.387360540327364,23.739996635545342],[90.386771919759994,23.739953149065432],[90.386779685202839,23.739782309322923],[90.386896363604194,23.73978850463627],[90.386955184211047,23.739791627854334]]]} },
{ "type": "Feature", "properties": { "id": 202, "area": 2, "road_type": 2, "rline_type": 1, "line_type": 0, "cline_type": 0, "rline": 0.000006, "lline": 0.000004, "width": 0.000008, "base_m": 0, "top_m": 0.04, "thickness_m": 2.98, "color": "#878787" }, "geometry": {"type":"MultiLineString","coordinates":[[[90.387360540327364,23.739996635545342],[90.387587471890171,23.740001579250979],[90.387806900233471,23.740006941113162],[90.388047627451456,23.740013240567784],[90.388276554505111,23.740017784501827],[90.38843683070516,23.740021484962437],[90.388434809643499,23.739937194801886],[90.388430230078782,23.739746200013705]]]} },
{ "type": "Feature", "properties": { "id": 203, "area": 2, "road_type": 2, "rline_type": 1, "line_type": 0, "cline_type": 0, "rline": 0.000006, "lline": 0.000004, "width": 0.000008, "base_m": 0, "top_m": 0.04, "thickness_m": 2.98, "color": "#878787" }, "geometry": {"type":"MultiLineString","coordinates":[[[90.388434809643499,23.739937194801886],[90.388713068052212,23.73994869310588],[90.388910073778561,23.739956570713545]]]} },
{ "type": "Feature", "properties": { "id": 204, "area": 2, "road_type": 2, "rline_type": 1, "line_type": 0, "cline_type": 0, "rline": 0.000006, "lline": 0.000004, "width": 0.000008, "base_m": 0, "top_m": 0.04, "thickness_m": 2.98, "color": "#878787" }, "geometry": {"type":"MultiLineString","coordinates":[[[90.38843683070516,23.740021484962437],[90.388453526407275,23.740308078337282],[90.388616622606079,23.740314749566107],[90.388795651315121,23.740323173790209],[90.388903922092084,23.740328268488675]]]} },
{ "type": "Feature", "properties": { "id": 205, "area": 2, "road_type": 2, "rline_type": 1, "line_type": 0, "cline_type": 0, "rline": 0.000006, "lline": 0.000004, "width": 0.000008, "base_m": 0, "top_m": 0.04, "thickness_m": 2.98, "color": "#878787" }, "geometry": {"type":"MultiLineString","coordinates":[[[90.388453526407275,23.740308078337282],[90.388463621482941,23.740554242875341],[90.388587682583875,23.740556434062036],[90.388771795225281,23.740560156326111],[90.388799233267534,23.740561047827111]]]} },
{ "type": "Feature", "properties": { "id": 206, "area": 2, "road_type": 2, "rline_type": 1, "line_type": 0, "cline_type": 0, "rline": 0.000006, "lline": 0.000004, "width": 0.000008, "base_m": 0, "top_m": 0.04, "thickness_m": 2.98, "color": "#878787" }, "geometry": {"type":"MultiLineString","coordinates":[[[90.388463621482941,23.740554242875341],[90.388457409128677,23.740793418514851],[90.388507783012699,23.740868947995203],[90.388575346791697,23.740867287289827],[90.388657980773218,23.740867781863521],[90.388816205831148,23.740869420727766],[90.388843351637888,23.740870296398981]]]} },
{ "type": "Feature", "properties": { "id": 207, "area": 2, "road_type": 2, "rline_type": 1, "line_type": 0, "cline_type": 0, "rline": 0.000006, "lline": 0.000004, "width": 0.000008, "base_m": 0, "top_m": 0.04, "thickness_m": 2.98, "color": "#878787" }, "geometry": {"type":"MultiLineString","coordinates":[[[90.388457409128677,23.740793418514851],[90.388231177787716,23.740793262385562],[90.387913055855478,23.74079291620961],[90.387571612499315,23.740792566370114],[90.387332196460989,23.740792641970568],[90.387360540327364,23.739996635545342]]]} },
{ "type": "Feature", "properties": { "id": 208, "area": 2, "road_type": 2, "rline_type": 1, "line_type": 0, "cline_type": 0, "rline": 0.000006, "lline": 0.000004, "width": 0.000008, "base_m": 0, "top_m": 0.04, "thickness_m": 2.98, "color": "#878787" }, "geometry": {"type":"MultiLineString","coordinates":[[[90.387332196460989,23.740792641970568],[90.387169967607875,23.740794944707961],[90.386869134774741,23.740797464123183],[90.386164980050111,23.74080507357321],[90.385783767158401,23.740808949400524],[90.385720090527101,23.74130982046379],[90.385380114997815,23.741255181539444],[90.384763387969059,23.741156064695534],[90.38440256816169,23.741002869167151],[90.384305226841434,23.740961540352362],[90.384007033836326,23.74086524886113],[90.383980631330658,23.74127526424315],[90.384103325327558,23.741281476597422],[90.384104878416125,23.741304772925947]]]} },
{ "type": "Feature", "properties": { "id": 209, "area": 2, "road_type": 2, "rline_type": 1, "line_type": 0, "cline_type": 0, "rline": 0.000006, "lline": 0.000004, "width": 0.000008, "base_m": 0, "top_m": 0.04, "thickness_m": 2.98, "color": "#878787" }, "geometry": {"type":"MultiLineString","coordinates":[[[90.384007033836326,23.74086524886113],[90.383761645842483,23.740835740178323],[90.383772517462461,23.740980177415171]]]} },
{ "type": "Feature", "properties": { "id": 210, "area": 2, "road_type": 2, "rline_type": 1, "line_type": 0, "cline_type": 0, "rline": 0.000006, "lline": 0.000004, "width": 0.000008, "base_m": 0, "top_m": 0.04, "thickness_m": 2.98, "color": "#878787" }, "geometry": {"type":"MultiLineString","coordinates":[[[90.383761645842483,23.740835740178323],[90.383691550379496,23.740838846756525],[90.383520571418586,23.740846424415484]]]} }
]
}
