{
"type": "FeatureCollection",
"name": "InternalBoundary",
"crs": {"type":"name","properties":{"name":"urn:ogc:def:crs:OGC:1.3:CRS84"}},
"features": [
{ "type": "Feature", "properties": { "id": 6, "base_m": 0, "top_m": 3.2, "thickness_m": 0.5, "color": "#CFC0A3" }, "geometry": {"type":"MultiLineString","coordinates":[[[90.383775266456951,23.74085295216393],[90.383977746757324,23.740877417775508],[90.38395587888489,23.741284806602284],[90.384069267853079,23.741290737640398],[90.384066028168291,23.741395272142835],[90.38375906803293,23.741380444558953],[90.383538769466099,23.740859624603903],[90.383745299372478,23.740851469399431]]]} },
{ "type": "Feature", "properties": { "id": 1, "base_m": 0, "top_m": 3.2, "thickness_m": 0.5, "color": "#CFC0A3" }, "geometry": {"type":"MultiLineString","coordinates":[[[90.386749759972858,23.739624181639705],[90.386742499308994,23.739977509343998],[90.387330549468487,23.740018391788357],[90.3873159485955,23.74050350579331],[90.387121026941131,23.740502045706013],[90.387123194258251,23.740784988951297],[90.38579652243682,23.740797217182418]]]} },
{ "type": "Feature", "properties": { "id": 2, "base_m": 0, "top_m": 3.2, "thickness_m": 0.5, "color": "#CFC0A3" }, "geometry": {"type":"MultiLineString","coordinates":[[[90.385519288361067,23.741561390372205],[90.385523486112035,23.741540949150028],[90.385695776413257,23.741569055830521],[90.385827458036417,23.741050724839607],[90.385852279520464,23.741049994795954],[90.385854834673268,23.740860822235366]]]} },
{ "type": "Feature", "properties": { "id": 3, "base_m": 0, "top_m": 3.2, "thickness_m": 0.5, "color": "#CFC0A3" }, "geometry": {"type":"MultiLineString","coordinates":[[[90.385686194590278,23.74112792695551],[90.384675449157982,23.741008199797047],[90.384445120386673,23.740927894995636]]]} },
{ "type": "Feature", "properties": { "id": 4, "base_m": 0, "top_m": 3.2, "thickness_m": 0.5, "color": "#CFC0A3" }, "geometry": {"type":"MultiLineString","coordinates":[[[90.384395842440327,23.740911103991703],[90.384261514408848,23.740865841285451],[90.384322108031725,23.740521990726684],[90.384454975975885,23.740547542254408],[90.384474687154409,23.740453366623665],[90.384312252442484,23.740422704790394],[90.384320830455366,23.740379814726008],[90.383843016886942,23.740292939531752]]]} },
{ "type": "Feature", "properties": { "id": 5, "base_m": 0, "top_m": 3.2, "thickness_m": 0.5, "color": "#CFC0A3" }, "geometry": {"type":"MultiLineString","coordinates":[[[90.383793738940639,23.740285274073436],[90.383257719604572,23.740202155173275]]]} }
]
}
