{
"type": "FeatureCollection",
"name": "Pathway",
"crs": {"type":"name","properties":{"name":"urn:ogc:def:crs:OGC:1.3:CRS84"}},
"features": [
{ "type": "Feature", "properties": { "id": 201, "name": null, "base_m": 0, "top_m": 0.05, "thickness_m": 1.4, "color": "#FFFFFF" }, "geometry": {"type":"MultiLineString","coordinates":[[[90.385546741448579,23.740669014718524],[90.385133387246327,23.740586891899195],[90.384857321336995,23.740532016742094]]]} },
{ "type": "Feature", "properties": { "id": 202, "name": null, "base_m": 0, "top_m": 0.05, "thickness_m": 1.4, "color": "#FFFFFF" }, "geometry": {"type":"MultiLineString","coordinates":[[[90.385133387246327,23.740586891899195],[90.385313084995488,23.739876102226596]]]} },
{ "type": "Feature", "properties": { "id": 203, "name": null, "base_m": 0, "top_m": 0.05, "thickness_m": 1.4, "color": "#FFFFFF" }, "geometry": {"type":"MultiLineString","coordinates":[[[90.388214617508098,23.739738441637193],[90.38821298492374,23.739787652394128]]]} },
{ "type": "Feature", "properties": { "id": 204, "name": null, "base_m": 0, "top_m": 0.05, "thickness_m": 1.4, "color": "#FFFFFF" }, "geometry": {"type":"MultiLineString","coordinates":[[[90.387895294982229,23.739727509747372],[90.387895797106552,23.73977826503409]]]} },
{ "type": "Feature", "properties": { "id": 205, "name": null, "base_m": 0, "top_m": 0.05, "thickness_m": 1.4, "color": "#FFFFFF" }, "geometry": {"type":"MultiLineString","coordinates":[[[90.387549531792317,23.739714507300043],[90.387550155676379,23.739768352914808]]]} },
{ "type": "Feature", "properties": { "id": 206, "name": null, "base_m": 0, "top_m": 0.05, "thickness_m": 1.4, "color": "#FFFFFF" }, "geometry": {"type":"MultiLineString","coordinates":[[[90.388695530213354,23.739756225145328],[90.388693197950005,23.739815231408379]]]} },
{ "type": "Feature", "properties": { "id": 207, "name": null, "base_m": 0, "top_m": 0.05, "thickness_m": 1.4, "color": "#FFFFFF" }, "geometry": {"type":"MultiLineString","coordinates":[[[90.388713068052212,23.73994869310588],[90.388712089283217,23.740030032863991]]]} },
{ "type": "Feature", "properties": { "id": 208, "name": null, "base_m": 0, "top_m": 0.05, "thickness_m": 1.4, "color": "#FFFFFF" }, "geometry": {"type":"MultiLineString","coordinates":[[[90.388276554505111,23.740017784501827],[90.388276554505111,23.740017784501827],[90.38827432345019,23.740093703653759]]]} },
{ "type": "Feature", "properties": { "id": 209, "name": null, "base_m": 0, "top_m": 0.05, "thickness_m": 1.4, "color": "#FFFFFF" }, "geometry": {"type":"MultiLineString","coordinates":[[[90.388047627451456,23.740013240567784],[90.388047627451456,23.740087872995357]]]} },
{ "type": "Feature", "properties": { "id": 210, "name": null, "base_m": 0, "top_m": 0.05, "thickness_m": 1.4, "color": "#FFFFFF" }, "geometry": {"type":"MultiLineString","coordinates":[[[90.387806900233471,23.740006941113162],[90.387806471419836,23.740073412962513]]]} },
{ "type": "Feature", "properties": { "id": 211, "name": null, "base_m": 0, "top_m": 0.05, "thickness_m": 1.4, "color": "#FFFFFF" }, "geometry": {"type":"MultiLineString","coordinates":[[[90.387587471890171,23.740001579250979],[90.387585606079483,23.740067815530452]]]} },
{ "type": "Feature", "properties": { "id": 212, "name": null, "base_m": 0, "top_m": 0.05, "thickness_m": 1.4, "color": "#FFFFFF" }, "geometry": {"type":"MultiLineString","coordinates":[[[90.388616622606079,23.740314749566107],[90.388614134222038,23.740397364343465]]]} },
{ "type": "Feature", "properties": { "id": 213, "name": null, "base_m": 0, "top_m": 0.05, "thickness_m": 1.4, "color": "#FFFFFF" }, "geometry": {"type":"MultiLineString","coordinates":[[[90.388795651315121,23.740323173790209],[90.388790919784853,23.740405760491566]]]} },
{ "type": "Feature", "properties": { "id": 214, "name": null, "base_m": 0, "top_m": 0.05, "thickness_m": 1.4, "color": "#FFFFFF" }, "geometry": {"type":"MultiLineString","coordinates":[[[90.388587682583875,23.740556434062036],[90.388588479325051,23.740600271255932]]]} },
{ "type": "Feature", "properties": { "id": 215, "name": null, "base_m": 0, "top_m": 0.05, "thickness_m": 1.4, "color": "#FFFFFF" }, "geometry": {"type":"MultiLineString","coordinates":[[[90.388771795225281,23.740560156326111],[90.388771328772606,23.740614264836104]]]} },
{ "type": "Feature", "properties": { "id": 216, "name": null, "base_m": 0, "top_m": 0.05, "thickness_m": 1.4, "color": "#FFFFFF" }, "geometry": {"type":"MultiLineString","coordinates":[[[90.388507783012699,23.740868947995203],[90.388508482691719,23.740916992620456]]]} },
{ "type": "Feature", "properties": { "id": 217, "name": null, "base_m": 0, "top_m": 0.05, "thickness_m": 1.4, "color": "#FFFFFF" }, "geometry": {"type":"MultiLineString","coordinates":[[[90.388657980773218,23.740867781863521],[90.388658913678555,23.740914427130758]]]} },
{ "type": "Feature", "properties": { "id": 218, "name": null, "base_m": 0, "top_m": 0.05, "thickness_m": 1.4, "color": "#FFFFFF" }, "geometry": {"type":"MultiLineString","coordinates":[[[90.388816205831148,23.740869420727766],[90.388815641776461,23.740917692299462]]]} },
{ "type": "Feature", "properties": { "id": 219, "name": null, "base_m": 0, "top_m": 0.05, "thickness_m": 1.4, "color": "#FFFFFF" }, "geometry": {"type":"MultiLineString","coordinates":[[[90.388231177787716,23.740793262385562],[90.388231176578017,23.740858919262742]]]} },
{ "type": "Feature", "properties": { "id": 220, "name": null, "base_m": 0, "top_m": 0.05, "thickness_m": 1.4, "color": "#FFFFFF" }, "geometry": {"type":"MultiLineString","coordinates":[[[90.387913055855478,23.74079291620961],[90.387913988760829,23.7408554208677]]]} },
{ "type": "Feature", "properties": { "id": 221, "name": null, "base_m": 0, "top_m": 0.05, "thickness_m": 1.4, "color": "#FFFFFF" }, "geometry": {"type":"MultiLineString","coordinates":[[[90.387571612499315,23.740792566370114],[90.387572778630997,23.740859035875925]]]} },
{ "type": "Feature", "properties": { "id": 222, "name": null, "base_m": 0, "top_m": 0.05, "thickness_m": 1.4, "color": "#FFFFFF" }, "geometry": {"type":"MultiLineString","coordinates":[[[90.387169967607875,23.740794944707961],[90.38716918045624,23.740839051294241],[90.387133864917288,23.740849151903603],[90.386900984746248,23.740846223004073],[90.386868930701638,23.74083498441],[90.386869134774741,23.740797464123183]]]} },
{ "type": "Feature", "properties": { "id": 223, "name": null, "base_m": 0, "top_m": 0.05, "thickness_m": 1.4, "color": "#FFFFFF" }, "geometry": {"type":"MultiLineString","coordinates":[[[90.38553413,23.74155474],[90.38560892,23.74156858],[90.38570449,23.74158465],[90.38577414,23.74132763],[90.38584244,23.74106099]]]} }
]
}
