{
"type": "FeatureCollection",
"name": "TreeLine",
"crs": {"type":"name","properties":{"name":"urn:ogc:def:crs:OGC:1.3:CRS84"}},
"features": [
{ "type": "Feature", "properties": { "id": 1, "degree": 90, "base_m": 0, "top_m": 7.5, "color": "#3F8F3A", "spacing_m": 7 }, "geometry": {"type":"LineString","coordinates":[[90.38573554573883,23.740011140802785],[90.38558004086816,23.740638352719994]]} },
{ "type": "Feature", "properties": { "id": 2, "degree": 90, "base_m": 0, "top_m": 7.5, "color": "#3F8F3A", "spacing_m": 7 }, "geometry": {"type":"LineString","coordinates":[[90.38568587057179,23.73999779583556],[90.38552820591121,23.74061018014546]]} },
{ "type": "Feature", "properties": { "id": 3, "degree": 0, "base_m": 0, "top_m": 7.5, "color": "#3F8F3A", "spacing_m": 7 }, "geometry": {"type":"LineString","coordinates":[[90.38582193733362,23.74072336466235],[90.38598392157391,23.74072237615171]]} },
{ "type": "Feature", "properties": { "id": 4, "degree": 0, "base_m": 0, "top_m": 7.5, "color": "#3F8F3A", "spacing_m": 7 }, "geometry": {"type":"LineString","coordinates":[[90.3860087591574,23.740721387641067],[90.38615886455344,23.74072039913041]]} },
{ "type": "Feature", "properties": { "id": 5, "degree": 0, "base_m": 0, "top_m": 7.5, "color": "#3F8F3A", "spacing_m": 7 }, "geometry": {"type":"LineString","coordinates":[[90.38619234129644,23.74072039913041],[90.38663725800976,23.740717433598405]]} },
{ "type": "Feature", "properties": { "id": 6, "degree": 0, "base_m": 0, "top_m": 7.5, "color": "#3F8F3A", "spacing_m": 7 }, "geometry": {"type":"LineString","coordinates":[[90.38608975127751,23.740669490821578],[90.38616210423821,23.74066850231053]]} },
{ "type": "Feature", "properties": { "id": 7, "degree": 0, "base_m": 0, "top_m": 7.5, "color": "#3F8F3A", "spacing_m": 7 }, "geometry": {"type":"LineString","coordinates":[[90.38609299096234,23.7406062260994],[90.38615022539389,23.74060523758787]]} },
{ "type": "Feature", "properties": { "id": 8, "degree": 0, "base_m": 0, "top_m": 7.5, "color": "#3F8F3A", "spacing_m": 7 }, "geometry": {"type":"LineString","coordinates":[[90.3862020603508,23.740670479332618],[90.38631004984433,23.74066850231053]]} },
{ "type": "Feature", "properties": { "id": 9, "degree": 0, "base_m": 0, "top_m": 7.5, "color": "#3F8F3A", "spacing_m": 7 }, "geometry": {"type":"LineString","coordinates":[[90.38621393919506,23.74060820312243],[90.3862722535216,23.74060721461092]]} },
{ "type": "Feature", "properties": { "id": 10, "degree": 0, "base_m": 0, "top_m": 7.5, "color": "#3F8F3A", "spacing_m": 7 }, "geometry": {"type":"LineString","coordinates":[[90.3841794171368,23.73992168007047],[90.38439755591374,23.739969623122484]]} },
{ "type": "Feature", "properties": { "id": 11, "degree": 0, "base_m": 0, "top_m": 7.5, "color": "#3F8F3A", "spacing_m": 7 }, "geometry": {"type":"LineString","coordinates":[[90.3847825384582,23.73979959819855],[90.38482249457081,23.739807506339474]]} },
{ "type": "Feature", "properties": { "id": 12, "degree": 0, "base_m": 0, "top_m": 7.5, "color": "#3F8F3A", "spacing_m": 7 }, "geometry": {"type":"LineString","coordinates":[[90.38502065529143,23.73984062167427],[90.38528090997083,23.739893013083]]} },
{ "type": "Feature", "properties": { "id": 13, "degree": 0, "base_m": 0, "top_m": 7.5, "color": "#3F8F3A", "spacing_m": 7 }, "geometry": {"type":"LineString","coordinates":[[90.38532437574196,23.739902527556975],[90.38568398075542,23.739976666302343]]} },
{ "type": "Feature", "properties": { "id": 14, "degree": 90, "base_m": 0, "top_m": 7.5, "color": "#3F8F3A", "spacing_m": 7 }, "geometry": {"type":"LineString","coordinates":[[90.38483464338874,23.740115552767584],[90.38474825179392,23.740479325870684]]} },
{ "type": "Feature", "properties": { "id": 15, "degree": 0, "base_m": 0, "top_m": 7.5, "color": "#3F8F3A", "spacing_m": 7 }, "geometry": {"type":"LineString","coordinates":[[90.38401284334297,23.73964452440073],[90.38468237820288,23.73977698585545]]} },
{ "type": "Feature", "properties": { "id": 16, "degree": 90, "base_m": 0, "top_m": 7.5, "color": "#3F8F3A", "spacing_m": 7 }, "geometry": {"type":"LineString","coordinates":[[90.38450635532845,23.739765123641117],[90.38447611827027,23.73989165387167]]} },
{ "type": "Feature", "properties": { "id": 17, "degree": 0, "base_m": 0, "top_m": 7.5, "color": "#3F8F3A", "spacing_m": 7 }, "geometry": {"type":"LineString","coordinates":[[90.38436272930208,23.739659352182205],[90.38467589883332,23.73972162884598]]} },
{ "type": "Feature", "properties": { "id": 18, "degree": 0, "base_m": 0, "top_m": 7.5, "color": "#3F8F3A", "spacing_m": 7 }, "geometry": {"type":"LineString","coordinates":[[90.3840150031329,23.73958817881573],[90.38433141234894,23.739650455513523]]} },
{ "type": "Feature", "properties": { "id": 19, "degree": 90, "base_m": 0, "top_m": 7.5, "color": "#3F8F3A", "spacing_m": 7 }, "geometry": {"type":"LineString","coordinates":[[90.38411759315174,23.739167563196343],[90.38403120155691,23.739537270064467]]} },
{ "type": "Feature", "properties": { "id": 20, "degree": 0, "base_m": 0, "top_m": 7.5, "color": "#3F8F3A", "spacing_m": 7 }, "geometry": {"type":"LineString","coordinates":[[90.38506034143026,23.739066733868405],[90.38529791831603,23.739090458423174]]} },
{ "type": "Feature", "properties": { "id": 21, "degree": 0, "base_m": 0, "top_m": 7.5, "color": "#3F8F3A", "spacing_m": 7 }, "geometry": {"type":"LineString","coordinates":[[90.3853929490703,23.74106155842442],[90.38553441530682,23.741079351568445]]} },
{ "type": "Feature", "properties": { "id": 22, "degree": 0, "base_m": 0, "top_m": 7.5, "color": "#3F8F3A", "spacing_m": 7 }, "geometry": {"type":"LineString","coordinates":[[90.38378984503873,23.73908205597719],[90.38405873887764,23.739139143173077]]} },
{ "type": "Feature", "properties": { "id": 23, "degree": 0, "base_m": 0, "top_m": 7.5, "color": "#3F8F3A", "spacing_m": 7 }, "geometry": {"type":"LineString","coordinates":[[90.38364567906486,23.7390512881924],[90.38375987795425,23.739072788572887]]} },
{ "type": "Feature", "properties": { "id": 24, "degree": 0, "base_m": 0, "top_m": 7.5, "color": "#3F8F3A", "spacing_m": 7 }, "geometry": {"type":"LineString","coordinates":[[90.383814952596,23.739040167304545],[90.3847965770922,23.739234412009218]]} },
{ "type": "Feature", "properties": { "id": 25, "degree": 90, "base_m": 0, "top_m": 7.5, "color": "#3F8F3A", "spacing_m": 7 }, "geometry": {"type":"LineString","coordinates":[[90.38400528407836,23.739665159729487],[90.3839817963635,23.739769695536342]]} },
{ "type": "Feature", "properties": { "id": 26, "degree": 90, "base_m": 0, "top_m": 7.5, "color": "#3F8F3A", "spacing_m": 7 }, "geometry": {"type":"LineString","coordinates":[[90.38396073841227,23.73984272227364],[90.38390161416457,23.740089789586392]]} },
{ "type": "Feature", "properties": { "id": 27, "degree": 0, "base_m": 0, "top_m": 7.5, "color": "#3F8F3A", "spacing_m": 7 }, "geometry": {"type":"LineString","coordinates":[[90.38391619274618,23.740089048199806],[90.38399718486635,23.740105358703687]]} },
{ "type": "Feature", "properties": { "id": 28, "degree": 0, "base_m": 0, "top_m": 7.5, "color": "#3F8F3A", "spacing_m": 7 }, "geometry": {"type":"LineString","coordinates":[[90.3839907054967,23.740309981215162],[90.38405306942923,23.7403248089209]]} },
{ "type": "Feature", "properties": { "id": 30, "degree": 0, "base_m": 0, "top_m": 7.5, "color": "#3F8F3A", "spacing_m": 7 }, "geometry": {"type":"LineString","coordinates":[[90.38385544865608,23.740319989916724],[90.38415673934303,23.740376335185214]]} },
{ "type": "Feature", "properties": { "id": 31, "degree": 0, "base_m": 0, "top_m": 7.5, "color": "#3F8F3A", "spacing_m": 7 }, "geometry": {"type":"LineString","coordinates":[[90.38329336334223,23.740236954739792],[90.38377769622073,23.74031109329316]]} },
{ "type": "Feature", "properties": { "id": 32, "degree": 90, "base_m": 0, "top_m": 7.5, "color": "#3F8F3A", "spacing_m": 7 }, "geometry": {"type":"LineString","coordinates":[[90.38335977688075,23.739981917794015],[90.38330510719963,23.740189135350487]]} },
{ "type": "Feature", "properties": { "id": 33, "degree": 0, "base_m": 0, "top_m": 7.5, "color": "#3F8F3A", "spacing_m": 7 }, "geometry": {"type":"LineString","coordinates":[[90.38444507129073,23.740960730562325],[90.38468156828154,23.74105414461365],[90.38507357014309,23.74109417918658]]} },
{ "type": "Feature", "properties": { "id": 34, "degree": 90, "base_m": 0, "top_m": 7.5, "color": "#3F8F3A", "spacing_m": 7 }, "geometry": {"type":"LineString","coordinates":[[90.38428308705038,23.74055964248546],[90.38423449177832,23.74084878188877]]} },
{ "type": "Feature", "properties": { "id": 35, "degree": 0, "base_m": 0, "top_m": 7.5, "color": "#3F8F3A", "spacing_m": 7 }, "geometry": {"type":"LineString","coordinates":[[90.38422801240871,23.740878437175898],[90.38438027759459,23.74093478220285]]} },
{ "type": "Feature", "properties": { "id": 36, "degree": 0, "base_m": 0, "top_m": 7.5, "color": "#3F8F3A", "spacing_m": 7 }, "geometry": {"type":"LineString","coordinates":[[90.38456979915574,23.74050922836994],[90.38473502308082,23.740544814806455]]} },
{ "type": "Feature", "properties": { "id": 37, "degree": 90, "base_m": 0, "top_m": 7.5, "color": "#3F8F3A", "spacing_m": 7 }, "geometry": {"type":"LineString","coordinates":[[90.38455684041651,23.740544814806455],[90.38449042687796,23.74090512692855]]} },
{ "type": "Feature", "properties": { "id": 38, "degree": 90, "base_m": 0, "top_m": 7.5, "color": "#3F8F3A", "spacing_m": 7 }, "geometry": {"type":"LineString","coordinates":[[90.38442887286666,23.740580401233245],[90.38437217838255,23.74086954059048]]} },
{ "type": "Feature", "properties": { "id": 39, "degree": 90, "base_m": 0, "top_m": 7.5, "color": "#3F8F3A", "spacing_m": 7 }, "geometry": {"type":"LineString","coordinates":[[90.38383196094112,23.740429158852283],[90.38375096882096,23.740795402354923]]} },
{ "type": "Feature", "properties": { "id": 40, "degree": 0, "base_m": 0, "top_m": 7.5, "color": "#3F8F3A", "spacing_m": 7 }, "geometry": {"type":"LineString","coordinates":[[90.3837785061418,23.740789471294253],[90.38401014360545,23.740814678300232],[90.38417860721533,23.74086212676882]]} },
{ "type": "Feature", "properties": { "id": 41, "degree": 90, "base_m": 0, "top_m": 7.5, "color": "#3F8F3A", "spacing_m": 7 }, "geometry": {"type":"LineString","coordinates":[[90.38372019181529,23.740375779146493],[90.38363919969515,23.74075536769019]]} },
{ "type": "Feature", "properties": { "id": 42, "degree": 0, "base_m": 0, "top_m": 7.5, "color": "#3F8F3A", "spacing_m": 7 }, "geometry": {"type":"LineString","coordinates":[[90.38351609167253,23.740776126406782],[90.38363596001037,23.740770936727934]]} },
{ "type": "Feature", "properties": { "id": 43, "degree": 0, "base_m": 0, "top_m": 7.5, "color": "#3F8F3A", "spacing_m": 7 }, "geometry": {"type":"LineString","coordinates":[[90.38335653719581,23.740177087827163],[90.38377931606303,23.74024232978633]]} },
{ "type": "Feature", "properties": { "id": 44, "degree": 0, "base_m": 0, "top_m": 7.5, "color": "#3F8F3A", "spacing_m": 7 }, "geometry": {"type":"LineString","coordinates":[[90.38506871061576,23.7393545173687],[90.385640514984,23.739483519298176],[90.3856842507289,23.739538382149004]]} },
{ "type": "Feature", "properties": { "id": 45, "degree": 0, "base_m": 0, "top_m": 7.5, "color": "#3F8F3A", "spacing_m": 7 }, "geometry": {"type":"LineString","coordinates":[[90.38403282139902,23.740906331674175],[90.38475365126835,23.741189539265555],[90.38481925488568,23.74120140135018]]} },
{ "type": "Feature", "properties": { "id": 46, "degree": 0, "base_m": 0, "top_m": 7.5, "color": "#3F8F3A", "spacing_m": 7 }, "geometry": {"type":"LineString","coordinates":[[90.38378660535379,23.740873340173884],[90.38395344912126,23.740894098871674]]} },
{ "type": "Feature", "properties": { "id": 47, "degree": 0, "base_m": 0, "top_m": 7.5, "color": "#3F8F3A", "spacing_m": 7 }, "geometry": {"type":"LineString","coordinates":[[90.38356225718097,23.74087408155601],[90.3837420596877,23.740868891881075]]} },
{ "type": "Feature", "properties": { "id": 48, "degree": 90, "base_m": 0, "top_m": 7.5, "color": "#3F8F3A", "spacing_m": 7 }, "geometry": {"type":"LineString","coordinates":[[90.38358250521098,23.74089965923659],[90.38378174582657,23.74135486697275]]} },
{ "type": "Feature", "properties": { "id": 49, "degree": 0, "base_m": 0, "top_m": 7.5, "color": "#3F8F3A", "spacing_m": 7 }, "geometry": {"type":"LineString","coordinates":[[90.3838011839354,23.741350789386082],[90.38401986265981,23.741364134214702]]} },
{ "type": "Feature", "properties": { "id": 50, "degree": 90, "base_m": 0, "top_m": 7.5, "color": "#3F8F3A", "spacing_m": 7 }, "geometry": {"type":"LineString","coordinates":[[90.38395182927887,23.74092301276665],[90.38393563085486,23.74127294452523]]} },
{ "type": "Feature", "properties": { "id": 51, "degree": 0, "base_m": 0, "top_m": 7.5, "color": "#3F8F3A", "spacing_m": 7 }, "geometry": {"type":"LineString","coordinates":[[90.38393563085486,23.741301116956432],[90.38404254045344,23.74130556523448]]} },
{ "type": "Feature", "properties": { "id": 52, "degree": 90, "base_m": 0, "top_m": 7.5, "color": "#3F8F3A", "spacing_m": 7 }, "geometry": {"type":"LineString","coordinates":[[90.38402958171422,23.7409408059296],[90.38401176344779,23.741253668647737]]} },
{ "type": "Feature", "properties": { "id": 53, "degree": 0, "base_m": 0, "top_m": 7.5, "color": "#3F8F3A", "spacing_m": 7 }, "geometry": {"type":"LineString","coordinates":[[90.38421100406339,23.741439013505474],[90.38478118858923,23.74145384108271]]} },
{ "type": "Feature", "properties": { "id": 55, "degree": 90, "base_m": 0, "top_m": 7.5, "color": "#3F8F3A", "spacing_m": 7 }, "geometry": {"type":"LineString","coordinates":[[90.38729480434786,23.740070617791257],[90.38728255428968,23.740478194487167]]} }
]
}
