{
"type": "FeatureCollection",
"name": "TreeLineModels",
"crs": {"type":"name","properties":{"name":"urn:ogc:def:crs:OGC:1.3:CRS84"}},
"features": [
{ "type": "Feature", "properties": { "id": 1, "line_id": 1, "model": "/models/realistic_tree.glb", "base_m": 0, "top_m": 7.5, "size": 1, "rotation": 242 }, "geometry": { "type": "Point", "coordinates": [ 90.38573555, 23.74001114 ] } },
{ "type": "Feature", "properties": { "id": 2, "line_id": 1, "model": "/models/stylized_tree.glb", "base_m": 0, "top_m": 7.5, "size": 1, "rotation": 109 }, "geometry": { "type": "Point", "coordinates": [ 90.38572033, 23.74007253 ] } },
{ "type": "Feature", "properties": { "id": 3, "line_id": 1, "model": "/models/mango_tree.glb", "base_m": 0, "top_m": 7.5, "size": 1, "rotation": 88 }, "geometry": { "type": "Point", "coordinates": [ 90.3857051, 23.74013392 ] } },
{ "type": "Feature", "properties": { "id": 4, "line_id": 1, "model": "/models/mango_tree.glb", "base_m": 0, "top_m": 7.5, "size": 1, "rotation": 155 }, "geometry": { "type": "Point", "coordinates": [ 90.38568988, 23.74019531 ] } },
{ "type": "Feature", "properties": { "id": 5, "line_id": 1, "model": "/models/mango_tree.glb", "base_m": 0, "top_m": 7.5, "size": 1, "rotation": 305 }, "geometry": { "type": "Point", "coordinates": [ 90.38567466, 23.74025671 ] } },
{ "type": "Feature", "properties": { "id": 6, "line_id": 1, "model": "/models/stylized_tree.glb", "base_m": 0, "top_m": 7.5, "size": 1, "rotation": 157 }, "geometry": { "type": "Point", "coordinates": [ 90.38565944, 23.7403181 ] } },
{ "type": "Feature", "properties": { "id": 7, "line_id": 1, "model": "/models/realistic_tree.glb", "base_m": 0, "top_m": 7.5, "size": 1, "rotation": 159 }, "geometry": { "type": "Point", "coordinates": [ 90.38564422, 23.74037949 ] } },
{ "type": "Feature", "properties": { "id": 8, "line_id": 1, "model": "/models/stylized_tree.glb", "base_m": 0, "top_m": 7.5, "size": 1, "rotation": 64 }, "geometry": { "type": "Point", "coordinates": [ 90.385629, 23.74044088 ] } },
{ "type": "Feature", "properties": { "id": 9, "line_id": 1, "model": "/models/real_tree_models.glb", "base_m": 0, "top_m": 7.5, "size": 1, "rotation": 267 }, "geometry": { "type": "Point", "coordinates": [ 90.38561378, 23.74050227 ] } },
{ "type": "Feature", "properties": { "id": 10, "line_id": 1, "model": "/models/realistic_tree.glb", "base_m": 0, "top_m": 7.5, "size": 1, "rotation": 101 }, "geometry": { "type": "Point", "coordinates": [ 90.38559856, 23.74056366 ] } },
{ "type": "Feature", "properties": { "id": 11, "line_id": 1, "model": "/models/real_tree_models.glb", "base_m": 0, "top_m": 7.5, "size": 1, "rotation": 346 }, "geometry": { "type": "Point", "coordinates": [ 90.38558334, 23.74062505 ] } },
{ "type": "Feature", "properties": { "id": 12, "line_id": 2, "model": "/models/mango_tree.glb", "base_m": 0, "top_m": 7.5, "size": 1, "rotation": 55 }, "geometry": { "type": "Point", "coordinates": [ 90.38568587, 23.7399978 ] } },
{ "type": "Feature", "properties": { "id": 13, "line_id": 2, "model": "/models/realistic_tree.glb", "base_m": 0, "top_m": 7.5, "size": 1, "rotation": 134 }, "geometry": { "type": "Point", "coordinates": [ 90.3856701, 23.74005907 ] } },
{ "type": "Feature", "properties": { "id": 14, "line_id": 2, "model": "/models/stylized_tree.glb", "base_m": 0, "top_m": 7.5, "size": 1, "rotation": 198 }, "geometry": { "type": "Point", "coordinates": [ 90.38565432, 23.74012034 ] } },
{ "type": "Feature", "properties": { "id": 15, "line_id": 2, "model": "/models/stylized_tree.glb", "base_m": 0, "top_m": 7.5, "size": 1, "rotation": 112 }, "geometry": { "type": "Point", "coordinates": [ 90.38563854, 23.74018162 ] } },
{ "type": "Feature", "properties": { "id": 16, "line_id": 2, "model": "/models/mango_tree.glb", "base_m": 0, "top_m": 7.5, "size": 1, "rotation": 68 }, "geometry": { "type": "Point", "coordinates": [ 90.38562277, 23.74024289 ] } },
{ "type": "Feature", "properties": { "id": 17, "line_id": 2, "model": "/models/mango_tree.glb", "base_m": 0, "top_m": 7.5, "size": 1, "rotation": 355 }, "geometry": { "type": "Point", "coordinates": [ 90.38560699, 23.74030416 ] } },
{ "type": "Feature", "properties": { "id": 18, "line_id": 2, "model": "/models/realistic_tree.glb", "base_m": 0, "top_m": 7.5, "size": 1, "rotation": 155 }, "geometry": { "type": "Point", "coordinates": [ 90.38559122, 23.74036544 ] } },
{ "type": "Feature", "properties": { "id": 19, "line_id": 2, "model": "/models/stylized_tree.glb", "base_m": 0, "top_m": 7.5, "size": 1, "rotation": 172 }, "geometry": { "type": "Point", "coordinates": [ 90.38557544, 23.74042671 ] } },
{ "type": "Feature", "properties": { "id": 20, "line_id": 2, "model": "/models/stylized_tree.glb", "base_m": 0, "top_m": 7.5, "size": 1, "rotation": 198 }, "geometry": { "type": "Point", "coordinates": [ 90.38555967, 23.74048799 ] } },
{ "type": "Feature", "properties": { "id": 21, "line_id": 2, "model": "/models/real_tree_models.glb", "base_m": 0, "top_m": 7.5, "size": 1, "rotation": 131 }, "geometry": { "type": "Point", "coordinates": [ 90.38554389, 23.74054926 ] } },
{ "type": "Feature", "properties": { "id": 22, "line_id": 3, "model": "/models/mango_tree.glb", "base_m": 0, "top_m": 7.5, "size": 1, "rotation": 336 }, "geometry": { "type": "Point", "coordinates": [ 90.38582194, 23.74072336 ] } },
{ "type": "Feature", "properties": { "id": 23, "line_id": 3, "model": "/models/realistic_tree.glb", "base_m": 0, "top_m": 7.5, "size": 1, "rotation": 81 }, "geometry": { "type": "Point", "coordinates": [ 90.38589071, 23.74072294 ] } },
{ "type": "Feature", "properties": { "id": 24, "line_id": 3, "model": "/models/realistic_tree.glb", "base_m": 0, "top_m": 7.5, "size": 1, "rotation": 162 }, "geometry": { "type": "Point", "coordinates": [ 90.38595948, 23.74072253 ] } },
{ "type": "Feature", "properties": { "id": 25, "line_id": 4, "model": "/models/realistic_tree.glb", "base_m": 0, "top_m": 7.5, "size": 1, "rotation": 123 }, "geometry": { "type": "Point", "coordinates": [ 90.38600876, 23.74072139 ] } },
{ "type": "Feature", "properties": { "id": 26, "line_id": 4, "model": "/models/stylized_tree.glb", "base_m": 0, "top_m": 7.5, "size": 1, "rotation": 145 }, "geometry": { "type": "Point", "coordinates": [ 90.38607753, 23.74072093 ] } },
{ "type": "Feature", "properties": { "id": 27, "line_id": 4, "model": "/models/realistic_tree.glb", "base_m": 0, "top_m": 17, "size": 1, "rotation": 88 }, "geometry": { "type": "Point", "coordinates": [ 90.3861463, 23.74072048 ] } },
{ "type": "Feature", "properties": { "id": 28, "line_id": 5, "model": "/models/realistic_tree.glb", "base_m": 0, "top_m": 7.5, "size": 1, "rotation": 191 }, "geometry": { "type": "Point", "coordinates": [ 90.38619234, 23.7407204 ] } },
{ "type": "Feature", "properties": { "id": 29, "line_id": 5, "model": "/models/stylized_tree.glb", "base_m": 0, "top_m": 7.5, "size": 1, "rotation": 342 }, "geometry": { "type": "Point", "coordinates": [ 90.38626111, 23.74071994 ] } },
{ "type": "Feature", "properties": { "id": 30, "line_id": 5, "model": "/models/real_tree_models.glb", "base_m": 0, "top_m": 7.5, "size": 1, "rotation": 102 }, "geometry": { "type": "Point", "coordinates": [ 90.38632988, 23.74071948 ] } },
{ "type": "Feature", "properties": { "id": 31, "line_id": 5, "model": "/models/realistic_tree.glb", "base_m": 0, "top_m": 7.5, "size": 1, "rotation": 60 }, "geometry": { "type": "Point", "coordinates": [ 90.38639865, 23.74071902 ] } },
{ "type": "Feature", "properties": { "id": 32, "line_id": 5, "model": "/models/mango_tree.glb", "base_m": 0, "top_m": 7.5, "size": 1, "rotation": 273 }, "geometry": { "type": "Point", "coordinates": [ 90.38646742, 23.74071857 ] } },
{ "type": "Feature", "properties": { "id": 33, "line_id": 5, "model": "/models/mango_tree.glb", "base_m": 0, "top_m": 7.5, "size": 1, "rotation": 314 }, "geometry": { "type": "Point", "coordinates": [ 90.38653619, 23.74071811 ] } },
{ "type": "Feature", "properties": { "id": 34, "line_id": 5, "model": "/models/real_tree_models.glb", "base_m": 0, "top_m": 7.5, "size": 1, "rotation": 161 }, "geometry": { "type": "Point", "coordinates": [ 90.38660496, 23.74071765 ] } },
{ "type": "Feature", "properties": { "id": 35, "line_id": 6, "model": "/models/realistic_tree.glb", "base_m": 0, "top_m": 7.5, "size": 1, "rotation": 97 }, "geometry": { "type": "Point", "coordinates": [ 90.38608975, 23.74066949 ] } },
{ "type": "Feature", "properties": { "id": 36, "line_id": 6, "model": "/models/realistic_tree.glb", "base_m": 0, "top_m": 7.5, "size": 1, "rotation": 262 }, "geometry": { "type": "Point", "coordinates": [ 90.38615852, 23.74066855 ] } },
{ "type": "Feature", "properties": { "id": 37, "line_id": 7, "model": "/models/realistic_tree.glb", "base_m": 0, "top_m": 7.5, "size": 1, "rotation": 137 }, "geometry": { "type": "Point", "coordinates": [ 90.38609299, 23.74060623 ] } },
{ "type": "Feature", "properties": { "id": 38, "line_id": 8, "model": "/models/stylized_tree.glb", "base_m": 0, "top_m": 7.5, "size": 1, "rotation": 103 }, "geometry": { "type": "Point", "coordinates": [ 90.38620206, 23.74067048 ] } },
{ "type": "Feature", "properties": { "id": 39, "line_id": 8, "model": "/models/real_tree_models.glb", "base_m": 0, "top_m": 7.5, "size": 1, "rotation": 106 }, "geometry": { "type": "Point", "coordinates": [ 90.38627082, 23.74066922 ] } },
{ "type": "Feature", "properties": { "id": 40, "line_id": 9, "model": "/models/mango_tree.glb", "base_m": 0, "top_m": 7.5, "size": 1, "rotation": 285 }, "geometry": { "type": "Point", "coordinates": [ 90.38621394, 23.7406082 ] } },
{ "type": "Feature", "properties": { "id": 41, "line_id": 10, "model": "/models/stylized_tree.glb", "base_m": 0, "top_m": 7.5, "size": 1, "rotation": 221 }, "geometry": { "type": "Point", "coordinates": [ 90.38417942, 23.73992168 ] } },
{ "type": "Feature", "properties": { "id": 42, "line_id": 10, "model": "/models/mango_tree.glb", "base_m": 0, "top_m": 7.5, "size": 1, "rotation": 114 }, "geometry": { "type": "Point", "coordinates": [ 90.38424629, 23.73993638 ] } },
{ "type": "Feature", "properties": { "id": 43, "line_id": 10, "model": "/models/stylized_tree.glb", "base_m": 0, "top_m": 7.5, "size": 1, "rotation": 187 }, "geometry": { "type": "Point", "coordinates": [ 90.38431316, 23.73995107 ] } },
{ "type": "Feature", "properties": { "id": 44, "line_id": 10, "model": "/models/mango_tree.glb", "base_m": 0, "top_m": 7.5, "size": 1, "rotation": 139 }, "geometry": { "type": "Point", "coordinates": [ 90.38438003, 23.73996577 ] } },
{ "type": "Feature", "properties": { "id": 45, "line_id": 11, "model": "/models/stylized_tree.glb", "base_m": 0, "top_m": 7.5, "size": 1, "rotation": 93 }, "geometry": { "type": "Point", "coordinates": [ 90.38478254, 23.7397996 ] } },
{ "type": "Feature", "properties": { "id": 46, "line_id": 12, "model": "/models/stylized_tree.glb", "base_m": 0, "top_m": 7.5, "size": 1, "rotation": 11 }, "geometry": { "type": "Point", "coordinates": [ 90.38502066, 23.73984062 ] } },
{ "type": "Feature", "properties": { "id": 47, "line_id": 12, "model": "/models/real_tree_models.glb", "base_m": 0, "top_m": 7.5, "size": 1, "rotation": 173 }, "geometry": { "type": "Point", "coordinates": [ 90.38508782, 23.73985414 ] } },
{ "type": "Feature", "properties": { "id": 48, "line_id": 12, "model": "/models/mango_tree.glb", "base_m": 0, "top_m": 7.5, "size": 1, "rotation": 14 }, "geometry": { "type": "Point", "coordinates": [ 90.38515499, 23.73986766 ] } },
{ "type": "Feature", "properties": { "id": 49, "line_id": 12, "model": "/models/stylized_tree.glb", "base_m": 0, "top_m": 7.5, "size": 1, "rotation": 69 }, "geometry": { "type": "Point", "coordinates": [ 90.38522216, 23.73988119 ] } },
{ "type": "Feature", "properties": { "id": 50, "line_id": 13, "model": "/models/realistic_tree.glb", "base_m": 0, "top_m": 7.5, "size": 1, "rotation": 32 }, "geometry": { "type": "Point", "coordinates": [ 90.38532438, 23.73990253 ] } },
{ "type": "Feature", "properties": { "id": 51, "line_id": 13, "model": "/models/real_tree_models.glb", "base_m": 0, "top_m": 7.5, "size": 1, "rotation": 97 }, "geometry": { "type": "Point", "coordinates": [ 90.38539147, 23.73991636 ] } },
{ "type": "Feature", "properties": { "id": 52, "line_id": 13, "model": "/models/realistic_tree.glb", "base_m": 0, "top_m": 7.5, "size": 1, "rotation": 2 }, "geometry": { "type": "Point", "coordinates": [ 90.38545856, 23.73993019 ] } },
{ "type": "Feature", "properties": { "id": 53, "line_id": 13, "model": "/models/realistic_tree.glb", "base_m": 0, "top_m": 7.5, "size": 1, "rotation": 185 }, "geometry": { "type": "Point", "coordinates": [ 90.38552565, 23.73994402 ] } },
{ "type": "Feature", "properties": { "id": 54, "line_id": 13, "model": "/models/mango_tree.glb", "base_m": 0, "top_m": 7.5, "size": 1, "rotation": 202 }, "geometry": { "type": "Point", "coordinates": [ 90.38559274, 23.73995786 ] } },
{ "type": "Feature", "properties": { "id": 55, "line_id": 13, "model": "/models/real_tree_models.glb", "base_m": 0, "top_m": 7.5, "size": 1, "rotation": 59 }, "geometry": { "type": "Point", "coordinates": [ 90.38565983, 23.73997169 ] } },
{ "type": "Feature", "properties": { "id": 56, "line_id": 14, "model": "/models/mango_tree.glb", "base_m": 0, "top_m": 7.5, "size": 1, "rotation": 262 }, "geometry": { "type": "Point", "coordinates": [ 90.38483464, 23.74011555 ] } },
{ "type": "Feature", "properties": { "id": 57, "line_id": 14, "model": "/models/stylized_tree.glb", "base_m": 0, "top_m": 7.5, "size": 1, "rotation": 311 }, "geometry": { "type": "Point", "coordinates": [ 90.38482003, 23.74017707 ] } },
{ "type": "Feature", "properties": { "id": 58, "line_id": 14, "model": "/models/realistic_tree.glb", "base_m": 0, "top_m": 7.5, "size": 1, "rotation": 70 }, "geometry": { "type": "Point", "coordinates": [ 90.38480543, 23.74023858 ] } },
{ "type": "Feature", "properties": { "id": 59, "line_id": 14, "model": "/models/realistic_tree.glb", "base_m": 0, "top_m": 7.5, "size": 1, "rotation": 53 }, "geometry": { "type": "Point", "coordinates": [ 90.38479082, 23.7403001 ] } },
{ "type": "Feature", "properties": { "id": 60, "line_id": 14, "model": "/models/stylized_tree.glb", "base_m": 0, "top_m": 7.5, "size": 1, "rotation": 111 }, "geometry": { "type": "Point", "coordinates": [ 90.38477621, 23.74036162 ] } },
{ "type": "Feature", "properties": { "id": 61, "line_id": 14, "model": "/models/realistic_tree.glb", "base_m": 0, "top_m": 7.5, "size": 1, "rotation": 185 }, "geometry": { "type": "Point", "coordinates": [ 90.3847616, 23.74042313 ] } },
{ "type": "Feature", "properties": { "id": 62, "line_id": 15, "model": "/models/stylized_tree.glb", "base_m": 0, "top_m": 7.5, "size": 1, "rotation": 311 }, "geometry": { "type": "Point", "coordinates": [ 90.38401284, 23.73964452 ] } },
{ "type": "Feature", "properties": { "id": 63, "line_id": 15, "model": "/models/real_tree_models.glb", "base_m": 0, "top_m": 7.5, "size": 1, "rotation": 185 }, "geometry": { "type": "Point", "coordinates": [ 90.38408006, 23.73965782 ] } },
{ "type": "Feature", "properties": { "id": 64, "line_id": 15, "model": "/models/real_tree_models.glb", "base_m": 0, "top_m": 7.5, "size": 1, "rotation": 215 }, "geometry": { "type": "Point", "coordinates": [ 90.38414728, 23.73967112 ] } },
{ "type": "Feature", "properties": { "id": 65, "line_id": 15, "model": "/models/real_tree_models.glb", "base_m": 0, "top_m": 7.5, "size": 1, "rotation": 129 }, "geometry": { "type": "Point", "coordinates": [ 90.3842145, 23.73968442 ] } },
{ "type": "Feature", "properties": { "id": 66, "line_id": 15, "model": "/models/real_tree_models.glb", "base_m": 0, "top_m": 7.5, "size": 1, "rotation": 176 }, "geometry": { "type": "Point", "coordinates": [ 90.38428172, 23.73969772 ] } },
{ "type": "Feature", "properties": { "id": 67, "line_id": 15, "model": "/models/real_tree_models.glb", "base_m": 0, "top_m": 7.5, "size": 1, "rotation": 276 }, "geometry": { "type": "Point", "coordinates": [ 90.38434894, 23.73971102 ] } },
{ "type": "Feature", "properties": { "id": 68, "line_id": 15, "model": "/models/mango_tree.glb", "base_m": 0, "top_m": 7.5, "size": 1, "rotation": 236 }, "geometry": { "type": "Point", "coordinates": [ 90.38441616, 23.73972432 ] } },
{ "type": "Feature", "properties": { "id": 69, "line_id": 15, "model": "/models/mango_tree.glb", "base_m": 0, "top_m": 7.5, "size": 1, "rotation": 256 }, "geometry": { "type": "Point", "coordinates": [ 90.38448338, 23.73973762 ] } },
{ "type": "Feature", "properties": { "id": 70, "line_id": 15, "model": "/models/stylized_tree.glb", "base_m": 0, "top_m": 7.5, "size": 1, "rotation": 317 }, "geometry": { "type": "Point", "coordinates": [ 90.3845506, 23.73975091 ] } },
{ "type": "Feature", "properties": { "id": 71, "line_id": 15, "model": "/models/mango_tree.glb", "base_m": 0, "top_m": 7.5, "size": 1, "rotation": 94 }, "geometry": { "type": "Point", "coordinates": [ 90.38461782, 23.73976421 ] } },
{ "type": "Feature", "properties": { "id": 72, "line_id": 16, "model": "/models/stylized_tree.glb", "base_m": 0, "top_m": 7.5, "size": 1, "rotation": 143 }, "geometry": { "type": "Point", "coordinates": [ 90.38450636, 23.73976512 ] } },
{ "type": "Feature", "properties": { "id": 73, "line_id": 16, "model": "/models/realistic_tree.glb", "base_m": 0, "top_m": 7.5, "size": 1, "rotation": 251 }, "geometry": { "type": "Point", "coordinates": [ 90.38449166, 23.73982662 ] } },
{ "type": "Feature", "properties": { "id": 74, "line_id": 16, "model": "/models/realistic_tree.glb", "base_m": 0, "top_m": 7.5, "size": 1, "rotation": 272 }, "geometry": { "type": "Point", "coordinates": [ 90.38447696, 23.73988812 ] } },
{ "type": "Feature", "properties": { "id": 75, "line_id": 17, "model": "/models/mango_tree.glb", "base_m": 0, "top_m": 7.5, "size": 1, "rotation": 156 }, "geometry": { "type": "Point", "coordinates": [ 90.38436273, 23.73965935 ] } },
{ "type": "Feature", "properties": { "id": 76, "line_id": 17, "model": "/models/stylized_tree.glb", "base_m": 0, "top_m": 7.5, "size": 1, "rotation": 173 }, "geometry": { "type": "Point", "coordinates": [ 90.38442993, 23.73967272 ] } },
{ "type": "Feature", "properties": { "id": 77, "line_id": 17, "model": "/models/stylized_tree.glb", "base_m": 0, "top_m": 7.5, "size": 1, "rotation": 300 }, "geometry": { "type": "Point", "coordinates": [ 90.38449714, 23.73968608 ] } },
{ "type": "Feature", "properties": { "id": 78, "line_id": 17, "model": "/models/stylized_tree.glb", "base_m": 0, "top_m": 7.5, "size": 1, "rotation": 97 }, "geometry": { "type": "Point", "coordinates": [ 90.38456434, 23.73969944 ] } },
{ "type": "Feature", "properties": { "id": 79, "line_id": 17, "model": "/models/real_tree_models.glb", "base_m": 0, "top_m": 7.5, "size": 1, "rotation": 66 }, "geometry": { "type": "Point", "coordinates": [ 90.38463155, 23.73971281 ] } },
{ "type": "Feature", "properties": { "id": 80, "line_id": 18, "model": "/models/realistic_tree.glb", "base_m": 0, "top_m": 7.5, "size": 1, "rotation": 239 }, "geometry": { "type": "Point", "coordinates": [ 90.384015, 23.73958818 ] } },
{ "type": "Feature", "properties": { "id": 81, "line_id": 18, "model": "/models/stylized_tree.glb", "base_m": 0, "top_m": 7.5, "size": 1, "rotation": 77 }, "geometry": { "type": "Point", "coordinates": [ 90.38408224, 23.73960141 ] } },
{ "type": "Feature", "properties": { "id": 82, "line_id": 18, "model": "/models/stylized_tree.glb", "base_m": 0, "top_m": 7.5, "size": 1, "rotation": 151 }, "geometry": { "type": "Point", "coordinates": [ 90.38414947, 23.73961465 ] } },
{ "type": "Feature", "properties": { "id": 83, "line_id": 18, "model": "/models/stylized_tree.glb", "base_m": 0, "top_m": 7.5, "size": 1, "rotation": 291 }, "geometry": { "type": "Point", "coordinates": [ 90.38421671, 23.73962788 ] } },
{ "type": "Feature", "properties": { "id": 84, "line_id": 18, "model": "/models/real_tree_models.glb", "base_m": 0, "top_m": 7.5, "size": 1, "rotation": 258 }, "geometry": { "type": "Point", "coordinates": [ 90.38428394, 23.73964111 ] } },
{ "type": "Feature", "properties": { "id": 85, "line_id": 19, "model": "/models/mango_tree.glb", "base_m": 0, "top_m": 7.5, "size": 1, "rotation": 87 }, "geometry": { "type": "Point", "coordinates": [ 90.38411759, 23.73916756 ] } },
{ "type": "Feature", "properties": { "id": 86, "line_id": 19, "model": "/models/stylized_tree.glb", "base_m": 0, "top_m": 7.5, "size": 1, "rotation": 226 }, "geometry": { "type": "Point", "coordinates": [ 90.38410321, 23.73922912 ] } },
{ "type": "Feature", "properties": { "id": 87, "line_id": 19, "model": "/models/mango_tree.glb", "base_m": 0, "top_m": 7.5, "size": 1, "rotation": 276 }, "geometry": { "type": "Point", "coordinates": [ 90.38408882, 23.73929068 ] } },
{ "type": "Feature", "properties": { "id": 88, "line_id": 19, "model": "/models/mango_tree.glb", "base_m": 0, "top_m": 7.5, "size": 1, "rotation": 215 }, "geometry": { "type": "Point", "coordinates": [ 90.38407444, 23.73935224 ] } },
{ "type": "Feature", "properties": { "id": 89, "line_id": 19, "model": "/models/stylized_tree.glb", "base_m": 0, "top_m": 7.5, "size": 1, "rotation": 21 }, "geometry": { "type": "Point", "coordinates": [ 90.38406005, 23.7394138 ] } },
{ "type": "Feature", "properties": { "id": 90, "line_id": 19, "model": "/models/mango_tree.glb", "base_m": 0, "top_m": 7.5, "size": 1, "rotation": 194 }, "geometry": { "type": "Point", "coordinates": [ 90.38404567, 23.73947536 ] } },
{ "type": "Feature", "properties": { "id": 91, "line_id": 19, "model": "/models/realistic_tree.glb", "base_m": 0, "top_m": 7.5, "size": 1, "rotation": 284 }, "geometry": { "type": "Point", "coordinates": [ 90.38403128, 23.73953692 ] } },
{ "type": "Feature", "properties": { "id": 92, "line_id": 20, "model": "/models/real_tree_models.glb", "base_m": 0, "top_m": 7.5, "size": 1, "rotation": 33 }, "geometry": { "type": "Point", "coordinates": [ 90.38506034, 23.73906673 ] } },
{ "type": "Feature", "properties": { "id": 93, "line_id": 20, "model": "/models/stylized_tree.glb", "base_m": 0, "top_m": 7.5, "size": 1, "rotation": 32 }, "geometry": { "type": "Point", "coordinates": [ 90.38512871, 23.73907356 ] } },
{ "type": "Feature", "properties": { "id": 94, "line_id": 20, "model": "/models/realistic_tree.glb", "base_m": 0, "top_m": 7.5, "size": 1, "rotation": 19 }, "geometry": { "type": "Point", "coordinates": [ 90.38519707, 23.73908039 ] } },
{ "type": "Feature", "properties": { "id": 95, "line_id": 20, "model": "/models/stylized_tree.glb", "base_m": 0, "top_m": 7.5, "size": 1, "rotation": 190 }, "geometry": { "type": "Point", "coordinates": [ 90.38526544, 23.73908721 ] } },
{ "type": "Feature", "properties": { "id": 96, "line_id": 21, "model": "/models/real_tree_models.glb", "base_m": 0, "top_m": 7.5, "size": 1, "rotation": 96 }, "geometry": { "type": "Point", "coordinates": [ 90.38539295, 23.74106156 ] } },
{ "type": "Feature", "properties": { "id": 97, "line_id": 21, "model": "/models/stylized_tree.glb", "base_m": 0, "top_m": 7.5, "size": 1, "rotation": 202 }, "geometry": { "type": "Point", "coordinates": [ 90.38546108, 23.74107013 ] } },
{ "type": "Feature", "properties": { "id": 98, "line_id": 21, "model": "/models/mango_tree.glb", "base_m": 0, "top_m": 7.5, "size": 1, "rotation": 334 }, "geometry": { "type": "Point", "coordinates": [ 90.38552921, 23.7410787 ] } },
{ "type": "Feature", "properties": { "id": 99, "line_id": 22, "model": "/models/stylized_tree.glb", "base_m": 0, "top_m": 7.5, "size": 1, "rotation": 242 }, "geometry": { "type": "Point", "coordinates": [ 90.38378985, 23.73908206 ] } },
{ "type": "Feature", "properties": { "id": 100, "line_id": 22, "model": "/models/mango_tree.glb", "base_m": 0, "top_m": 7.5, "size": 1, "rotation": 65 }, "geometry": { "type": "Point", "coordinates": [ 90.38385684, 23.73909628 ] } },
{ "type": "Feature", "properties": { "id": 101, "line_id": 22, "model": "/models/mango_tree.glb", "base_m": 0, "top_m": 7.5, "size": 1, "rotation": 247 }, "geometry": { "type": "Point", "coordinates": [ 90.38392383, 23.7391105 ] } },
{ "type": "Feature", "properties": { "id": 102, "line_id": 22, "model": "/models/mango_tree.glb", "base_m": 0, "top_m": 7.5, "size": 1, "rotation": 245 }, "geometry": { "type": "Point", "coordinates": [ 90.38399082, 23.73912472 ] } },
{ "type": "Feature", "properties": { "id": 103, "line_id": 22, "model": "/models/real_tree_models.glb", "base_m": 0, "top_m": 7.5, "size": 1, "rotation": 154 }, "geometry": { "type": "Point", "coordinates": [ 90.38405782, 23.73913895 ] } },
{ "type": "Feature", "properties": { "id": 104, "line_id": 23, "model": "/models/real_tree_models.glb", "base_m": 0, "top_m": 7.5, "size": 1, "rotation": 78 }, "geometry": { "type": "Point", "coordinates": [ 90.38364568, 23.73905129 ] } },
{ "type": "Feature", "properties": { "id": 105, "line_id": 23, "model": "/models/realistic_tree.glb", "base_m": 0, "top_m": 7.5, "size": 1, "rotation": 94 }, "geometry": { "type": "Point", "coordinates": [ 90.38371304, 23.73906397 ] } },
{ "type": "Feature", "properties": { "id": 106, "line_id": 24, "model": "/models/realistic_tree.glb", "base_m": 0, "top_m": 7.5, "size": 1, "rotation": 74 }, "geometry": { "type": "Point", "coordinates": [ 90.38381495, 23.73904017 ] } },
{ "type": "Feature", "properties": { "id": 107, "line_id": 24, "model": "/models/mango_tree.glb", "base_m": 0, "top_m": 7.5, "size": 1, "rotation": 220 }, "geometry": { "type": "Point", "coordinates": [ 90.38388217, 23.73905347 ] } },
{ "type": "Feature", "properties": { "id": 108, "line_id": 24, "model": "/models/realistic_tree.glb", "base_m": 0, "top_m": 7.5, "size": 1, "rotation": 276 }, "geometry": { "type": "Point", "coordinates": [ 90.38394939, 23.73906677 ] } },
{ "type": "Feature", "properties": { "id": 109, "line_id": 24, "model": "/models/mango_tree.glb", "base_m": 0, "top_m": 7.5, "size": 1, "rotation": 119 }, "geometry": { "type": "Point", "coordinates": [ 90.38401661, 23.73908007 ] } },
{ "type": "Feature", "properties": { "id": 110, "line_id": 24, "model": "/models/stylized_tree.glb", "base_m": 0, "top_m": 7.5, "size": 1, "rotation": 0 }, "geometry": { "type": "Point", "coordinates": [ 90.38408383, 23.73909337 ] } },
{ "type": "Feature", "properties": { "id": 111, "line_id": 24, "model": "/models/real_tree_models.glb", "base_m": 0, "top_m": 7.5, "size": 1, "rotation": 22 }, "geometry": { "type": "Point", "coordinates": [ 90.38415105, 23.73910667 ] } },
{ "type": "Feature", "properties": { "id": 112, "line_id": 24, "model": "/models/real_tree_models.glb", "base_m": 0, "top_m": 7.5, "size": 1, "rotation": 32 }, "geometry": { "type": "Point", "coordinates": [ 90.38421826, 23.73911998 ] } },
{ "type": "Feature", "properties": { "id": 113, "line_id": 24, "model": "/models/stylized_tree.glb", "base_m": 0, "top_m": 7.5, "size": 1, "rotation": 245 }, "geometry": { "type": "Point", "coordinates": [ 90.38428548, 23.73913328 ] } },
{ "type": "Feature", "properties": { "id": 114, "line_id": 24, "model": "/models/mango_tree.glb", "base_m": 0, "top_m": 7.5, "size": 1, "rotation": 130 }, "geometry": { "type": "Point", "coordinates": [ 90.3843527, 23.73914658 ] } },
{ "type": "Feature", "properties": { "id": 115, "line_id": 24, "model": "/models/mango_tree.glb", "base_m": 0, "top_m": 7.5, "size": 1, "rotation": 307 }, "geometry": { "type": "Point", "coordinates": [ 90.38441992, 23.73915988 ] } },
{ "type": "Feature", "properties": { "id": 116, "line_id": 24, "model": "/models/realistic_tree.glb", "base_m": 0, "top_m": 7.5, "size": 1, "rotation": 324 }, "geometry": { "type": "Point", "coordinates": [ 90.38448714, 23.73917318 ] } },
{ "type": "Feature", "properties": { "id": 117, "line_id": 24, "model": "/models/real_tree_models.glb", "base_m": 0, "top_m": 7.5, "size": 1, "rotation": 13 }, "geometry": { "type": "Point", "coordinates": [ 90.38455436, 23.73918648 ] } },
{ "type": "Feature", "properties": { "id": 118, "line_id": 24, "model": "/models/mango_tree.glb", "base_m": 0, "top_m": 7.5, "size": 1, "rotation": 297 }, "geometry": { "type": "Point", "coordinates": [ 90.38462158, 23.73919978 ] } },
{ "type": "Feature", "properties": { "id": 119, "line_id": 24, "model": "/models/real_tree_models.glb", "base_m": 0, "top_m": 7.5, "size": 1, "rotation": 191 }, "geometry": { "type": "Point", "coordinates": [ 90.38468879, 23.73921308 ] } },
{ "type": "Feature", "properties": { "id": 120, "line_id": 24, "model": "/models/mango_tree.glb", "base_m": 0, "top_m": 7.5, "size": 1, "rotation": 188 }, "geometry": { "type": "Point", "coordinates": [ 90.38475601, 23.73922639 ] } },
{ "type": "Feature", "properties": { "id": 121, "line_id": 25, "model": "/models/real_tree_models.glb", "base_m": 0, "top_m": 7.5, "size": 1, "rotation": 184 }, "geometry": { "type": "Point", "coordinates": [ 90.38400528, 23.73966516 ] } },
{ "type": "Feature", "properties": { "id": 122, "line_id": 25, "model": "/models/stylized_tree.glb", "base_m": 0, "top_m": 7.5, "size": 1, "rotation": 166 }, "geometry": { "type": "Point", "coordinates": [ 90.38399143, 23.73972682 ] } },
{ "type": "Feature", "properties": { "id": 123, "line_id": 26, "model": "/models/mango_tree.glb", "base_m": 0, "top_m": 7.5, "size": 1, "rotation": 119 }, "geometry": { "type": "Point", "coordinates": [ 90.38396074, 23.73984272 ] } },
{ "type": "Feature", "properties": { "id": 124, "line_id": 26, "model": "/models/realistic_tree.glb", "base_m": 0, "top_m": 7.5, "size": 1, "rotation": 122 }, "geometry": { "type": "Point", "coordinates": [ 90.38394602, 23.73990422 ] } },
{ "type": "Feature", "properties": { "id": 125, "line_id": 26, "model": "/models/realistic_tree.glb", "base_m": 0, "top_m": 7.5, "size": 1, "rotation": 169 }, "geometry": { "type": "Point", "coordinates": [ 90.38393131, 23.73996571 ] } },
{ "type": "Feature", "properties": { "id": 126, "line_id": 26, "model": "/models/real_tree_models.glb", "base_m": 0, "top_m": 7.5, "size": 1, "rotation": 269 }, "geometry": { "type": "Point", "coordinates": [ 90.38391659, 23.74002721 ] } },
{ "type": "Feature", "properties": { "id": 127, "line_id": 26, "model": "/models/real_tree_models.glb", "base_m": 0, "top_m": 7.5, "size": 1, "rotation": 84 }, "geometry": { "type": "Point", "coordinates": [ 90.38390188, 23.7400887 ] } },
{ "type": "Feature", "properties": { "id": 128, "line_id": 27, "model": "/models/realistic_tree.glb", "base_m": 0, "top_m": 7.5, "size": 1, "rotation": 299 }, "geometry": { "type": "Point", "coordinates": [ 90.38391619, 23.74008905 ] } },
{ "type": "Feature", "properties": { "id": 129, "line_id": 27, "model": "/models/real_tree_models.glb", "base_m": 0, "top_m": 7.5, "size": 1, "rotation": 256 }, "geometry": { "type": "Point", "coordinates": [ 90.38398336, 23.74010257 ] } },
{ "type": "Feature", "properties": { "id": 130, "line_id": 28, "model": "/models/realistic_tree.glb", "base_m": 0, "top_m": 7.5, "size": 1, "rotation": 217 }, "geometry": { "type": "Point", "coordinates": [ 90.38399071, 23.74030998 ] } },
{ "type": "Feature", "properties": { "id": 131, "line_id": 30, "model": "/models/mango_tree.glb", "base_m": 0, "top_m": 7.5, "size": 1, "rotation": 187 }, "geometry": { "type": "Point", "coordinates": [ 90.38385545, 23.74031999 ] } },
{ "type": "Feature", "properties": { "id": 132, "line_id": 30, "model": "/models/real_tree_models.glb", "base_m": 0, "top_m": 7.5, "size": 1, "rotation": 51 }, "geometry": { "type": "Point", "coordinates": [ 90.38392283, 23.74033259 ] } },
{ "type": "Feature", "properties": { "id": 133, "line_id": 30, "model": "/models/realistic_tree.glb", "base_m": 0, "top_m": 7.5, "size": 1, "rotation": 175 }, "geometry": { "type": "Point", "coordinates": [ 90.38399021, 23.74034519 ] } },
{ "type": "Feature", "properties": { "id": 134, "line_id": 30, "model": "/models/realistic_tree.glb", "base_m": 0, "top_m": 7.5, "size": 1, "rotation": 293 }, "geometry": { "type": "Point", "coordinates": [ 90.38405759, 23.74035779 ] } },
{ "type": "Feature", "properties": { "id": 135, "line_id": 30, "model": "/models/mango_tree.glb", "base_m": 0, "top_m": 7.5, "size": 1, "rotation": 142 }, "geometry": { "type": "Point", "coordinates": [ 90.38412497, 23.74037039 ] } },
{ "type": "Feature", "properties": { "id": 136, "line_id": 31, "model": "/models/real_tree_models.glb", "base_m": 0, "top_m": 7.5, "size": 1, "rotation": 209 }, "geometry": { "type": "Point", "coordinates": [ 90.38329336, 23.74023695 ] } },
{ "type": "Feature", "properties": { "id": 137, "line_id": 31, "model": "/models/realistic_tree.glb", "base_m": 0, "top_m": 7.5, "size": 1, "rotation": 124 }, "geometry": { "type": "Point", "coordinates": [ 90.38336119, 23.74024734 ] } },
{ "type": "Feature", "properties": { "id": 138, "line_id": 31, "model": "/models/mango_tree.glb", "base_m": 0, "top_m": 7.5, "size": 1, "rotation": 246 }, "geometry": { "type": "Point", "coordinates": [ 90.38342902, 23.74025772 ] } },
{ "type": "Feature", "properties": { "id": 139, "line_id": 31, "model": "/models/stylized_tree.glb", "base_m": 0, "top_m": 7.5, "size": 1, "rotation": 80 }, "geometry": { "type": "Point", "coordinates": [ 90.38349685, 23.7402681 ] } },
{ "type": "Feature", "properties": { "id": 140, "line_id": 31, "model": "/models/mango_tree.glb", "base_m": 0, "top_m": 7.5, "size": 1, "rotation": 33 }, "geometry": { "type": "Point", "coordinates": [ 90.38356468, 23.74027849 ] } },
{ "type": "Feature", "properties": { "id": 141, "line_id": 31, "model": "/models/stylized_tree.glb", "base_m": 0, "top_m": 7.5, "size": 1, "rotation": 239 }, "geometry": { "type": "Point", "coordinates": [ 90.38363251, 23.74028887 ] } },
{ "type": "Feature", "properties": { "id": 142, "line_id": 31, "model": "/models/realistic_tree.glb", "base_m": 0, "top_m": 7.5, "size": 1, "rotation": 218 }, "geometry": { "type": "Point", "coordinates": [ 90.38370034, 23.74029925 ] } },
{ "type": "Feature", "properties": { "id": 143, "line_id": 31, "model": "/models/real_tree_models.glb", "base_m": 0, "top_m": 7.5, "size": 1, "rotation": 239 }, "geometry": { "type": "Point", "coordinates": [ 90.38376817, 23.74030964 ] } },
{ "type": "Feature", "properties": { "id": 144, "line_id": 32, "model": "/models/mango_tree.glb", "base_m": 0, "top_m": 7.5, "size": 1, "rotation": 317 }, "geometry": { "type": "Point", "coordinates": [ 90.38335978, 23.73998192 ] } },
{ "type": "Feature", "properties": { "id": 145, "line_id": 32, "model": "/models/mango_tree.glb", "base_m": 0, "top_m": 7.5, "size": 1, "rotation": 280 }, "geometry": { "type": "Point", "coordinates": [ 90.38334363, 23.74004311 ] } },
{ "type": "Feature", "properties": { "id": 146, "line_id": 32, "model": "/models/real_tree_models.glb", "base_m": 0, "top_m": 7.5, "size": 1, "rotation": 180 }, "geometry": { "type": "Point", "coordinates": [ 90.38332749, 23.7401043 ] } },
{ "type": "Feature", "properties": { "id": 147, "line_id": 32, "model": "/models/real_tree_models.glb", "base_m": 0, "top_m": 7.5, "size": 1, "rotation": 309 }, "geometry": { "type": "Point", "coordinates": [ 90.38331134, 23.7401655 ] } },
{ "type": "Feature", "properties": { "id": 148, "line_id": 33, "model": "/models/stylized_tree.glb", "base_m": 0, "top_m": 7.5, "size": 1, "rotation": 65 }, "geometry": { "type": "Point", "coordinates": [ 90.38444507, 23.74096073 ] } },
{ "type": "Feature", "properties": { "id": 149, "line_id": 33, "model": "/models/stylized_tree.glb", "base_m": 0, "top_m": 7.5, "size": 1, "rotation": 32 }, "geometry": { "type": "Point", "coordinates": [ 90.38450822, 23.74098567 ] } },
{ "type": "Feature", "properties": { "id": 150, "line_id": 33, "model": "/models/real_tree_models.glb", "base_m": 0, "top_m": 7.5, "size": 1, "rotation": 151 }, "geometry": { "type": "Point", "coordinates": [ 90.38457136, 23.74101061 ] } },
{ "type": "Feature", "properties": { "id": 151, "line_id": 33, "model": "/models/realistic_tree.glb", "base_m": 0, "top_m": 7.5, "size": 1, "rotation": 243 }, "geometry": { "type": "Point", "coordinates": [ 90.3846345, 23.74103555 ] } },
{ "type": "Feature", "properties": { "id": 152, "line_id": 33, "model": "/models/realistic_tree.glb", "base_m": 0, "top_m": 7.5, "size": 1, "rotation": 87 }, "geometry": { "type": "Point", "coordinates": [ 90.38469897, 23.74105592 ] } },
{ "type": "Feature", "properties": { "id": 153, "line_id": 33, "model": "/models/realistic_tree.glb", "base_m": 0, "top_m": 7.5, "size": 1, "rotation": 110 }, "geometry": { "type": "Point", "coordinates": [ 90.38476732, 23.7410629 ] } },
{ "type": "Feature", "properties": { "id": 154, "line_id": 33, "model": "/models/mango_tree.glb", "base_m": 0, "top_m": 7.5, "size": 1, "rotation": 251 }, "geometry": { "type": "Point", "coordinates": [ 90.38483567, 23.74106988 ] } },
{ "type": "Feature", "properties": { "id": 155, "line_id": 33, "model": "/models/mango_tree.glb", "base_m": 0, "top_m": 7.5, "size": 1, "rotation": 8 }, "geometry": { "type": "Point", "coordinates": [ 90.38490402, 23.74107686 ] } },
{ "type": "Feature", "properties": { "id": 156, "line_id": 33, "model": "/models/real_tree_models.glb", "base_m": 0, "top_m": 7.5, "size": 1, "rotation": 200 }, "geometry": { "type": "Point", "coordinates": [ 90.38497237, 23.74108384 ] } },
{ "type": "Feature", "properties": { "id": 157, "line_id": 33, "model": "/models/real_tree_models.glb", "base_m": 0, "top_m": 7.5, "size": 1, "rotation": 85 }, "geometry": { "type": "Point", "coordinates": [ 90.38504072, 23.74109082 ] } },
{ "type": "Feature", "properties": { "id": 158, "line_id": 34, "model": "/models/mango_tree.glb", "base_m": 0, "top_m": 7.5, "size": 1, "rotation": 137 }, "geometry": { "type": "Point", "coordinates": [ 90.38428309, 23.74055964 ] } },
{ "type": "Feature", "properties": { "id": 159, "line_id": 34, "model": "/models/stylized_tree.glb", "base_m": 0, "top_m": 7.5, "size": 1, "rotation": 29 }, "geometry": { "type": "Point", "coordinates": [ 90.38427263, 23.74062186 ] } },
{ "type": "Feature", "properties": { "id": 160, "line_id": 34, "model": "/models/real_tree_models.glb", "base_m": 0, "top_m": 7.5, "size": 1, "rotation": 318 }, "geometry": { "type": "Point", "coordinates": [ 90.38426217, 23.74068408 ] } },
{ "type": "Feature", "properties": { "id": 161, "line_id": 34, "model": "/models/realistic_tree.glb", "base_m": 0, "top_m": 7.5, "size": 1, "rotation": 233 }, "geometry": { "type": "Point", "coordinates": [ 90.38425172, 23.7407463 ] } },
{ "type": "Feature", "properties": { "id": 162, "line_id": 34, "model": "/models/real_tree_models.glb", "base_m": 0, "top_m": 7.5, "size": 1, "rotation": 20 }, "geometry": { "type": "Point", "coordinates": [ 90.38424126, 23.74080852 ] } },
{ "type": "Feature", "properties": { "id": 163, "line_id": 35, "model": "/models/stylized_tree.glb", "base_m": 0, "top_m": 7.5, "size": 1, "rotation": 354 }, "geometry": { "type": "Point", "coordinates": [ 90.38422801, 23.74087844 ] } },
{ "type": "Feature", "properties": { "id": 164, "line_id": 35, "model": "/models/real_tree_models.glb", "base_m": 0, "top_m": 7.5, "size": 1, "rotation": 319 }, "geometry": { "type": "Point", "coordinates": [ 90.38429177, 23.74090203 ] } },
{ "type": "Feature", "properties": { "id": 165, "line_id": 35, "model": "/models/real_tree_models.glb", "base_m": 0, "top_m": 7.5, "size": 1, "rotation": 358 }, "geometry": { "type": "Point", "coordinates": [ 90.38435553, 23.74092562 ] } },
{ "type": "Feature", "properties": { "id": 166, "line_id": 36, "model": "/models/realistic_tree.glb", "base_m": 0, "top_m": 7.5, "size": 1, "rotation": 179 }, "geometry": { "type": "Point", "coordinates": [ 90.3845698, 23.74050923 ] } },
{ "type": "Feature", "properties": { "id": 167, "line_id": 36, "model": "/models/realistic_tree.glb", "base_m": 0, "top_m": 7.5, "size": 1, "rotation": 326 }, "geometry": { "type": "Point", "coordinates": [ 90.38463674, 23.74052365 ] } },
{ "type": "Feature", "properties": { "id": 168, "line_id": 36, "model": "/models/real_tree_models.glb", "base_m": 0, "top_m": 7.5, "size": 1, "rotation": 216 }, "geometry": { "type": "Point", "coordinates": [ 90.38470369, 23.74053807 ] } },
{ "type": "Feature", "properties": { "id": 169, "line_id": 37, "model": "/models/mango_tree.glb", "base_m": 0, "top_m": 7.5, "size": 1, "rotation": 155 }, "geometry": { "type": "Point", "coordinates": [ 90.38455684, 23.74054481 ] } },
{ "type": "Feature", "properties": { "id": 170, "line_id": 37, "model": "/models/stylized_tree.glb", "base_m": 0, "top_m": 7.5, "size": 1, "rotation": 167 }, "geometry": { "type": "Point", "coordinates": [ 90.3845454, 23.74060689 ] } },
{ "type": "Feature", "properties": { "id": 171, "line_id": 37, "model": "/models/realistic_tree.glb", "base_m": 0, "top_m": 7.5, "size": 1, "rotation": 252 }, "geometry": { "type": "Point", "coordinates": [ 90.38453396, 23.74066896 ] } },
{ "type": "Feature", "properties": { "id": 172, "line_id": 37, "model": "/models/mango_tree.glb", "base_m": 0, "top_m": 7.5, "size": 1, "rotation": 333 }, "geometry": { "type": "Point", "coordinates": [ 90.38452252, 23.74073104 ] } },
{ "type": "Feature", "properties": { "id": 173, "line_id": 37, "model": "/models/mango_tree.glb", "base_m": 0, "top_m": 7.5, "size": 1, "rotation": 138 }, "geometry": { "type": "Point", "coordinates": [ 90.38451107, 23.74079311 ] } },
{ "type": "Feature", "properties": { "id": 174, "line_id": 37, "model": "/models/stylized_tree.glb", "base_m": 0, "top_m": 7.5, "size": 1, "rotation": 258 }, "geometry": { "type": "Point", "coordinates": [ 90.38449963, 23.74085519 ] } },
{ "type": "Feature", "properties": { "id": 175, "line_id": 38, "model": "/models/mango_tree.glb", "base_m": 0, "top_m": 7.5, "size": 1, "rotation": 357 }, "geometry": { "type": "Point", "coordinates": [ 90.38442887, 23.7405804 ] } },
{ "type": "Feature", "properties": { "id": 176, "line_id": 38, "model": "/models/real_tree_models.glb", "base_m": 0, "top_m": 7.5, "size": 1, "rotation": 169 }, "geometry": { "type": "Point", "coordinates": [ 90.38441672, 23.74064236 ] } },
{ "type": "Feature", "properties": { "id": 177, "line_id": 38, "model": "/models/realistic_tree.glb", "base_m": 0, "top_m": 7.5, "size": 1, "rotation": 177 }, "geometry": { "type": "Point", "coordinates": [ 90.38440457, 23.74070433 ] } },
{ "type": "Feature", "properties": { "id": 178, "line_id": 38, "model": "/models/real_tree_models.glb", "base_m": 0, "top_m": 7.5, "size": 1, "rotation": 64 }, "geometry": { "type": "Point", "coordinates": [ 90.38439242, 23.74076629 ] } },
{ "type": "Feature", "properties": { "id": 179, "line_id": 38, "model": "/models/realistic_tree.glb", "base_m": 0, "top_m": 7.5, "size": 1, "rotation": 173 }, "geometry": { "type": "Point", "coordinates": [ 90.38438027, 23.74082825 ] } },
{ "type": "Feature", "properties": { "id": 180, "line_id": 39, "model": "/models/realistic_tree.glb", "base_m": 0, "top_m": 7.5, "size": 1, "rotation": 218 }, "geometry": { "type": "Point", "coordinates": [ 90.38383196, 23.74042916 ] } },
{ "type": "Feature", "properties": { "id": 181, "line_id": 39, "model": "/models/realistic_tree.glb", "base_m": 0, "top_m": 7.5, "size": 1, "rotation": 324 }, "geometry": { "type": "Point", "coordinates": [ 90.38381832, 23.74049086 ] } },
{ "type": "Feature", "properties": { "id": 182, "line_id": 39, "model": "/models/mango_tree.glb", "base_m": 0, "top_m": 7.5, "size": 1, "rotation": 75 }, "geometry": { "type": "Point", "coordinates": [ 90.38380467, 23.74055256 ] } },
{ "type": "Feature", "properties": { "id": 183, "line_id": 39, "model": "/models/real_tree_models.glb", "base_m": 0, "top_m": 7.5, "size": 1, "rotation": 237 }, "geometry": { "type": "Point", "coordinates": [ 90.38379103, 23.74061426 ] } },
{ "type": "Feature", "properties": { "id": 184, "line_id": 39, "model": "/models/realistic_tree.glb", "base_m": 0, "top_m": 7.5, "size": 1, "rotation": 250 }, "geometry": { "type": "Point", "coordinates": [ 90.38377738, 23.74067596 ] } },
{ "type": "Feature", "properties": { "id": 185, "line_id": 39, "model": "/models/stylized_tree.glb", "base_m": 0, "top_m": 7.5, "size": 1, "rotation": 281 }, "geometry": { "type": "Point", "coordinates": [ 90.38376374, 23.74073766 ] } },
{ "type": "Feature", "properties": { "id": 186, "line_id": 40, "model": "/models/stylized_tree.glb", "base_m": 0, "top_m": 7.5, "size": 1, "rotation": 343 }, "geometry": { "type": "Point", "coordinates": [ 90.38377851, 23.74078947 ] } },
{ "type": "Feature", "properties": { "id": 187, "line_id": 40, "model": "/models/mango_tree.glb", "base_m": 0, "top_m": 7.5, "size": 1, "rotation": 206 }, "geometry": { "type": "Point", "coordinates": [ 90.3838468, 23.7407969 ] } },
{ "type": "Feature", "properties": { "id": 188, "line_id": 40, "model": "/models/real_tree_models.glb", "base_m": 0, "top_m": 7.5, "size": 1, "rotation": 83 }, "geometry": { "type": "Point", "coordinates": [ 90.38391509, 23.74080433 ] } },
{ "type": "Feature", "properties": { "id": 189, "line_id": 40, "model": "/models/realistic_tree.glb", "base_m": 0, "top_m": 7.5, "size": 1, "rotation": 65 }, "geometry": { "type": "Point", "coordinates": [ 90.38398338, 23.74081177 ] } },
{ "type": "Feature", "properties": { "id": 190, "line_id": 40, "model": "/models/stylized_tree.glb", "base_m": 0, "top_m": 7.5, "size": 1, "rotation": 231 }, "geometry": { "type": "Point", "coordinates": [ 90.38405011, 23.74082594 ] } },
{ "type": "Feature", "properties": { "id": 191, "line_id": 40, "model": "/models/mango_tree.glb", "base_m": 0, "top_m": 7.5, "size": 1, "rotation": 133 }, "geometry": { "type": "Point", "coordinates": [ 90.38411585, 23.74084445 ] } },
{ "type": "Feature", "properties": { "id": 192, "line_id": 41, "model": "/models/mango_tree.glb", "base_m": 0, "top_m": 7.5, "size": 1, "rotation": 6 }, "geometry": { "type": "Point", "coordinates": [ 90.38372019, 23.74037578 ] } },
{ "type": "Feature", "properties": { "id": 193, "line_id": 41, "model": "/models/real_tree_models.glb", "base_m": 0, "top_m": 7.5, "size": 1, "rotation": 277 }, "geometry": { "type": "Point", "coordinates": [ 90.38370701, 23.74043756 ] } },
{ "type": "Feature", "properties": { "id": 194, "line_id": 41, "model": "/models/stylized_tree.glb", "base_m": 0, "top_m": 7.5, "size": 1, "rotation": 87 }, "geometry": { "type": "Point", "coordinates": [ 90.38369383, 23.74049935 ] } },
{ "type": "Feature", "properties": { "id": 195, "line_id": 41, "model": "/models/realistic_tree.glb", "base_m": 0, "top_m": 7.5, "size": 1, "rotation": 356 }, "geometry": { "type": "Point", "coordinates": [ 90.38368064, 23.74056113 ] } },
{ "type": "Feature", "properties": { "id": 196, "line_id": 41, "model": "/models/stylized_tree.glb", "base_m": 0, "top_m": 7.5, "size": 1, "rotation": 60 }, "geometry": { "type": "Point", "coordinates": [ 90.38366746, 23.74062292 ] } },
{ "type": "Feature", "properties": { "id": 197, "line_id": 41, "model": "/models/real_tree_models.glb", "base_m": 0, "top_m": 7.5, "size": 1, "rotation": 209 }, "geometry": { "type": "Point", "coordinates": [ 90.38365428, 23.7406847 ] } },
{ "type": "Feature", "properties": { "id": 198, "line_id": 41, "model": "/models/stylized_tree.glb", "base_m": 0, "top_m": 7.5, "size": 1, "rotation": 327 }, "geometry": { "type": "Point", "coordinates": [ 90.38364109, 23.74074649 ] } },
{ "type": "Feature", "properties": { "id": 199, "line_id": 42, "model": "/models/realistic_tree.glb", "base_m": 0, "top_m": 7.5, "size": 1, "rotation": 129 }, "geometry": { "type": "Point", "coordinates": [ 90.38351609, 23.74077613 ] } },
{ "type": "Feature", "properties": { "id": 200, "line_id": 42, "model": "/models/realistic_tree.glb", "base_m": 0, "top_m": 7.5, "size": 1, "rotation": 164 }, "geometry": { "type": "Point", "coordinates": [ 90.38358479, 23.74077315 ] } },
{ "type": "Feature", "properties": { "id": 201, "line_id": 43, "model": "/models/mango_tree.glb", "base_m": 0, "top_m": 7.5, "size": 1, "rotation": 96 }, "geometry": { "type": "Point", "coordinates": [ 90.38335654, 23.74017709 ] } },
{ "type": "Feature", "properties": { "id": 202, "line_id": 43, "model": "/models/realistic_tree.glb", "base_m": 0, "top_m": 7.5, "size": 1, "rotation": 230 }, "geometry": { "type": "Point", "coordinates": [ 90.38342435, 23.74018755 ] } },
{ "type": "Feature", "properties": { "id": 203, "line_id": 43, "model": "/models/real_tree_models.glb", "base_m": 0, "top_m": 7.5, "size": 1, "rotation": 28 }, "geometry": { "type": "Point", "coordinates": [ 90.38349217, 23.74019802 ] } },
{ "type": "Feature", "properties": { "id": 204, "line_id": 43, "model": "/models/mango_tree.glb", "base_m": 0, "top_m": 7.5, "size": 1, "rotation": 106 }, "geometry": { "type": "Point", "coordinates": [ 90.38355998, 23.74020848 ] } },
{ "type": "Feature", "properties": { "id": 205, "line_id": 43, "model": "/models/real_tree_models.glb", "base_m": 0, "top_m": 7.5, "size": 1, "rotation": 204 }, "geometry": { "type": "Point", "coordinates": [ 90.3836278, 23.74021895 ] } },
{ "type": "Feature", "properties": { "id": 206, "line_id": 43, "model": "/models/realistic_tree.glb", "base_m": 0, "top_m": 7.5, "size": 1, "rotation": 74 }, "geometry": { "type": "Point", "coordinates": [ 90.38369561, 23.74022941 ] } },
{ "type": "Feature", "properties": { "id": 207, "line_id": 43, "model": "/models/realistic_tree.glb", "base_m": 0, "top_m": 7.5, "size": 1, "rotation": 177 }, "geometry": { "type": "Point", "coordinates": [ 90.38376343, 23.74023988 ] } },
{ "type": "Feature", "properties": { "id": 208, "line_id": 44, "model": "/models/stylized_tree.glb", "base_m": 0, "top_m": 7.5, "size": 1, "rotation": 116 }, "geometry": { "type": "Point", "coordinates": [ 90.38506871, 23.73935452 ] } },
{ "type": "Feature", "properties": { "id": 209, "line_id": 44, "model": "/models/realistic_tree.glb", "base_m": 0, "top_m": 7.5, "size": 1, "rotation": 274 }, "geometry": { "type": "Point", "coordinates": [ 90.38513548, 23.73936958 ] } },
{ "type": "Feature", "properties": { "id": 210, "line_id": 44, "model": "/models/realistic_tree.glb", "base_m": 0, "top_m": 7.5, "size": 1, "rotation": 289 }, "geometry": { "type": "Point", "coordinates": [ 90.38520226, 23.73938465 ] } },
{ "type": "Feature", "properties": { "id": 211, "line_id": 44, "model": "/models/real_tree_models.glb", "base_m": 0, "top_m": 7.5, "size": 1, "rotation": 213 }, "geometry": { "type": "Point", "coordinates": [ 90.38526903, 23.73939971 ] } },
{ "type": "Feature", "properties": { "id": 212, "line_id": 44, "model": "/models/stylized_tree.glb", "base_m": 0, "top_m": 7.5, "size": 1, "rotation": 82 }, "geometry": { "type": "Point", "coordinates": [ 90.3853358, 23.73941477 ] } },
{ "type": "Feature", "properties": { "id": 213, "line_id": 44, "model": "/models/real_tree_models.glb", "base_m": 0, "top_m": 7.5, "size": 1, "rotation": 22 }, "geometry": { "type": "Point", "coordinates": [ 90.38540258, 23.73942984 ] } },
{ "type": "Feature", "properties": { "id": 214, "line_id": 44, "model": "/models/real_tree_models.glb", "base_m": 0, "top_m": 7.5, "size": 1, "rotation": 59 }, "geometry": { "type": "Point", "coordinates": [ 90.38546935, 23.7394449 ] } },
{ "type": "Feature", "properties": { "id": 215, "line_id": 44, "model": "/models/realistic_tree.glb", "base_m": 0, "top_m": 7.5, "size": 1, "rotation": 42 }, "geometry": { "type": "Point", "coordinates": [ 90.38553612, 23.73945997 ] } },
{ "type": "Feature", "properties": { "id": 216, "line_id": 44, "model": "/models/real_tree_models.glb", "base_m": 0, "top_m": 7.5, "size": 1, "rotation": 356 }, "geometry": { "type": "Point", "coordinates": [ 90.3856029, 23.73947503 ] } },
{ "type": "Feature", "properties": { "id": 217, "line_id": 44, "model": "/models/mango_tree.glb", "base_m": 0, "top_m": 7.5, "size": 1, "rotation": 297 }, "geometry": { "type": "Point", "coordinates": [ 90.38565822, 23.73950572 ] } },
{ "type": "Feature", "properties": { "id": 218, "line_id": 45, "model": "/models/stylized_tree.glb", "base_m": 0, "top_m": 7.5, "size": 1, "rotation": 204 }, "geometry": { "type": "Point", "coordinates": [ 90.38403282, 23.74090633 ] } },
{ "type": "Feature", "properties": { "id": 219, "line_id": 45, "model": "/models/stylized_tree.glb", "base_m": 0, "top_m": 7.5, "size": 1, "rotation": 167 }, "geometry": { "type": "Point", "coordinates": [ 90.38409602, 23.74093116 ] } },
{ "type": "Feature", "properties": { "id": 220, "line_id": 45, "model": "/models/realistic_tree.glb", "base_m": 0, "top_m": 7.5, "size": 1, "rotation": 50 }, "geometry": { "type": "Point", "coordinates": [ 90.38415922, 23.74095599 ] } },
{ "type": "Feature", "properties": { "id": 221, "line_id": 45, "model": "/models/stylized_tree.glb", "base_m": 0, "top_m": 7.5, "size": 1, "rotation": 253 }, "geometry": { "type": "Point", "coordinates": [ 90.38422241, 23.74098082 ] } },
{ "type": "Feature", "properties": { "id": 222, "line_id": 45, "model": "/models/real_tree_models.glb", "base_m": 0, "top_m": 7.5, "size": 1, "rotation": 215 }, "geometry": { "type": "Point", "coordinates": [ 90.38428561, 23.74100565 ] } },
{ "type": "Feature", "properties": { "id": 223, "line_id": 45, "model": "/models/real_tree_models.glb", "base_m": 0, "top_m": 7.5, "size": 1, "rotation": 284 }, "geometry": { "type": "Point", "coordinates": [ 90.38434881, 23.74103048 ] } },
{ "type": "Feature", "properties": { "id": 224, "line_id": 45, "model": "/models/real_tree_models.glb", "base_m": 0, "top_m": 7.5, "size": 1, "rotation": 250 }, "geometry": { "type": "Point", "coordinates": [ 90.384412, 23.74105531 ] } },
{ "type": "Feature", "properties": { "id": 225, "line_id": 45, "model": "/models/mango_tree.glb", "base_m": 0, "top_m": 7.5, "size": 1, "rotation": 20 }, "geometry": { "type": "Point", "coordinates": [ 90.3844752, 23.74108014 ] } },
{ "type": "Feature", "properties": { "id": 226, "line_id": 45, "model": "/models/real_tree_models.glb", "base_m": 0, "top_m": 7.5, "size": 1, "rotation": 134 }, "geometry": { "type": "Point", "coordinates": [ 90.3845384, 23.74110497 ] } },
{ "type": "Feature", "properties": { "id": 227, "line_id": 45, "model": "/models/stylized_tree.glb", "base_m": 0, "top_m": 7.5, "size": 1, "rotation": 208 }, "geometry": { "type": "Point", "coordinates": [ 90.38460159, 23.7411298 ] } },
{ "type": "Feature", "properties": { "id": 228, "line_id": 45, "model": "/models/realistic_tree.glb", "base_m": 0, "top_m": 7.5, "size": 1, "rotation": 354 }, "geometry": { "type": "Point", "coordinates": [ 90.38466479, 23.74115463 ] } },
{ "type": "Feature", "properties": { "id": 229, "line_id": 45, "model": "/models/stylized_tree.glb", "base_m": 0, "top_m": 7.5, "size": 1, "rotation": 299 }, "geometry": { "type": "Point", "coordinates": [ 90.38472799, 23.74117946 ] } },
{ "type": "Feature", "properties": { "id": 230, "line_id": 45, "model": "/models/stylized_tree.glb", "base_m": 0, "top_m": 7.5, "size": 1, "rotation": 151 }, "geometry": { "type": "Point", "coordinates": [ 90.38479372, 23.74119678 ] } },
{ "type": "Feature", "properties": { "id": 231, "line_id": 46, "model": "/models/mango_tree.glb", "base_m": 0, "top_m": 7.5, "size": 1, "rotation": 39 }, "geometry": { "type": "Point", "coordinates": [ 90.38378661, 23.74087334 ] } },
{ "type": "Feature", "properties": { "id": 232, "line_id": 46, "model": "/models/mango_tree.glb", "base_m": 0, "top_m": 7.5, "size": 1, "rotation": 191 }, "geometry": { "type": "Point", "coordinates": [ 90.38385475, 23.74088182 ] } },
{ "type": "Feature", "properties": { "id": 233, "line_id": 46, "model": "/models/stylized_tree.glb", "base_m": 0, "top_m": 7.5, "size": 1, "rotation": 85 }, "geometry": { "type": "Point", "coordinates": [ 90.3839229, 23.7408903 ] } },
{ "type": "Feature", "properties": { "id": 234, "line_id": 47, "model": "/models/mango_tree.glb", "base_m": 0, "top_m": 7.5, "size": 1, "rotation": 177 }, "geometry": { "type": "Point", "coordinates": [ 90.38356226, 23.74087408 ] } },
{ "type": "Feature", "properties": { "id": 235, "line_id": 47, "model": "/models/mango_tree.glb", "base_m": 0, "top_m": 7.5, "size": 1, "rotation": 152 }, "geometry": { "type": "Point", "coordinates": [ 90.383631, 23.7408721 ] } },
{ "type": "Feature", "properties": { "id": 236, "line_id": 47, "model": "/models/real_tree_models.glb", "base_m": 0, "top_m": 7.5, "size": 1, "rotation": 243 }, "geometry": { "type": "Point", "coordinates": [ 90.38369973, 23.74087011 ] } },
{ "type": "Feature", "properties": { "id": 237, "line_id": 48, "model": "/models/real_tree_models.glb", "base_m": 0, "top_m": 7.5, "size": 1, "rotation": 329 }, "geometry": { "type": "Point", "coordinates": [ 90.38358251, 23.74089966 ] } },
{ "type": "Feature", "properties": { "id": 238, "line_id": 48, "model": "/models/stylized_tree.glb", "base_m": 0, "top_m": 7.5, "size": 1, "rotation": 4 }, "geometry": { "type": "Point", "coordinates": [ 90.38360808, 23.7409581 ] } },
{ "type": "Feature", "properties": { "id": 239, "line_id": 48, "model": "/models/realistic_tree.glb", "base_m": 0, "top_m": 7.5, "size": 1, "rotation": 233 }, "geometry": { "type": "Point", "coordinates": [ 90.38363366, 23.74101653 ] } },
{ "type": "Feature", "properties": { "id": 240, "line_id": 48, "model": "/models/realistic_tree.glb", "base_m": 0, "top_m": 7.5, "size": 1, "rotation": 67 }, "geometry": { "type": "Point", "coordinates": [ 90.38365924, 23.74107497 ] } },
{ "type": "Feature", "properties": { "id": 241, "line_id": 48, "model": "/models/mango_tree.glb", "base_m": 0, "top_m": 7.5, "size": 1, "rotation": 358 }, "geometry": { "type": "Point", "coordinates": [ 90.38368481, 23.74113341 ] } },
{ "type": "Feature", "properties": { "id": 242, "line_id": 48, "model": "/models/real_tree_models.glb", "base_m": 0, "top_m": 7.5, "size": 1, "rotation": 10 }, "geometry": { "type": "Point", "coordinates": [ 90.38371039, 23.74119184 ] } },
{ "type": "Feature", "properties": { "id": 243, "line_id": 48, "model": "/models/mango_tree.glb", "base_m": 0, "top_m": 7.5, "size": 1, "rotation": 355 }, "geometry": { "type": "Point", "coordinates": [ 90.38373597, 23.74125028 ] } },
{ "type": "Feature", "properties": { "id": 244, "line_id": 48, "model": "/models/real_tree_models.glb", "base_m": 0, "top_m": 7.5, "size": 1, "rotation": 49 }, "geometry": { "type": "Point", "coordinates": [ 90.38376155, 23.74130872 ] } },
{ "type": "Feature", "properties": { "id": 245, "line_id": 49, "model": "/models/realistic_tree.glb", "base_m": 0, "top_m": 7.5, "size": 1, "rotation": 273 }, "geometry": { "type": "Point", "coordinates": [ 90.38380118, 23.74135079 ] } },
{ "type": "Feature", "properties": { "id": 246, "line_id": 49, "model": "/models/stylized_tree.glb", "base_m": 0, "top_m": 7.5, "size": 1, "rotation": 201 }, "geometry": { "type": "Point", "coordinates": [ 90.3838698, 23.74135498 ] } },
{ "type": "Feature", "properties": { "id": 247, "line_id": 49, "model": "/models/real_tree_models.glb", "base_m": 0, "top_m": 7.5, "size": 1, "rotation": 155 }, "geometry": { "type": "Point", "coordinates": [ 90.38393842, 23.74135916 ] } },
{ "type": "Feature", "properties": { "id": 248, "line_id": 49, "model": "/models/mango_tree.glb", "base_m": 0, "top_m": 7.5, "size": 1, "rotation": 140 }, "geometry": { "type": "Point", "coordinates": [ 90.38400704, 23.74136335 ] } },
{ "type": "Feature", "properties": { "id": 249, "line_id": 50, "model": "/models/realistic_tree.glb", "base_m": 0, "top_m": 7.5, "size": 1, "rotation": 176 }, "geometry": { "type": "Point", "coordinates": [ 90.38395183, 23.74092301 ] } },
{ "type": "Feature", "properties": { "id": 250, "line_id": 50, "model": "/models/mango_tree.glb", "base_m": 0, "top_m": 7.5, "size": 1, "rotation": 164 }, "geometry": { "type": "Point", "coordinates": [ 90.38394892, 23.74098591 ] } },
{ "type": "Feature", "properties": { "id": 251, "line_id": 50, "model": "/models/stylized_tree.glb", "base_m": 0, "top_m": 7.5, "size": 1, "rotation": 224 }, "geometry": { "type": "Point", "coordinates": [ 90.38394601, 23.7410488 ] } },
{ "type": "Feature", "properties": { "id": 252, "line_id": 50, "model": "/models/real_tree_models.glb", "base_m": 0, "top_m": 7.5, "size": 1, "rotation": 276 }, "geometry": { "type": "Point", "coordinates": [ 90.38394309, 23.7411117 ] } },
{ "type": "Feature", "properties": { "id": 253, "line_id": 50, "model": "/models/real_tree_models.glb", "base_m": 0, "top_m": 7.5, "size": 1, "rotation": 65 }, "geometry": { "type": "Point", "coordinates": [ 90.38394018, 23.7411746 ] } },
{ "type": "Feature", "properties": { "id": 254, "line_id": 50, "model": "/models/real_tree_models.glb", "base_m": 0, "top_m": 7.5, "size": 1, "rotation": 192 }, "geometry": { "type": "Point", "coordinates": [ 90.38393727, 23.74123749 ] } },
{ "type": "Feature", "properties": { "id": 255, "line_id": 51, "model": "/models/stylized_tree.glb", "base_m": 0, "top_m": 7.5, "size": 1, "rotation": 288 }, "geometry": { "type": "Point", "coordinates": [ 90.38393563, 23.74130112 ] } },
{ "type": "Feature", "properties": { "id": 256, "line_id": 51, "model": "/models/real_tree_models.glb", "base_m": 0, "top_m": 7.5, "size": 1, "rotation": 259 }, "geometry": { "type": "Point", "coordinates": [ 90.38400433, 23.74130398 ] } },
{ "type": "Feature", "properties": { "id": 257, "line_id": 52, "model": "/models/mango_tree.glb", "base_m": 0, "top_m": 7.5, "size": 1, "rotation": 159 }, "geometry": { "type": "Point", "coordinates": [ 90.38402958, 23.74094081 ] } },
{ "type": "Feature", "properties": { "id": 258, "line_id": 52, "model": "/models/realistic_tree.glb", "base_m": 0, "top_m": 7.5, "size": 1, "rotation": 213 }, "geometry": { "type": "Point", "coordinates": [ 90.384026, 23.74100367 ] } },
{ "type": "Feature", "properties": { "id": 259, "line_id": 52, "model": "/models/realistic_tree.glb", "base_m": 0, "top_m": 7.5, "size": 1, "rotation": 234 }, "geometry": { "type": "Point", "coordinates": [ 90.38402242, 23.74106654 ] } },
{ "type": "Feature", "properties": { "id": 260, "line_id": 52, "model": "/models/stylized_tree.glb", "base_m": 0, "top_m": 7.5, "size": 1, "rotation": 8 }, "geometry": { "type": "Point", "coordinates": [ 90.38401884, 23.74112941 ] } },
{ "type": "Feature", "properties": { "id": 261, "line_id": 52, "model": "/models/real_tree_models.glb", "base_m": 0, "top_m": 7.5, "size": 1, "rotation": 342 }, "geometry": { "type": "Point", "coordinates": [ 90.38401526, 23.74119227 ] } },
{ "type": "Feature", "properties": { "id": 262, "line_id": 53, "model": "/models/realistic_tree.glb", "base_m": 0, "top_m": 7.5, "size": 1, "rotation": 53 }, "geometry": { "type": "Point", "coordinates": [ 90.384211, 23.74143901 ] } },
{ "type": "Feature", "properties": { "id": 263, "line_id": 53, "model": "/models/realistic_tree.glb", "base_m": 0, "top_m": 7.5, "size": 1, "rotation": 23 }, "geometry": { "type": "Point", "coordinates": [ 90.38427975, 23.7414408 ] } },
{ "type": "Feature", "properties": { "id": 264, "line_id": 53, "model": "/models/real_tree_models.glb", "base_m": 0, "top_m": 7.5, "size": 1, "rotation": 195 }, "geometry": { "type": "Point", "coordinates": [ 90.38434849, 23.74144259 ] } },
{ "type": "Feature", "properties": { "id": 265, "line_id": 53, "model": "/models/realistic_tree.glb", "base_m": 0, "top_m": 7.5, "size": 1, "rotation": 305 }, "geometry": { "type": "Point", "coordinates": [ 90.38441724, 23.74144438 ] } },
{ "type": "Feature", "properties": { "id": 266, "line_id": 53, "model": "/models/real_tree_models.glb", "base_m": 0, "top_m": 7.5, "size": 1, "rotation": 330 }, "geometry": { "type": "Point", "coordinates": [ 90.38448598, 23.74144616 ] } },
{ "type": "Feature", "properties": { "id": 267, "line_id": 53, "model": "/models/mango_tree.glb", "base_m": 0, "top_m": 7.5, "size": 1, "rotation": 296 }, "geometry": { "type": "Point", "coordinates": [ 90.38455473, 23.74144795 ] } },
{ "type": "Feature", "properties": { "id": 268, "line_id": 53, "model": "/models/realistic_tree.glb", "base_m": 0, "top_m": 7.5, "size": 1, "rotation": 176 }, "geometry": { "type": "Point", "coordinates": [ 90.38462347, 23.74144974 ] } },
{ "type": "Feature", "properties": { "id": 269, "line_id": 53, "model": "/models/mango_tree.glb", "base_m": 0, "top_m": 7.5, "size": 1, "rotation": 63 }, "geometry": { "type": "Point", "coordinates": [ 90.38469222, 23.74145153 ] } },
{ "type": "Feature", "properties": { "id": 270, "line_id": 53, "model": "/models/realistic_tree.glb", "base_m": 0, "top_m": 7.5, "size": 1, "rotation": 260 }, "geometry": { "type": "Point", "coordinates": [ 90.38476096, 23.74145332 ] } },
{ "type": "Feature", "properties": { "id": 271, "line_id": 55, "model": "/models/real_tree_models.glb", "base_m": 0, "top_m": 7.5, "size": 1, "rotation": 222 }, "geometry": { "type": "Point", "coordinates": [ 90.3872948, 23.74007062 ] } },
{ "type": "Feature", "properties": { "id": 272, "line_id": 55, "model": "/models/mango_tree.glb", "base_m": 0, "top_m": 7.5, "size": 1, "rotation": 45 }, "geometry": { "type": "Point", "coordinates": [ 90.38729291, 23.74013355 ] } },
{ "type": "Feature", "properties": { "id": 273, "line_id": 55, "model": "/models/realistic_tree.glb", "base_m": 0, "top_m": 7.5, "size": 1, "rotation": 20 }, "geometry": { "type": "Point", "coordinates": [ 90.38729102, 23.74019647 ] } },
{ "type": "Feature", "properties": { "id": 274, "line_id": 55, "model": "/models/real_tree_models.glb", "base_m": 0, "top_m": 7.5, "size": 1, "rotation": 192 }, "geometry": { "type": "Point", "coordinates": [ 90.38728913, 23.7402594 ] } },
{ "type": "Feature", "properties": { "id": 275, "line_id": 55, "model": "/models/realistic_tree.glb", "base_m": 0, "top_m": 7.5, "size": 1, "rotation": 354 }, "geometry": { "type": "Point", "coordinates": [ 90.38728724, 23.74032233 ] } },
{ "type": "Feature", "properties": { "id": 276, "line_id": 55, "model": "/models/real_tree_models.glb", "base_m": 0, "top_m": 7.5, "size": 1, "rotation": 259 }, "geometry": { "type": "Point", "coordinates": [ 90.38728535, 23.74038526 ] } },
{ "type": "Feature", "properties": { "id": 277, "line_id": 55, "model": "/models/realistic_tree.glb", "base_m": 0, "top_m": 7.5, "size": 1, "rotation": 349 }, "geometry": { "type": "Point", "coordinates": [ 90.38728346, 23.74044819 ] } }
]
}
