{
"type": "FeatureCollection",
"name": "corridor",
"crs": {"type":"name","properties":{"name":"urn:ogc:def:crs:OGC:1.3:CRS84"}},
"features": [
{"type":"Feature","properties":{"id":1,"name":"Corridor","class":"corridor"},"geometry":{"type":"Polygon","coordinates":[[[90.40243543,24.22154965],[90.40310575,24.22168047],[90.40309956,24.22170685],[90.40242924,24.22157603],[90.40243543,24.22154965]]]}},
{"type":"Feature","properties":{"id":2,"name":"Lift lobby","class":"lobby"},"geometry":{"type":"Polygon","coordinates":[[[90.4027644,24.22164144],[90.40284819,24.22165779],[90.40284117,24.22168769],[90.40275738,24.22167134],[90.4027644,24.22164144]]]}}
]
}
