{
"type": "FeatureCollection",
"name": "shops",
"crs": {"type":"name","properties":{"name":"urn:ogc:def:crs:OGC:1.3:CRS84"}},
"features": [
{"type":"Feature","properties":{"id":"L01-01","name":"Reception","class":"reception","room_number":"101"},"geometry":{"type":"Polygon","coordinates":[[[90.40230095,24.221502],[90.40225202,24.22149246],[90.40223842,24.22155043],[90.40228735,24.22155998],[90.40230095,24.221502]]]}},
{"type":"Feature","properties":{"id":"L01-02","name":"Canteen","class":"food","room_number":"102"},"geometry":{"type":"Polygon","coordinates":[[[90.40231951,24.22142292],[90.40227058,24.22141337],[90.40225698,24.22147135],[90.4023059,24.2214809],[90.40231951,24.22142292]]]}},
{"type":"Feature","properties":{"id":"L01-03","name":"Prayer Room","class":"prayer","room_number":"103"},"geometry":{"type":"Polygon","coordinates":[[[90.40225202,24.22149246],[90.4022031,24.22148291],[90.4021895,24.22154089],[90.40223842,24.22155043],[90.40225202,24.22149246]]]}},
{"type":"Feature","properties":{"id":"L01-04","name":"Records Room","class":"store","room_number":"104"},"geometry":{"type":"Polygon","coordinates":[[[90.40227058,24.22141337],[90.40222166,24.22140383],[90.40220805,24.2214618],[90.40225698,24.22147135],[90.40227058,24.22141337]]]}},
{"type":"Feature","properties":{"id":"L01-05","name":"Office 105","class":"office","room_number":"105"},"geometry":{"type":"Polygon","coordinates":[[[90.4022031,24.22148291],[90.40215418,24.22147336],[90.40214057,24.22153134],[90.4021895,24.22154089],[90.4022031,24.22148291]]]}},
{"type":"Feature","properties":{"id":"L01-06","name":"Office 106","class":"office","room_number":"106"},"geometry":{"type":"Polygon","coordinates":[[[90.40222166,24.22140383],[90.40217273,24.22139428],[90.40215913,24.22145226],[90.40220805,24.2214618],[90.40222166,24.22140383]]]}},
{"type":"Feature","properties":{"id":"L01-07","name":"Store","class":"store","room_number":"107"},"geometry":{"type":"Polygon","coordinates":[[[90.40214737,24.22150235],[90.40209845,24.2214928],[90.40209165,24.22152179],[90.40214057,24.22153134],[90.40214737,24.22150235]]]}},
{"type":"Feature","properties":{"id":"L01-08","name":"Office 108","class":"office","room_number":"108"},"geometry":{"type":"Polygon","coordinates":[[[90.40210525,24.22146381],[90.40205633,24.22145427],[90.40204272,24.22151224],[90.40209165,24.22152179],[90.40210525,24.22146381]]]}},
{"type":"Feature","properties":{"id":"L01-09","name":"Office 109","class":"office","room_number":"109"},"geometry":{"type":"Polygon","coordinates":[[[90.40212381,24.22138473],[90.40207488,24.22137518],[90.40206128,24.22143316],[90.4021102,24.22144271],[90.40212381,24.22138473]]]}},
{"type":"Feature","properties":{"id":"L01-10","name":"Office 110","class":"office","room_number":"110"},"geometry":{"type":"Polygon","coordinates":[[[90.40205633,24.22145427],[90.4020074,24.22144472],[90.4019938,24.2215027],[90.40204272,24.22151224],[90.40205633,24.22145427]]]}},
{"type":"Feature","properties":{"id":"L01-11","name":"Office 111","class":"office","room_number":"111"},"geometry":{"type":"Polygon","coordinates":[[[90.40207488,24.22137518],[90.40202596,24.22136564],[90.40201236,24.22142361],[90.40206128,24.22143316],[90.40207488,24.22137518]]]}},
{"type":"Feature","properties":{"id":"L01-12","name":"Washroom","class":"toilet","room_number":"112"},"geometry":{"type":"Polygon","coordinates":[[[90.4020074,24.22144472],[90.40195848,24.22143517],[90.40194487,24.22149315],[90.4019938,24.2215027],[90.4020074,24.22144472]]]}},
{"type":"Feature","properties":{"id":"L01-13","name":"Office 113","class":"office","room_number":"113"},"geometry":{"type":"Polygon","coordinates":[[[90.40202596,24.22136564],[90.40197703,24.22135609],[90.40196343,24.22141407],[90.40201236,24.22142361],[90.40202596,24.22136564]]]}}
]
}
