{
"type": "FeatureCollection",
"name": "shops",
"crs": {"type":"name","properties":{"name":"urn:ogc:def:crs:OGC:1.3:CRS84"}},
"features": [
{"type":"Feature","properties":{"id":"L03-01","name":"Production Hall 301","class":"production","room_number":"301"},"geometry":{"type":"Polygon","coordinates":[[[90.40242924,24.22157603],[90.40251303,24.22159239],[90.40248967,24.22169193],[90.40240588,24.22167558],[90.40242924,24.22157603]]]}},
{"type":"Feature","properties":{"id":"L03-02","name":"Production Hall 302","class":"production","room_number":"302"},"geometry":{"type":"Polygon","coordinates":[[[90.40245878,24.22145011],[90.40254258,24.22146646],[90.40251922,24.221566],[90.40243543,24.22154965],[90.40245878,24.22145011]]]}},
{"type":"Feature","properties":{"id":"L03-03","name":"Production Hall 303","class":"production","room_number":"303"},"geometry":{"type":"Polygon","coordinates":[[[90.40251303,24.22159239],[90.40259682,24.22160874],[90.40257346,24.22170828],[90.40248967,24.22169193],[90.40251303,24.22159239]]]}},
{"type":"Feature","properties":{"id":"L03-04","name":"Production Hall 304","class":"production","room_number":"304"},"geometry":{"type":"Polygon","coordinates":[[[90.40254258,24.22146646],[90.40262637,24.22148281],[90.40260301,24.22158236],[90.40251922,24.221566],[90.40254258,24.22146646]]]}},
{"type":"Feature","properties":{"id":"L03-05","name":"Production Hall 305","class":"production","room_number":"305"},"geometry":{"type":"Polygon","coordinates":[[[90.40259682,24.22160874],[90.40268061,24.22162509],[90.40265725,24.22172463],[90.40257346,24.22170828],[90.40259682,24.22160874]]]}},
{"type":"Feature","properties":{"id":"L03-06","name":"Production Hall 306","class":"production","room_number":"306"},"geometry":{"type":"Polygon","coordinates":[[[90.40262637,24.22148281],[90.40271016,24.22149916],[90.4026868,24.22159871],[90.40260301,24.22158236],[90.40262637,24.22148281]]]}},
{"type":"Feature","properties":{"id":"L03-07","name":"Production Hall 307","class":"production","room_number":"307"},"geometry":{"type":"Polygon","coordinates":[[[90.40268061,24.22162509],[90.4027644,24.22164144],[90.40274104,24.22174098],[90.40265725,24.22172463],[90.40268061,24.22162509]]]}},
{"type":"Feature","properties":{"id":"L03-08","name":"Production Hall 308","class":"production","room_number":"308"},"geometry":{"type":"Polygon","coordinates":[[[90.40271016,24.22149916],[90.40279395,24.22151552],[90.40277059,24.22161506],[90.4026868,24.22159871],[90.40271016,24.22149916]]]}},
{"type":"Feature","properties":{"id":"L03-09","name":"Store","class":"store","room_number":"309"},"geometry":{"type":"Polygon","coordinates":[[[90.40275738,24.22167134],[90.40284117,24.22168769],[90.40282483,24.22175734],[90.40274104,24.22174098],[90.40275738,24.22167134]]]}},
{"type":"Feature","properties":{"id":"L03-10","name":"Production Hall 310","class":"production","room_number":"310"},"geometry":{"type":"Polygon","coordinates":[[[90.40279395,24.22151552],[90.40287774,24.22153187],[90.40285438,24.22163141],[90.40277059,24.22161506],[90.40279395,24.22151552]]]}},
{"type":"Feature","properties":{"id":"L03-11","name":"Production Hall 311","class":"production","room_number":"311"},"geometry":{"type":"Polygon","coordinates":[[[90.40284819,24.22165779],[90.40293198,24.22167414],[90.40290862,24.22177369],[90.40282483,24.22175734],[90.40284819,24.22165779]]]}},
{"type":"Feature","properties":{"id":"L03-12","name":"Production Hall 312","class":"production","room_number":"312"},"geometry":{"type":"Polygon","coordinates":[[[90.40287774,24.22153187],[90.40296153,24.22154822],[90.40293817,24.22164776],[90.40285438,24.22163141],[90.40287774,24.22153187]]]}},
{"type":"Feature","properties":{"id":"L03-13","name":"Production Hall 313","class":"production","room_number":"313"},"geometry":{"type":"Polygon","coordinates":[[[90.40293198,24.22167414],[90.40301577,24.2216905],[90.40299241,24.22179004],[90.40290862,24.22177369],[90.40293198,24.22167414]]]}},
{"type":"Feature","properties":{"id":"L03-14","name":"Production Hall 314","class":"production","room_number":"314"},"geometry":{"type":"Polygon","coordinates":[[[90.40296153,24.22154822],[90.40304532,24.22156457],[90.40302196,24.22166411],[90.40293817,24.22164776],[90.40296153,24.22154822]]]}},
{"type":"Feature","properties":{"id":"L03-15","name":"Washroom","class":"toilet","room_number":"315"},"geometry":{"type":"Polygon","coordinates":[[[90.40301577,24.2216905],[90.40309956,24.22170685],[90.40307621,24.22180639],[90.40299241,24.22179004],[90.40301577,24.2216905]]]}},
{"type":"Feature","properties":{"id":"L03-16","name":"Production Hall 316","class":"production","room_number":"316"},"geometry":{"type":"Polygon","coordinates":[[[90.40304532,24.22156457],[90.40312911,24.22158092],[90.40310575,24.22168047],[90.40302196,24.22166411],[90.40304532,24.22156457]]]}}
]
}
