{
"type": "FeatureCollection",
"name": "shops",
"crs": {"type":"name","properties":{"name":"urn:ogc:def:crs:OGC:1.3:CRS84"}},
"features": [
{"type":"Feature","properties":{"id":"L05-01","name":"Production Hall 501","class":"production","room_number":"501"},"geometry":{"type":"Polygon","coordinates":[[[90.40242924,24.22157603],[90.40251303,24.22159239],[90.40248967,24.22169193],[90.40240588,24.22167558],[90.40242924,24.22157603]]]}},
{"type":"Feature","properties":{"id":"L05-02","name":"Production Hall 502","class":"production","room_number":"502"},"geometry":{"type":"Polygon","coordinates":[[[90.40245878,24.22145011],[90.40254258,24.22146646],[90.40251922,24.221566],[90.40243543,24.22154965],[90.40245878,24.22145011]]]}},
{"type":"Feature","properties":{"id":"L05-03","name":"Production Hall 503","class":"production","room_number":"503"},"geometry":{"type":"Polygon","coordinates":[[[90.40251303,24.22159239],[90.40259682,24.22160874],[90.40257346,24.22170828],[90.40248967,24.22169193],[90.40251303,24.22159239]]]}},
{"type":"Feature","properties":{"id":"L05-04","name":"Production Hall 504","class":"production","room_number":"504"},"geometry":{"type":"Polygon","coordinates":[[[90.40254258,24.22146646],[90.40262637,24.22148281],[90.40260301,24.22158236],[90.40251922,24.221566],[90.40254258,24.22146646]]]}},
{"type":"Feature","properties":{"id":"L05-05","name":"Production Hall 505","class":"production","room_number":"505"},"geometry":{"type":"Polygon","coordinates":[[[90.40259682,24.22160874],[90.40268061,24.22162509],[90.40265725,24.22172463],[90.40257346,24.22170828],[90.40259682,24.22160874]]]}},
{"type":"Feature","properties":{"id":"L05-06","name":"Production Hall 506","class":"production","room_number":"506"},"geometry":{"type":"Polygon","coordinates":[[[90.40262637,24.22148281],[90.40271016,24.22149916],[90.4026868,24.22159871],[90.40260301,24.22158236],[90.40262637,24.22148281]]]}},
{"type":"Feature","properties":{"id":"L05-07","name":"Production Hall 507","class":"production","room_number":"507"},"geometry":{"type":"Polygon","coordinates":[[[90.40268061,24.22162509],[90.4027644,24.22164144],[90.40274104,24.22174098],[90.40265725,24.22172463],[90.40268061,24.22162509]]]}},
{"type":"Feature","properties":{"id":"L05-08","name":"Production Hall 508","class":"production","room_number":"508"},"geometry":{"type":"Polygon","coordinates":[[[90.40271016,24.22149916],[90.40279395,24.22151552],[90.40277059,24.22161506],[90.4026868,24.22159871],[90.40271016,24.22149916]]]}},
{"type":"Feature","properties":{"id":"L05-09","name":"Store","class":"store","room_number":"509"},"geometry":{"type":"Polygon","coordinates":[[[90.40275738,24.22167134],[90.40284117,24.22168769],[90.40282483,24.22175734],[90.40274104,24.22174098],[90.40275738,24.22167134]]]}},
{"type":"Feature","properties":{"id":"L05-10","name":"Production Hall 510","class":"production","room_number":"510"},"geometry":{"type":"Polygon","coordinates":[[[90.40279395,24.22151552],[90.40287774,24.22153187],[90.40285438,24.22163141],[90.40277059,24.22161506],[90.40279395,24.22151552]]]}},
{"type":"Feature","properties":{"id":"L05-11","name":"Production Hall 511","class":"production","room_number":"511"},"geometry":{"type":"Polygon","coordinates":[[[90.40284819,24.22165779],[90.40293198,24.22167414],[90.40290862,24.22177369],[90.40282483,24.22175734],[90.40284819,24.22165779]]]}},
{"type":"Feature","properties":{"id":"L05-12","name":"Production Hall 512","class":"production","room_number":"512"},"geometry":{"type":"Polygon","coordinates":[[[90.40287774,24.22153187],[90.40296153,24.22154822],[90.40293817,24.22164776],[90.40285438,24.22163141],[90.40287774,24.22153187]]]}},
{"type":"Feature","properties":{"id":"L05-13","name":"Production Hall 513","class":"production","room_number":"513"},"geometry":{"type":"Polygon","coordinates":[[[90.40293198,24.22167414],[90.40301577,24.2216905],[90.40299241,24.22179004],[90.40290862,24.22177369],[90.40293198,24.22167414]]]}},
{"type":"Feature","properties":{"id":"L05-14","name":"Production Hall 514","class":"production","room_number":"514"},"geometry":{"type":"Polygon","coordinates":[[[90.40296153,24.22154822],[90.40304532,24.22156457],[90.40302196,24.22166411],[90.40293817,24.22164776],[90.40296153,24.22154822]]]}},
{"type":"Feature","properties":{"id":"L05-15","name":"Washroom","class":"toilet","room_number":"515"},"geometry":{"type":"Polygon","coordinates":[[[90.40301577,24.2216905],[90.40309956,24.22170685],[90.40307621,24.22180639],[90.40299241,24.22179004],[90.40301577,24.2216905]]]}},
{"type":"Feature","properties":{"id":"L05-16","name":"Production Hall 516","class":"production","room_number":"516"},"geometry":{"type":"Polygon","coordinates":[[[90.40304532,24.22156457],[90.40312911,24.22158092],[90.40310575,24.22168047],[90.40302196,24.22166411],[90.40304532,24.22156457]]]}}
]
}
