{
"type": "FeatureCollection",
"name": "pois",
"crs": {"type":"name","properties":{"name":"urn:ogc:def:crs:OGC:1.3:CRS84"}},
"features": [
{"type":"Feature","properties":{"id":"lift-a","name":"Lift A","class":"lift"},"geometry":{"type":"Point","coordinates":[90.403779,24.22134929]}},
{"type":"Feature","properties":{"id":"stair-1","name":"Stair 1","class":"stairs"},"geometry":{"type":"Point","coordinates":[90.40374072,24.22134182]}},
{"type":"Feature","properties":{"id":"stair-2","name":"Stair 2","class":"stairs"},"geometry":{"type":"Point","coordinates":[90.40407201,24.22143902]}}
]
}
