{
"type": "FeatureCollection",
"name": "shops",
"crs": {"type":"name","properties":{"name":"urn:ogc:def:crs:OGC:1.3:CRS84"}},
"features": [
{"type":"Feature","properties":{"id":"L02-01","name":"Seminar Room","class":"meeting","room_number":"201"},"geometry":{"type":"Polygon","coordinates":[[[90.40409053,24.22142884],[90.40399485,24.22141017],[90.40402236,24.22129294],[90.40411804,24.22131161],[90.40409053,24.22142884]]]}},
{"type":"Feature","properties":{"id":"L02-02","name":"Laboratory 202","class":"lab","room_number":"202"},"geometry":{"type":"Polygon","coordinates":[[[90.40405684,24.22157245],[90.40396115,24.22155378],[90.40398866,24.22143655],[90.40408434,24.22145522],[90.40405684,24.22157245]]]}},
{"type":"Feature","properties":{"id":"L02-03","name":"Laboratory 203","class":"lab","room_number":"203"},"geometry":{"type":"Polygon","coordinates":[[[90.40399485,24.22141017],[90.40389917,24.2213915],[90.40392668,24.22127427],[90.40402236,24.22129294],[90.40399485,24.22141017]]]}},
{"type":"Feature","properties":{"id":"L02-04","name":"Laboratory 204","class":"lab","room_number":"204"},"geometry":{"type":"Polygon","coordinates":[[[90.40396115,24.22155378],[90.40386547,24.22153511],[90.40389298,24.22141788],[90.40398866,24.22143655],[90.40396115,24.22155378]]]}},
{"type":"Feature","properties":{"id":"L02-05","name":"Laboratory 205","class":"lab","room_number":"205"},"geometry":{"type":"Polygon","coordinates":[[[90.40389917,24.2213915],[90.40380349,24.22137283],[90.403831,24.2212556],[90.40392668,24.22127427],[90.40389917,24.2213915]]]}},
{"type":"Feature","properties":{"id":"L02-06","name":"Laboratory 206","class":"lab","room_number":"206"},"geometry":{"type":"Polygon","coordinates":[[[90.40386547,24.22153511],[90.40376979,24.22151644],[90.4037973,24.22139921],[90.40389298,24.22141788],[90.40386547,24.22153511]]]}},
{"type":"Feature","properties":{"id":"L02-07","name":"Store","class":"store","room_number":"207"},"geometry":{"type":"Polygon","coordinates":[[[90.40381051,24.22134293],[90.40371483,24.22132426],[90.40373532,24.22123693],[90.403831,24.2212556],[90.40381051,24.22134293]]]}},
{"type":"Feature","properties":{"id":"L02-08","name":"Laboratory 208","class":"lab","room_number":"208"},"geometry":{"type":"Polygon","coordinates":[[[90.40376979,24.22151644],[90.40367411,24.22149777],[90.40370162,24.22138054],[90.4037973,24.22139921],[90.40376979,24.22151644]]]}},
{"type":"Feature","properties":{"id":"L02-09","name":"Laboratory 209","class":"lab","room_number":"209"},"geometry":{"type":"Polygon","coordinates":[[[90.40370781,24.22135416],[90.40361213,24.22133549],[90.40363964,24.22121826],[90.40373532,24.22123693],[90.40370781,24.22135416]]]}},
{"type":"Feature","properties":{"id":"L02-10","name":"Laboratory 210","class":"lab","room_number":"210"},"geometry":{"type":"Polygon","coordinates":[[[90.40367411,24.22149777],[90.40357843,24.2214791],[90.40360594,24.22136187],[90.40370162,24.22138054],[90.40367411,24.22149777]]]}},
{"type":"Feature","properties":{"id":"L02-11","name":"Washroom","class":"toilet","room_number":"211"},"geometry":{"type":"Polygon","coordinates":[[[90.40361213,24.22133549],[90.40351645,24.22131682],[90.40354395,24.22119959],[90.40363964,24.22121826],[90.40361213,24.22133549]]]}},
{"type":"Feature","properties":{"id":"L02-12","name":"Laboratory 212","class":"lab","room_number":"212"},"geometry":{"type":"Polygon","coordinates":[[[90.40357843,24.2214791],[90.40348275,24.22146043],[90.40351026,24.2213432],[90.40360594,24.22136187],[90.40357843,24.2214791]]]}}
]
}
