{
"type": "FeatureCollection",
"name": "shops",
"crs": {"type":"name","properties":{"name":"urn:ogc:def:crs:OGC:1.3:CRS84"}},
"features": [
{"type":"Feature","properties":{"id":"L02-01","name":"Production Hall 201","class":"production","room_number":"201"},"geometry":{"type":"Polygon","coordinates":[[[90.40341617,24.22175015],[90.40348438,24.22176346],[90.40346517,24.22184532],[90.40339696,24.22183201],[90.40341617,24.22175015]]]}},
{"type":"Feature","properties":{"id":"L02-02","name":"Production Hall 202","class":"production","room_number":"202"},"geometry":{"type":"Polygon","coordinates":[[[90.40344156,24.2216419],[90.40350978,24.22165521],[90.40349057,24.22173707],[90.40342236,24.22172376],[90.40344156,24.2216419]]]}},
{"type":"Feature","properties":{"id":"L02-03","name":"Production Hall 203","class":"production","room_number":"203"},"geometry":{"type":"Polygon","coordinates":[[[90.40348438,24.22176346],[90.4035526,24.22177677],[90.40353339,24.22185863],[90.40346517,24.22184532],[90.40348438,24.22176346]]]}},
{"type":"Feature","properties":{"id":"L02-04","name":"Production Hall 204","class":"production","room_number":"204"},"geometry":{"type":"Polygon","coordinates":[[[90.40350978,24.22165521],[90.403578,24.22166852],[90.40355879,24.22175039],[90.40349057,24.22173707],[90.40350978,24.22165521]]]}},
{"type":"Feature","properties":{"id":"L02-05","name":"Production Hall 205","class":"production","room_number":"205"},"geometry":{"type":"Polygon","coordinates":[[[90.4035526,24.22177677],[90.40362081,24.22179008],[90.4036016,24.22187194],[90.40353339,24.22185863],[90.4035526,24.22177677]]]}},
{"type":"Feature","properties":{"id":"L02-06","name":"Production Hall 206","class":"production","room_number":"206"},"geometry":{"type":"Polygon","coordinates":[[[90.403578,24.22166852],[90.40364621,24.22168183],[90.403627,24.2217637],[90.40355879,24.22175039],[90.403578,24.22166852]]]}},
{"type":"Feature","properties":{"id":"L02-07","name":"Store","class":"store","room_number":"207"},"geometry":{"type":"Polygon","coordinates":[[[90.4036138,24.22181998],[90.40368201,24.22183329],[90.40366982,24.22188526],[90.4036016,24.22187194],[90.4036138,24.22181998]]]}},
{"type":"Feature","properties":{"id":"L02-08","name":"Production Hall 208","class":"production","room_number":"208"},"geometry":{"type":"Polygon","coordinates":[[[90.40364621,24.22168183],[90.40371443,24.22169515],[90.40369522,24.22177701],[90.403627,24.2217637],[90.40364621,24.22168183]]]}},
{"type":"Feature","properties":{"id":"L02-09","name":"Production Hall 209","class":"production","room_number":"209"},"geometry":{"type":"Polygon","coordinates":[[[90.40368903,24.22180339],[90.40375724,24.2218167],[90.40373803,24.22189857],[90.40366982,24.22188526],[90.40368903,24.22180339]]]}},
{"type":"Feature","properties":{"id":"L02-10","name":"Production Hall 210","class":"production","room_number":"210"},"geometry":{"type":"Polygon","coordinates":[[[90.40371443,24.22169515],[90.40378264,24.22170846],[90.40376343,24.22179032],[90.40369522,24.22177701],[90.40371443,24.22169515]]]}},
{"type":"Feature","properties":{"id":"L02-11","name":"Production Hall 211","class":"production","room_number":"211"},"geometry":{"type":"Polygon","coordinates":[[[90.40375724,24.2218167],[90.40382546,24.22183002],[90.40380625,24.22191188],[90.40373803,24.22189857],[90.40375724,24.2218167]]]}},
{"type":"Feature","properties":{"id":"L02-12","name":"Production Hall 212","class":"production","room_number":"212"},"geometry":{"type":"Polygon","coordinates":[[[90.40378264,24.22170846],[90.40385086,24.22172177],[90.40383165,24.22180363],[90.40376343,24.22179032],[90.40378264,24.22170846]]]}},
{"type":"Feature","properties":{"id":"L02-13","name":"Washroom","class":"toilet","room_number":"213"},"geometry":{"type":"Polygon","coordinates":[[[90.40382546,24.22183002],[90.40389367,24.22184333],[90.40387447,24.22192519],[90.40380625,24.22191188],[90.40382546,24.22183002]]]}},
{"type":"Feature","properties":{"id":"L02-14","name":"Production Hall 214","class":"production","room_number":"214"},"geometry":{"type":"Polygon","coordinates":[[[90.40385086,24.22172177],[90.40391907,24.22173508],[90.40389986,24.22181694],[90.40383165,24.22180363],[90.40385086,24.22172177]]]}}
]
}
