{
"type": "FeatureCollection",
"name": "walls",
"crs": {"type":"name","properties":{"name":"urn:ogc:def:crs:OGC:1.3:CRS84"}},
"features": [
{"type":"Feature","properties":{"id":1,"kind":"partition"},"geometry":{"type":"LineString","coordinates":[[90.40214159,24.22105775],[90.40216702,24.22094937]]}},
{"type":"Feature","properties":{"id":2,"kind":"partition"},"geometry":{"type":"LineString","coordinates":[[90.40210997,24.22119252],[90.4021354,24.22108414]]}},
{"type":"Feature","properties":{"id":3,"kind":"partition"},"geometry":{"type":"LineString","coordinates":[[90.40224029,24.22104575],[90.40228131,24.22105375]]}},
{"type":"Feature","properties":{"id":4,"kind":"partition"},"geometry":{"type":"LineString","coordinates":[[90.40229095,24.22105563],[90.40233197,24.22106364]]}},
{"type":"Feature","properties":{"id":5,"kind":"partition"},"geometry":{"type":"LineString","coordinates":[[90.40223327,24.22107565],[90.4022587,24.22096726]]}},
{"type":"Feature","properties":{"id":6,"kind":"partition"},"geometry":{"type":"LineString","coordinates":[[90.40220165,24.22121041],[90.40222708,24.22110203]]}},
{"type":"Feature","properties":{"id":7,"kind":"partition"},"geometry":{"type":"LineString","coordinates":[[90.40232495,24.22109354],[90.40235038,24.22098516]]}},
{"type":"Feature","properties":{"id":8,"kind":"partition"},"geometry":{"type":"LineString","coordinates":[[90.40229333,24.22122831],[90.40231876,24.22111992]]}},
{"type":"Feature","properties":{"id":9,"kind":"partition"},"geometry":{"type":"LineString","coordinates":[[90.40241663,24.22111143],[90.40244206,24.22100305]]}},
{"type":"Feature","properties":{"id":10,"kind":"partition"},"geometry":{"type":"LineString","coordinates":[[90.40238501,24.2212462],[90.40241044,24.22113782]]}},
{"type":"Feature","properties":{"id":11,"kind":"corridor"},"geometry":{"type":"LineString","coordinates":[[90.40204991,24.22103986],[90.40209093,24.22104787]]}},
{"type":"Feature","properties":{"id":12,"kind":"corridor"},"geometry":{"type":"LineString","coordinates":[[90.40210057,24.22104975],[90.40218261,24.22106576]]}},
{"type":"Feature","properties":{"id":13,"kind":"corridor"},"geometry":{"type":"LineString","coordinates":[[90.40219225,24.22106764],[90.40223327,24.22107565]]}},
{"type":"Feature","properties":{"id":14,"kind":"corridor"},"geometry":{"type":"LineString","coordinates":[[90.40232495,24.22109354],[90.40236597,24.22110155]]}},
{"type":"Feature","properties":{"id":15,"kind":"corridor"},"geometry":{"type":"LineString","coordinates":[[90.40237561,24.22110343],[90.40245765,24.22111944]]}},
{"type":"Feature","properties":{"id":16,"kind":"corridor"},"geometry":{"type":"LineString","coordinates":[[90.40246729,24.22112132],[90.40250831,24.22112933]]}},
{"type":"Feature","properties":{"id":17,"kind":"corridor"},"geometry":{"type":"LineString","coordinates":[[90.40204372,24.22106624],[90.40208474,24.22107425]]}},
{"type":"Feature","properties":{"id":18,"kind":"corridor"},"geometry":{"type":"LineString","coordinates":[[90.40209438,24.22107613],[90.40217642,24.22109214]]}},
{"type":"Feature","properties":{"id":19,"kind":"corridor"},"geometry":{"type":"LineString","coordinates":[[90.40218606,24.22109402],[90.4022681,24.22111004]]}},
{"type":"Feature","properties":{"id":20,"kind":"corridor"},"geometry":{"type":"LineString","coordinates":[[90.40227774,24.22111192],[90.40235978,24.22112793]]}},
{"type":"Feature","properties":{"id":21,"kind":"corridor"},"geometry":{"type":"LineString","coordinates":[[90.40236942,24.22112981],[90.40245146,24.22114582]]}},
{"type":"Feature","properties":{"id":22,"kind":"corridor"},"geometry":{"type":"LineString","coordinates":[[90.4024611,24.2211477],[90.40250212,24.22115571]]}},
{"type":"Feature","properties":{"id":23,"kind":"outer"},"geometry":{"type":"LineString","coordinates":[[90.40201829,24.22117463],[90.40247669,24.22126409]]}},
{"type":"Feature","properties":{"id":24,"kind":"outer"},"geometry":{"type":"LineString","coordinates":[[90.40207534,24.22093148],[90.40253374,24.22102094]]}},
{"type":"Feature","properties":{"id":25,"kind":"outer"},"geometry":{"type":"LineString","coordinates":[[90.40201829,24.22117463],[90.40207534,24.22093148]]}},
{"type":"Feature","properties":{"id":26,"kind":"outer"},"geometry":{"type":"LineString","coordinates":[[90.40247669,24.22126409],[90.40253374,24.22102094]]}}
]
}
