{
"type": "FeatureCollection",
"name": "BCSIRBoundary",
"crs": {"type":"name","properties":{"name":"urn:ogc:def:crs:OGC:1.3:CRS84"}},
"features": [
{ "type": "Feature", "properties": { "id": 1, "base_m": 0, "top_m": 5, "thickness_m": 2.35, "color": "#C7C7C7", "fill_color": "#FFFFE6" }, "geometry": {"type":"MultiPolygon","coordinates":[[[[90.38378725200397,23.741474712775165],[90.383828012861571,23.741475683410105],[90.383938649475027,23.741478317990595],[90.384101692905389,23.741482200530132],[90.384299674213722,23.741486915042298],[90.384515124460989,23.741492045540635],[90.384730574708286,23.741497176038767],[90.38492855601659,23.741501890550389],[90.385091599446966,23.741505773089269],[90.385202236060465,23.741508407669176],[90.385242996918095,23.741509378303903],[90.385256299453602,23.741511928247281],[90.385292420896349,23.741518783677293],[90.385345589912802,23.741529000088025],[90.385410237224434,23.741541910136746],[90.385480223278037,23.741555014321545],[90.385549536814807,23.741567892280692],[90.38561551086363,23.74158048575703],[90.385668189178148,23.741590541272213],[90.385706003528654,23.74159335619559],[90.38571920478158,23.741594229807937],[90.385723122927928,23.741579398269298],[90.385733757896517,23.741539141227339],[90.385749430481766,23.741479815037561],[90.385768461478179,23.741407776056523],[90.385789171680159,23.741329380649525],[90.385809881882139,23.741250985195354],[90.385828912878537,23.74117894608775],[90.385844585463843,23.741119619733933],[90.385855220432433,23.741079362549875],[90.385859138578766,23.741064530952592],[90.385902543746411,23.741065025184824],[90.386020357772864,23.741066366672307],[90.386193978443401,23.741068343601199],[90.3864048035434,23.741070744157685],[90.386634230858078,23.741073356527924],[90.386863658172757,23.741075968898116],[90.387074483272727,23.741078369454449],[90.387248103943278,23.741080346383164],[90.387365917969674,23.74108168787048],[90.387409323137248,23.741082182102627],[90.387424689018616,23.741081449765087],[90.387466396410886,23.74107946199172],[90.387527859936284,23.741076532641429],[90.387602494217177,23.741072975573136],[90.387683713875774,23.741069104645774],[90.38776493353437,23.741065233718285],[90.387839567815263,23.741061676649693],[90.387901031340704,23.741058747299014],[90.387942738732946,23.741056759525318],[90.387958104614313,23.74105602718765],[90.387985534617428,23.741056213178172],[90.388059987482947,23.741056718009602],[90.388169707495251,23.741057461971703],[90.388302938938835,23.741058365354256],[90.38844792609801,23.741059348447028],[90.388592913257199,23.741060331539792],[90.388726144700726,23.741061234922313],[90.388835864713073,23.741061978884378],[90.388910317578549,23.741062483715755],[90.388937747581608,23.741062669706224],[90.388937772979816,23.741060507566477],[90.388937841917638,23.741054638901229],[90.388937943510143,23.741045990341419],[90.388938066872555,23.74103548851804],[90.388938201119828,23.74102406006222],[90.388938335367143,23.741012631605397],[90.388938458729584,23.741002129779318],[90.388938560322245,23.740993481216034],[90.388938629260224,23.740987612547762],[90.388938654658602,23.740985450406754],[90.388936876788037,23.7409854039091],[90.388932051139335,23.740985277701185],[90.388924939656974,23.740985091710559],[90.388916304285601,23.740984865864817],[90.388906906969694,23.740984620091496],[90.388897509653802,23.740984374318185],[90.388888874282458,23.740984148472421],[90.388881762800196,23.740983962481788],[90.388876937151537,23.740983836273848],[90.388875159281056,23.740983789776159],[90.388876200605253,23.740966074167613],[90.388879027056618,23.740917988932253],[90.38888319235329,23.740847126447768],[90.38888825021364,23.740761079093385],[90.388893754355749,23.740667439260786],[90.388899258497872,23.740573799360892],[90.388904316358222,23.74048775182597],[90.388908481655022,23.740416889107497],[90.388911308106429,23.740368803669455],[90.388912349430726,23.740351087977317],[90.388913292337094,23.74035109088344],[90.388915851654374,23.74035109877147],[90.388919623279762,23.740351110395913],[90.388924203110648,23.740351124511331],[90.388929187044269,23.740351139872221],[90.388934170977848,23.740351155233117],[90.38893875080872,23.740351169348532],[90.388942522434135,23.740351180973011],[90.388945081751373,23.740351188861073],[90.388946024657699,23.740351191767228],[90.388946265940149,23.740346326926147],[90.388946920849605,23.740333122356581],[90.388947885979306,23.740313662988431],[90.388949057922545,23.740290033751805],[90.388950333272518,23.740264319577651],[90.388951608622534,23.740238605398432],[90.388952780565774,23.740214976148163],[90.388953745695559,23.740195516762384],[90.388954400605044,23.74018231217752],[90.38895464188758,23.740177447330122],[90.388954959364455,23.740177447330115],[90.388955821087464,23.740177447330129],[90.388957090994992,23.740177447330137],[90.388958633025624,23.740177447330154],[90.388960311117756,23.740177447330176],[90.388961989209889,23.74017744733019],[90.388963531240478,23.74017744733019],[90.38896480114802,23.740177447330183],[90.388965662870973,23.740177447330158],[90.388965980347805,23.740177447330122],[90.388966335921936,23.740172274433654],[90.388967301051693,23.740158233713629],[90.388968723348128,23.740137542123456],[90.388970450422434,23.7401124166167],[90.388972329885618,23.740085074147952],[90.388974209348788,23.740057731673463],[90.388975936423066,23.740032606151306],[90.388977358719529,23.740011914541185],[90.388978323849244,23.739997873803869],[90.388978679423332,23.73999270090026],[90.38897819685846,23.739992666026762],[90.388976887039519,23.739992571370092],[90.388974956780004,23.739992431876036],[90.388972612893511,23.739992262490404],[90.388970062193522,23.739992078158977],[90.38896751149349,23.739991893827561],[90.388965167606983,23.739991724441939],[90.388963237347525,23.739991584947919],[90.388961927528598,23.739991490291278],[90.388961444963755,23.739991455417819],[90.388962156112001,23.739983388012615],[90.388964086371473,23.739961490767403],[90.38896693096433,23.739929221136162],[90.38897038511287,23.739890036573204],[90.388974144039182,23.739847394535413],[90.388977902965522,23.739804752483671],[90.388981357114034,23.739765567883261],[90.388984201706947,23.739733298203493],[90.388986131966419,23.739711400916228],[90.388986843114665,23.739703333493665],[90.388942574137474,23.739701613063435],[90.388822415485137,23.739696943324134],[90.388645339576328,23.739690061602726],[90.388430318829975,23.739681705226264],[90.388196325664794,23.739672611521851],[90.387962332499654,23.739663517816812],[90.387747311753245,23.739655161438616],[90.38757023584445,23.739648279715002],[90.387450077192028,23.739643609973751],[90.387405808214794,23.739641889542689],[90.387361018575504,23.739640680591158],[90.38723944669745,23.739637399151199],[90.387060288140276,23.73963256334477],[90.38684273846377,23.739626691293889],[90.386605993227519,23.739620301120556],[90.386369247991283,23.739613910946922],[90.386151698314706,23.739608038895202],[90.385972539757503,23.739603203087714],[90.385850967879364,23.739599921646832],[90.385806178239974,23.739598712694939],[90.385805273884387,23.739598440763782],[90.385802793936364,23.739597658183271],[90.385799088073981,23.739596414772848],[90.38579450597544,23.739594760351981],[90.38578939731876,23.739592744740062],[90.385784111782115,23.739590417756553],[90.385778999043609,23.739587829220874],[90.385774408781373,23.739585028952472],[90.385770690673453,23.739582066770801],[90.385768194398025,23.739578992495282],[90.385758813182761,23.739567141795543],[90.38573487474514,23.739535887034592],[90.385700033697645,23.739490086221501],[90.385657944652863,23.739434597366085],[90.385612262223219,23.739374278483307],[90.385566641021299,23.739313987596113],[90.38552473565953,23.739258582736205],[90.385490200750468,23.739212921943221],[90.385466690906625,23.739181863261951],[90.385457860740473,23.739170264737826],[90.385453779801878,23.739166924332814],[90.385443173352627,23.739158288102598],[90.385427679573425,23.739145686229996],[90.385408936645106,23.739130448897946],[90.385388582748362,23.739113906289717],[90.385368256063899,23.739097388589219],[90.385349594772435,23.739082225980994],[90.385334237054778,23.739069748650195],[90.385323821091575,23.739061286782349],[90.385319985063617,23.73905817056302],[90.385276097058693,23.73905339867035],[90.385156972473865,23.739040446389339],[90.384981420454096,23.739021358814952],[90.384768250144418,23.738998181042319],[90.38453627068975,23.738972958167405],[90.384304291235082,23.738947735287617],[90.38409112092539,23.738924557501889],[90.383915568905692,23.738905469910556],[90.383796444320893,23.738892517614868],[90.383752556315969,23.73888774571617],[90.383750651454633,23.738888135140311],[90.383745481116776,23.738889192148683],[90.383737861671491,23.738890749845226],[90.383728609488003,23.738892641333859],[90.38371854093532,23.738894699718514],[90.383708472382651,23.738896758103152],[90.383699220199091,23.738898649591697],[90.383691600753764,23.738900207288136],[90.383686430415793,23.73890126429643],[90.383684525554315,23.738901653720543],[90.383682595294886,23.738902287261237],[90.38367735601912,23.738904006871714],[90.383669634981132,23.73890654103446],[90.383660259435061,23.738909618232025],[90.383650056634863,23.738912966946941],[90.383639853834723,23.738916315661765],[90.383630478288666,23.738919392859085],[90.383622757250805,23.738921927021526],[90.383617517975168,23.738923646631712],[90.383615587715852,23.738924280172263],[90.383614965461163,23.738924919525154],[90.383613276484112,23.738926654911563],[90.383610787465315,23.738929212323054],[90.383607765085387,23.738932317751246],[90.383604476024857,23.738935697187717],[90.383601186964341,23.738939076624096],[90.383598164584356,23.738942182052043],[90.383595675565559,23.738944739463232],[90.38359398658848,23.73894647484936],[90.383593364333734,23.738947114202123],[90.383589300629609,23.73896394661605],[90.38357827057547,23.739009634585734],[90.383562015758756,23.739076964196059],[90.383542277767148,23.739158721533265],[90.383520798187988,23.73924769269485],[90.383499318608813,23.739336663795687],[90.383479580617177,23.739418420969908],[90.383463325800562,23.739485750368981],[90.383452295746451,23.739531438155673],[90.38344823204234,23.739548270494097],[90.383446619259772,23.739551048759701],[90.38344224170703,23.739558589766009],[90.383435790576613,23.739569702827122],[90.383427957061187,23.739583197257208],[90.383419432353207,23.739597882370717],[90.383410907645228,23.739612567482578],[90.383403074129788,23.739626061908243],[90.383396622999456,23.739637174963637],[90.383392245446728,23.739644715965007],[90.38339063266416,23.739647494228613],[90.383386803892918,23.739663472148944],[90.38337641151378,23.739706840779963],[90.383361096428672,23.739770752420402],[90.383342499539722,23.739848359370232],[90.383322261748731,23.739932813939564],[90.383302023957768,23.740017268454153],[90.383283427068761,23.74009487525711],[90.383268111983696,23.74015878670718],[90.383257719604572,23.740202155173275],[90.383253890833316,23.74021813302554],[90.383268824946128,23.740253317423477],[90.383309360395089,23.740348817884247],[90.383369096846167,23.740489555277758],[90.383441633965347,23.740660450479787],[90.383520571418586,23.740846424415484],[90.383599508871839,23.741032398085689],[90.383672045991034,23.741203292575577],[90.38373178244214,23.741344029045969],[90.383772317891129,23.741439528707136],[90.38378725200397,23.741474712775165]]]]} }
]
}
