{
"type": "FeatureCollection",
"name": "BuildingBoundary",
"crs": {"type":"name","properties":{"name":"urn:ogc:def:crs:OGC:1.3:CRS84"}},
"features": [
{ "type": "Feature", "properties": { "id": 101, "image_url": "101.jpg", "name_en": "Genomic Research Laboratories", "name_bn": "জিনোমিক গবেষণাগার", "name_en_short": null, "name_en_alias": null, "entrance_coords": [90.383763150022,23.739123029039074], "site_url": null, "color": "#FFECC2", "area": "office", "svg_type": 1, "labeling_priority": 10, "base_m": 0, "top_m": 12, "image": "/image/101.jpg" }, "geometry": {"type":"MultiPolygon","coordinates":[[[[90.38359711695755,23.73923791027211],[90.38397419349555,23.739312675447753],[90.38400321721737,23.73918776978772],[90.38362798195652,23.73910847283342],[90.38359711695755,23.73923791027211]]]]} },
{ "type": "Feature", "properties": { "id": 102, "image_url": "102.jpg", "name_en": "Institute of National Analytical Research & Services", "name_bn": "জাতীয় বিশ্লেষণমূলক গবেষণা ও সেবা ইনস্টিটিউট", "name_en_short": "INARS", "name_en_alias": null, "entrance_coords": [90.38385505002334,23.73952054], "site_url": "https://inars.bcsir.gov.bd/", "color": "#E0E4FF", "area": "office", "svg_type": 1, "labeling_priority": 10, "base_m": 0, "top_m": 18, "image": null }, "geometry": {"type":"MultiPolygon","coordinates":[[[[90.38358753656881,23.739295962688583],[90.3835579263651,23.739450660176512],[90.38392877261275,23.739520274595954],[90.38396018939301,23.739366972470037],[90.38358753656881,23.739295962688583]]]]} },
{ "type": "Feature", "properties": { "id": 103, "image_url": "103.jpg", "name_en": "Innovation Gallery", "name_bn": "ইনোভেশন গ্যালারি", "name_en_short": null, "name_en_alias": "Chemical Storage", "entrance_coords": [90.3849738579337,23.73998976158897], "site_url": null, "color": "#F1CFFF", "area": "office", "svg_type": 1, "labeling_priority": 1, "base_m": 0, "top_m": 3, "image": null }, "geometry": {"type":"MultiPolygon","coordinates":[[[[90.38490363,23.739989938],[90.385052727,23.740021388],[90.384927801,23.740530201],[90.384781179,23.740500492],[90.38490363,23.739989938]]]]} },
{ "type": "Feature", "properties": { "id": 104, "image_url": "104.jpg", "name_en": "Pilot Plant & Process Development Centre", "name_bn": "পাইলট প্লান্ট ও প্রসেস ডেভেলপমেন্ট সেন্টার", "name_en_short": "PPPDC", "name_en_alias": "PP&PDC", "entrance_coords": [90.3854262349802,23.740896607929255], "site_url": "https://pppdc.bcsir.gov.bd/", "color": "#CFE7FF", "area": "office", "svg_type": 1, "labeling_priority": 1, "base_m": 0, "top_m": 11.5, "image": null, "building_model": "models/buildings/pppdc-east.glb", "model_rotation": 0, "model_size": 1 }, "geometry": {"type":"MultiPolygon","coordinates":[[[[90.385615329,23.740144426],[90.385265453,23.740067772],[90.385237692,23.740175684],[90.385449188,23.740217345],[90.385380152,23.740503005],[90.385166695,23.74045921],[90.385137817,23.740571833],[90.385492332,23.740644195],[90.385615329,23.740144426]]]]} },
{ "type": "Feature", "properties": { "id": 105, "image_url": "105.jpg", "name_en": "Pilot Plant & Process Development Centre", "name_bn": "পাইলট প্লান্ট ও প্রসেস ডেভেলপমেন্ট সেন্টার", "name_en_short": "PPPDC", "name_en_alias": null, "entrance_coords": [90.3854262349802,23.740896607929255], "site_url": "https://pppdc.bcsir.gov.bd/", "color": "#CFE7FF", "area": "office", "svg_type": 1, "labeling_priority": 12, "base_m": 0, "top_m": 7, "image": null }, "geometry": {"type":"MultiPolygon","coordinates":[[[[90.38536129528595,23.74108142513943],[90.38548421685003,23.74067671168786],[90.38477451876302,23.740528278101035],[90.38469566342003,23.740997931246845],[90.38536129528595,23.74108142513943]]]]} },
{ "type": "Feature", "properties": { "id": 106, "image_url": "106.jpg", "name_en": "Canteen & Engineer Store", "name_bn": "ক্যান্টিন ও প্রকৌশলী স্টোর", "name_en_short": null, "name_en_alias": null, "entrance_coords": [90.38564199674457,23.740805320365563], "site_url": null, "color": "o", "area": "office", "svg_type": 1, "labeling_priority": 1, "base_m": 0, "top_m": 12, "image": null }, "geometry": {"type":"MultiPolygon","coordinates":[[[[90.38554655358116,23.741108845272134],[90.38570253840541,23.74112729741479],[90.38574381438966,23.74081448930988],[90.38557967035922,23.740798673149797],[90.38554655358116,23.741108845272134]]]]} },
{ "type": "Feature", "properties": { "id": 107, "image_url": "107.jpg", "name_en": "Institute of Energy Research & Development ", "name_bn": "জ্বালানি গবেষণা ও উন্নয়ন ইনস্টিটিউট", "name_en_short": "IERD", "name_en_alias": null, "entrance_coords": [90.3856895694432,23.740311149043798], "site_url": "https://ierd.bcsir.gov.bd/", "color": "E0E4FF", "area": "office", "svg_type": 1, "labeling_priority": 10, "base_m": 0, "top_m": 12, "image": null }, "geometry": {"type":"MultiPolygon","coordinates":[[[[90.38564114066017,23.74065114674592],[90.38583032396402,23.740679418074492],[90.38591392418589,23.740199134308813],[90.38572535836127,23.740169798237684],[90.38564114066017,23.74065114674592]]]]} },
{ "type": "Feature", "properties": { "id": 108, "image_url": "108.jpg", "name_en": "Bangladesh Reference Institute for Chemical Measurements", "name_bn": "বাংলাদেশ রেফারেন্স ইনস্টিটিউট ফর কেমিক্যাল মেজারমেন্ট", "name_en_short": "BRICM", "name_en_alias": null, "entrance_coords": [90.38693403029254,23.7402961972675], "site_url": "https://bricm.gov.bd/", "color": "#BDF2FF", "area": "office", "svg_type": 1, "labeling_priority": 10, "base_m": 0, "top_m": 25, "image": null, "building_model": "models/buildings/bricm.glb", "model_rotation": 0, "model_size": 1 }, "geometry": {"type":"MultiPolygon","coordinates":[[[[90.3867730870529,23.74065623076545],[90.38705974408778,23.740681255525992],[90.38708139614742,23.74046642122873],[90.38723344858298,23.740478322582177],[90.38725195456139,23.740292889306772],[90.38695510402995,23.740263209065237],[90.38694564641784,23.740363836905058],[90.38687362694087,23.74035829491564],[90.38686538548598,23.740451287631757],[90.38678465599043,23.740444060407828],[90.3867730870529,23.74065623076545]]]]} },
{ "type": "Feature", "properties": { "id": 109, "image_url": "109.jpg", "name_en": "Water Tank", "name_bn": "পানির ট্যাংক", "name_en_short": null, "name_en_alias": null, "entrance_coords": [], "site_url": null, "color": "#ADC3FF", "area": "office", "svg_type": 1, "labeling_priority": 1, "base_m": 0, "top_m": 21, "image": null, "building_model": "models/buildings/water-tank.glb", "model_rotation": 0, "model_size": 1 }, "geometry": {"type":"MultiPolygon","coordinates":[[[[90.38529590101312,23.740366347915746],[90.38531110936721,23.740300656242297],[90.385386319,23.740317224],[90.38537027936974,23.74038200950187],[90.38529590101312,23.740366347915746]]]]} },
{ "type": "Feature", "properties": { "id": 110, "image_url": "110.jpg", "name_en": "Institute of Glass & Ceramic Research & Testing", "name_bn": "গ্লাস ও সিরামিক গবেষণা ও পরীক্ষাগার ইনস্টিটিউট", "name_en_short": "IGCRT", "name_en_alias": null, "entrance_coords": [90.38497102632769,23.739564864560474], "site_url": "https://igcrt.bcsir.gov.bd/", "color": "#FFD4D4", "area": "office", "svg_type": 1, "labeling_priority": 10, "base_m": 0, "top_m": 17, "image": null, "building_model": "models/buildings/igcrt.glb", "model_rotation": 0, "model_size": 1 }, "geometry": {"type":"MultiPolygon","coordinates":[[[[90.385037439,23.739378679],[90.385649647,23.739521676],[90.385550643,23.739864965],[90.384938408,23.739728364],[90.385037439,23.739378679]]]]} },
{ "type": "Feature", "properties": { "id": 111, "image_url": "111.jpg", "name_en": "Institute of Food Science & Technology", "name_bn": "খাদ্য বিজ্ঞান ও প্রযুক্তি ইনস্টিটিউট", "name_en_short": "IFST", "name_en_alias": null, "entrance_coords": [90.38474735110444,23.73951096687575], "site_url": "https://ifst.bcsir.gov.bd/", "color": "#F1CFFF", "area": "office", "svg_type": 1, "labeling_priority": 10, "base_m": 0, "top_m": 17, "image": null, "building_model": "models/buildings/ifst.glb", "model_rotation": 0, "model_size": 1 }, "geometry": {"type":"MultiPolygon","coordinates":[[[[90.384160273,23.739211543],[90.384779796,23.739337998],[90.38469387,23.739666438],[90.384083997,23.739538918],[90.384160273,23.739211543]]]]} },
{ "type": "Feature", "properties": { "id": 112, "image_url": "112.jpg", "name_en": "Pilot Plant & Process Development Centre", "name_bn": "পাইলট প্লান্ট ও প্রসেস ডেভেলপমেন্ট সেন্টার", "name_en_short": "PPPDC", "name_en_alias": "PP&PDC", "entrance_coords": [90.3854262349802,23.740896607929255], "site_url": "https://pppdc.bcsir.gov.bd/", "color": "#CFE7FF", "area": "office", "svg_type": 1, "labeling_priority": 1, "base_m": 0, "top_m": 11.5, "image": null, "building_model": "models/buildings/pppdc-west.glb", "model_rotation": 0, "model_size": 1 }, "geometry": {"type":"MultiPolygon","coordinates":[[[[90.385072224,23.740025283],[90.38526395,23.740067405],[90.385237041,23.740175487],[90.385192972,23.740165423],[90.385122937,23.740450069],[90.385164434,23.740458805],[90.385136564,23.740571447],[90.38494867,23.740534554],[90.385072224,23.740025283]]]]} },
{ "type": "Feature", "properties": { "id": 113, "image_url": "113.jpg", "name_en": "Fibre & Polymer Research Division", "name_bn": "ফাইবার ও পলিমার গবেষণা বিভাগ", "name_en_short": null, "name_en_alias": null, "entrance_coords": [90.38651131888558,23.74003055895169], "site_url": null, "color": "#D6CFFF", "area": "office", "svg_type": 1, "labeling_priority": 1, "base_m": 0, "top_m": 12, "image": null }, "geometry": {"type":"MultiPolygon","coordinates":[[[[90.386490983,23.740041246],[90.386477219,23.74012052],[90.386718336,23.740153281],[90.386631849,23.740704967],[90.386333075,23.7406709],[90.386415794,23.740159506],[90.386369437,23.740151643],[90.386388111,23.740029447],[90.386490983,23.740041246]]]]} },
{ "type": "Feature", "properties": { "id": 114, "image_url": "114.jpg", "name_en": "Pulp & Paper Research Institute", "name_bn": "সজ্জা ও কাগজ গবেষণা ইনস্টিটিউট", "name_en_short": null, "name_en_alias": null, "entrance_coords": [90.38618766860905,23.74059765057881], "site_url": null, "color": "#BDD8FF", "area": "office", "svg_type": 1, "labeling_priority": 10, "base_m": 0, "top_m": 12, "image": null }, "geometry": {"type":"MultiPolygon","coordinates":[[[[90.386309399,23.740308719],[90.386296674,23.740380233],[90.386351328,23.74038951],[90.386337725,23.740475418],[90.386281917,23.740466432],[90.386263334,23.740570139],[90.386132788,23.74055023],[90.386178625,23.740290095],[90.386309399,23.740308719]]]]} },
{ "type": "Feature", "properties": { "id": 115, "image_url": "115.jpg", "name_en": "Dye Water Treatment Plant", "name_bn": "ডাই ওয়াটার ট্রিটমেন্ট প্লান্ট", "name_en_short": null, "name_en_alias": null, "entrance_coords": [90.38626657297974,23.740157029073874], "site_url": null, "color": "#BDD8FF", "area": "office", "svg_type": 1, "labeling_priority": 1, "base_m": 0, "top_m": 3, "image": null }, "geometry": {"type":"MultiPolygon","coordinates":[[[[90.386293812,23.740183917],[90.386284754,23.740234358],[90.386227421,23.740225845],[90.386234957,23.74017474],[90.386293812,23.740183917]]]]} },
{ "type": "Feature", "properties": { "id": 116, "image_url": "116.jpg", "name_en": "Pilot Plant Erection & Operation Center", "name_bn": "পাইলট প্লান্ট নির্মাণ ও পরিচালনা কেন্দ্র", "name_en_short": null, "name_en_alias": null, "entrance_coords": [90.38575174019597,23.740800557397996], "site_url": "https://pppdc.bcsir.gov.bd/", "color": "#E0E4FF", "area": "office", "svg_type": 1, "labeling_priority": 1, "base_m": 0, "top_m": 9, "image": null }, "geometry": {"type":"MultiPolygon","coordinates":[[[[90.386172045,23.740051776],[90.386062482,23.740666443],[90.385937105,23.740649422],[90.386042153,23.740029516],[90.386172045,23.740051776]]]]} },
{ "type": "Feature", "properties": { "id": 117, "image_url": "117.jpg", "name_en": "Toilet (near Pulp & Paper Research Institute)", "name_bn": "টয়লেট (সজ্জা ও কাগজ গবেষণা ইনস্টিটিউটের নিকট)", "name_en_short": null, "name_en_alias": null, "entrance_coords": [], "site_url": null, "color": "C9FFFF", "area": "office", "svg_type": 1, "labeling_priority": 1, "base_m": 0, "top_m": 3, "image": null }, "geometry": {"type":"MultiPolygon","coordinates":[[[[90.38615943,23.740364819],[90.386153913,23.740397754],[90.386118167,23.740392268],[90.386124143,23.740359017],[90.38615943,23.740364819]]]]} },
{ "type": "Feature", "properties": { "id": 118, "image_url": "118.jpg", "name_en": "IERD Research Field", "name_bn": "আইইআরডি গবেষণা ক্ষেত্র", "name_en_short": null, "name_en_alias": null, "entrance_coords": [], "site_url": null, "color": "o", "area": "office", "svg_type": 1, "labeling_priority": 1, "base_m": 0, "top_m": 0.3, "image": null }, "geometry": {"type":"MultiPolygon","coordinates":[[[[90.38592521421995,23.740614305233684],[90.38600906179285,23.740121557168354],[90.38594474036707,23.740111219796354],[90.38586433858484,23.740602819264794],[90.38592521421995,23.740614305233684]]]]} },
{ "type": "Feature", "properties": { "id": 119, "image_url": "119.jpg", "name_en": "Institute of Bioequivalence Studies & Pharmaceutical Sciences", "name_bn": "বায়োসমতা গবেষণা ও ফার্মাসিউটিক্যাল বিজ্ঞান ইনস্টিটিউট", "name_en_short": null, "name_en_alias": null, "entrance_coords": [90.38586079707783,23.739719548257263], "site_url": null, "color": "#E2FFD4", "area": "office", "svg_type": 1, "labeling_priority": 10, "base_m": 0, "top_m": 25, "image": null }, "geometry": {"type":"MultiPolygon","coordinates":[[[[90.385886685,23.739639837],[90.386041367,23.73964088],[90.386040838,23.739656871],[90.38618444,23.739659071],[90.386183897,23.739681113],[90.386239221,23.73968066],[90.386227272,23.739899033],[90.386095626,23.739900671],[90.386098937,23.739804182],[90.385881038,23.739803208],[90.385886685,23.739639837]]]]} },
{ "type": "Feature", "properties": { "id": 120, "image_url": "120.jpg", "name_en": "Ansar Camp", "name_bn": "আনসার ক্যাম্প", "name_en_short": null, "name_en_alias": null, "entrance_coords": [], "site_url": null, "color": "r", "area": "residential", "svg_type": 2, "labeling_priority": 1, "base_m": 0, "top_m": 6, "image": null }, "geometry": {"type":"MultiPolygon","coordinates":[[[[90.38564128,23.7412703],[90.385084659,23.741181336],[90.385097977,23.74106774],[90.385658135,23.741138459],[90.38564128,23.7412703]]]]} },
{ "type": "Feature", "properties": { "id": 121, "image_url": "121.jpg", "name_en": "Spirulina Pond", "name_bn": "স্পিরুলিনা পুকুর", "name_en_short": null, "name_en_alias": null, "entrance_coords": [], "site_url": null, "color": "o", "area": "office", "svg_type": 1, "labeling_priority": 1, "base_m": 0, "top_m": 0.3, "image": null }, "geometry": {"type":"MultiPolygon","coordinates":[[[[90.385105918,23.739133869],[90.385064504,23.739298516],[90.385157628,23.739318329],[90.385200749,23.739158376],[90.385105918,23.739133869]]]]} },
{ "type": "Feature", "properties": { "id": 122, "image_url": "122.jpg", "name_en": "Spirulina Research Center", "name_bn": "স্পিরুলিনা গবেষণা কেন্দ্র", "name_en_short": null, "name_en_alias": null, "entrance_coords": [90.38526100777239,23.739350062319076], "site_url": null, "color": "C9FFFF", "area": "office", "svg_type": 1, "labeling_priority": 1, "base_m": 0, "top_m": 6, "image": null }, "geometry": {"type":"MultiPolygon","coordinates":[[[[90.385223231,23.739151006],[90.385434045,23.739204816],[90.385406771,23.739299902],[90.385442152,23.739308747],[90.385420408,23.739389092],[90.385343747,23.739371401],[90.385348539,23.739353342],[90.385180478,23.739314644],[90.385223231,23.739151006]]]]} },
{ "type": "Feature", "properties": { "id": 123, "image_url": "123.jpg", "name_en": "Garage", "name_bn": "গ্যারেজ", "name_en_short": null, "name_en_alias": null, "entrance_coords": [90.38384128,23.73987975], "site_url": null, "color": "o", "area": "office", "svg_type": 1, "labeling_priority": 1, "base_m": 0, "top_m": 3, "image": null }, "geometry": {"type":"MultiPolygon","coordinates":[[[[90.383746101,23.739764088],[90.383850627,23.739789516],[90.383813524,23.739953398],[90.383713275,23.739929399],[90.383746101,23.739764088]]]]} },
{ "type": "Feature", "properties": { "id": 124, "image_url": "124.jpg", "name_en": "Dr. Qudrat-I-Khuda Bhaban", "name_bn": "ড. কুদরত-ই-খুদা ভবন", "name_en_short": null, "name_en_alias": null, "entrance_coords": [90.38369610430212,23.740079740019535], "site_url": null, "color": "#C9D8FF", "area": "office", "svg_type": 1, "labeling_priority": 8, "base_m": 0, "top_m": 15, "image": null }, "geometry": {"type":"MultiPolygon","coordinates":[[[[90.383457068,23.739883326],[90.383830232,23.739966618],[90.38380996,23.740051386],[90.383683914,23.740023007],[90.3836747,23.740058849],[90.383696813,23.740064377],[90.383679123,23.740133297],[90.383584772,23.740111184],[90.383601726,23.740041158],[90.383624576,23.740046318],[90.383633422,23.740011306],[90.383435323,23.739965927],[90.383457068,23.739883326]]]]} },
{ "type": "Feature", "properties": { "id": 125, "image_url": "125.jpg", "name_en": "IERD Auditorium", "name_bn": "আইইআরডি অডিটোরিয়াম", "name_en_short": null, "name_en_alias": null, "entrance_coords": [90.38584197683915,23.740025792902713], "site_url": null, "color": "#C9FFFF", "area": "office", "svg_type": 1, "labeling_priority": 1, "base_m": 0, "top_m": 7, "image": null }, "geometry": {"type":"MultiPolygon","coordinates":[[[[90.38591401540026,23.74019822601067],[90.3857255737232,23.74016861374713],[90.38575217091989,23.740020193492878],[90.38593824361594,23.740050344161222],[90.38591401540026,23.74019822601067]]]]} },
{ "type": "Feature", "properties": { "id": 126, "image_url": "126.jpg", "name_en": "Dhaka Laboratories", "name_bn": "ঢাকা ল্যাবরেটরিজ", "name_en_short": "Dhaka Lab", "name_en_alias": null, "entrance_coords": [90.38446771711078,23.739899947407654], "site_url": "https://dhakalabs.bcsir.gov.bd/", "color": "#D1FFF0", "area": "office", "svg_type": 1, "labeling_priority": 10, "base_m": 0, "top_m": 11, "image": null }, "geometry": {"type":"MultiPolygon","coordinates":[[[[90.383961543,23.739781],[90.384079466,23.739807403],[90.384100842,23.739719687],[90.384471608,23.739805928],[90.38444065,23.739934922],[90.384141752,23.739867477],[90.384118164,23.739962933],[90.384414482,23.740030747],[90.384385744,23.740153847],[90.384012757,23.740073499],[90.384040768,23.739945243],[90.384079097,23.739954087],[90.384101948,23.739857526],[90.38395213,23.739822881],[90.383961543,23.739781]]]]} },
{ "type": "Feature", "properties": { "id": 127, "image_url": "127.jpg", "name_en": "Secretariat Building", "name_bn": "বিসিএসআইআর সচিবালয় ভবন", "name_en_short": "Secretariat", "name_en_alias": null, "entrance_coords": [90.38466622636211,23.74007239828336], "site_url": null, "color": "#E2FFE0", "area": "office", "svg_type": 1, "labeling_priority": 10, "base_m": 0, "top_m": 20.5, "image": null, "building_model": "models/buildings/secretariat.glb", "model_rotation": 0, "model_size": 1 }, "geometry": {"type":"MultiPolygon","coordinates":[[[[90.38443069872305,23.74025459779324],[90.38474885399776,23.740318634258895],[90.38479707076677,23.740116707794044],[90.38447732095561,23.740049266478547],[90.38443069872305,23.74025459779324]]]]} },
{ "type": "Feature", "properties": { "id": 128, "image_url": "128.jpg", "name_en": "Day Care Center", "name_bn": "ডে কেয়ার সেন্টার", "name_en_short": null, "name_en_alias": null, "entrance_coords": [90.38432432337625,23.740468648837602], "site_url": null, "color": "#F5D9FF", "area": "office", "svg_type": 1, "labeling_priority": 1, "base_m": 0, "top_m": 6, "image": null }, "geometry": {"type":"MultiPolygon","coordinates":[[[[90.384346714,23.740437218],[90.384468199,23.740461265],[90.384454102,23.740535068],[90.384333446,23.740511849],[90.384346714,23.740437218]]]]} },
{ "type": "Feature", "properties": { "id": 129, "image_url": "129.jpg", "name_en": "BCSIR Temple", "name_bn": "বিসিএসআইআর মন্দির", "name_en_short": null, "name_en_alias": null, "entrance_coords": [], "site_url": null, "color": "o", "area": "office", "svg_type": 1, "labeling_priority": 1, "base_m": 0, "top_m": 5, "image": null }, "geometry": {"type":"MultiPolygon","coordinates":[[[[90.38430193475071,23.74050884329311],[90.38428078889622,23.740504697047125],[90.38427705727487,23.740522940529434],[90.38429799581705,23.740526879463108],[90.38430193475071,23.74050884329311]]]]} },
{ "type": "Feature", "properties": { "id": 130, "image_url": "130.jpg", "name_en": "Institute of Technology Transfer & Innovation", "name_bn": "প্রযুক্তি স্থানান্তর ও উদ্ভাবন ইনস্টিটিউট", "name_en_short": "ITTI", "name_en_alias": null, "entrance_coords": [90.38451393149711,23.740471690679122], "site_url": "https://itti.bcsir.gov.bd/", "color": "#D1F6FF", "area": "office", "svg_type": 1, "labeling_priority": 10, "base_m": 0, "top_m": 20.5, "image": null }, "geometry": {"type":"MultiPolygon","coordinates":[[[[90.38439955580883,23.740409851670396],[90.38468736266825,23.74046652003677],[90.38472102808029,23.740351527810322],[90.38442673675468,23.740290716202637],[90.38439955580883,23.740409851670396]]]]} },
{ "type": "Feature", "properties": { "id": 131, "image_url": "131.jpg", "name_en": "Pubali Bank Ltd", "name_bn": "পূবালী ব্যাংক লিমিটেড", "name_en_short": null, "name_en_alias": null, "entrance_coords": [90.38366137,23.73963871], "site_url": null, "color": "#FFE0F4", "area": "office", "svg_type": 1, "labeling_priority": 1, "base_m": 0, "top_m": 6, "image": null }, "geometry": {"type":"MultiPolygon","coordinates":[[[[90.38350730628909,23.73970450432654],[90.38389410564263,23.739784139487558],[90.38390961898567,23.739710192552327],[90.38352126829783,23.739632625837046],[90.38350730628909,23.73970450432654]]]]} },
{ "type": "Feature", "properties": { "id": 132, "image_url": "132.jpg", "name_en": "Garage (near analytical Services", "name_bn": "গ্যারেজ (বিশ্লেষণ সেবার নিকট)", "name_en_short": null, "name_en_alias": null, "entrance_coords": [], "site_url": null, "color": "#E0F9FF", "area": "office", "svg_type": 1, "labeling_priority": 1, "base_m": 0, "top_m": 3, "image": null }, "geometry": {"type":"MultiPolygon","coordinates":[[[[90.383509469,23.739324889],[90.383569591,23.739335663],[90.383560677,23.739383552],[90.383499934,23.739372979],[90.383509469,23.739324889]]]]} },
{ "type": "Feature", "properties": { "id": 133, "image_url": "133.jpg", "name_en": "Glass House", "name_bn": "গ্লাস হাউস", "name_en_short": null, "name_en_alias": null, "entrance_coords": [90.38378956763833,23.739017791831262], "site_url": null, "color": "#E0F9FF", "area": "office", "svg_type": 1, "labeling_priority": 1, "base_m": 0, "top_m": 5, "image": null }, "geometry": {"type":"MultiPolygon","coordinates":[[[[90.383742696,23.738937004],[90.383884913,23.738963537],[90.383870816,23.739026975],[90.383730673,23.739000439],[90.383742696,23.738937004]]]]} },
{ "type": "Feature", "properties": { "id": 134, "image_url": "134.jpg", "name_en": "near glass house", "name_bn": "গ্লাস হাউস ল্যাবের নিকট", "name_en_short": null, "name_en_alias": null, "entrance_coords": [], "site_url": null, "color": "#E0F9FF", "area": "office", "svg_type": 1, "labeling_priority": 1, "base_m": 0, "top_m": 3, "image": null }, "geometry": {"type":"MultiPolygon","coordinates":[[[[90.383663193,23.738932855],[90.383717405,23.738942288],[90.383706728,23.738996293],[90.383652205,23.738986342],[90.383663193,23.738932855]]]]} },
{ "type": "Feature", "properties": { "id": 135, "image_url": "135.jpg", "name_en": "Analytical Service Cell", "name_bn": "বিশ্লেষণ পরিষেবা সেল", "name_en_short": null, "name_en_alias": null, "entrance_coords": [90.38361000021831,23.739540507371547], "site_url": null, "color": "#E0F9FF", "area": "office", "svg_type": 1, "labeling_priority": 10, "base_m": 0, "top_m": 12, "image": null }, "geometry": {"type":"MultiPolygon","coordinates":[[[[90.38352702116255,23.7396332560666],[90.3835491276764,23.739637619194337],[90.38358743836187,23.739456331236983],[90.38356648928881,23.739452331703202],[90.38352702116255,23.7396332560666]]]]} },
{ "type": "Feature", "properties": { "id": 136, "image_url": "136.jpg", "name_en": " Biomedical & Toxicological Research Institute", "name_bn": "বায়োমেডিক্যাল ও টক্সিকোলজিক্যাল গবেষণা ইনস্টিটিউট", "name_en_short": "BTRI", "name_en_alias": null, "entrance_coords": [90.38399032917826,23.740143171795854], "site_url": "https://btri.bcsir.gov.bd/", "color": "#FFD6FF", "area": "office", "svg_type": 1, "labeling_priority": 10, "base_m": 0, "top_m": 9.5, "image": null }, "geometry": {"type":"MultiPolygon","coordinates":[[[[90.38432728527361,23.740377815148786],[90.3840194015447,23.740314325001297],[90.38405158148247,23.74017168960146],[90.38400461616789,23.740158643680743],[90.3840194015447,23.740095153533254],[90.38437164140406,23.740169950145365],[90.38432728527361,23.740377815148786]]]]} },
{ "type": "Feature", "properties": { "id": 137, "image_url": "137.jpg", "name_en": "Electric Bhaban", "name_bn": "ইলেকট্রিক ভবন", "name_en_short": null, "name_en_alias": null, "entrance_coords": [], "site_url": null, "color": "#FFD4D4", "area": "office", "svg_type": 1, "labeling_priority": 1, "base_m": 0, "top_m": 9, "image": null }, "geometry": {"type":"MultiPolygon","coordinates":[[[[90.38429278606105,23.740463338406812],[90.38416348649127,23.74044130529627],[90.38417798195874,23.74037694542073],[90.38430786134721,23.740399558349974],[90.38429278606105,23.740463338406812]]]]} },
{ "type": "Feature", "properties": { "id": 201, "image_url": "201.jpg", "name_en": "Residential Building Near Mosque 1", "name_bn": "মসজিদের নিকটবর্তী আবাসিক ভবন ১", "name_en_short": null, "name_en_alias": null, "entrance_coords": [], "site_url": null, "color": "r", "area": "residential", "svg_type": 2, "labeling_priority": 1, "base_m": 0, "top_m": 9, "image": null }, "geometry": {"type":"MultiPolygon","coordinates":[[[[90.38680864787761,23.739904251042386],[90.38681330714333,23.739824266981124],[90.38698725306296,23.73983436205681],[90.3869802641644,23.739915899206654],[90.38680864787761,23.739904251042386]]]]} },
{ "type": "Feature", "properties": { "id": 202, "image_url": "202.jpg", "name_en": "Residential Building Near Mosque 2", "name_bn": "মসজিদের নিকটবর্তী আবাসিক ভবন ২", "name_en_short": null, "name_en_alias": null, "entrance_coords": [], "site_url": null, "color": "r", "area": "residential", "svg_type": 2, "labeling_priority": 1, "base_m": 0, "top_m": 9, "image": null }, "geometry": {"type":"MultiPolygon","coordinates":[[[[90.3868187429533,23.739741759150935],[90.38699191232867,23.73975496040376],[90.38699890122722,23.7396648812668],[90.38682417876329,23.739655562735397],[90.3868187429533,23.739741759150935]]]]} },
{ "type": "Feature", "properties": { "id": 203, "image_url": "203.jpg", "name_en": "BCSIR Central Mosque", "name_bn": "বিসিএসআইআর কেন্দ্রীয় মসজিদ", "name_en_short": null, "name_en_alias": null, "entrance_coords": [90.38702556001644,23.739799424743193], "site_url": null, "color": "r", "area": "residential", "svg_type": 2, "labeling_priority": 10, "base_m": 0, "top_m": 10, "image": null }, "geometry": {"type":"MultiPolygon","coordinates":[[[[90.38706024822567,23.739754183859475],[90.3872240990696,23.739765832023743],[90.38720701509534,23.73995453228478],[90.38704238770713,23.739942884120524],[90.38706024822567,23.739754183859475]]]]} },
{ "type": "Feature", "properties": { "id": 204, "image_url": "204.jpg", "name_en": "Imam's Quarter", "name_bn": "ইমামের কোয়ার্টার", "name_en_short": null, "name_en_alias": null, "entrance_coords": [], "site_url": null, "color": "#E0F9FF", "area": "residential", "svg_type": 2, "labeling_priority": 1, "base_m": 0, "top_m": 6, "image": null }, "geometry": {"type":"MultiPolygon","coordinates":[[[[90.38717139112632,23.739737682293445],[90.38717362369114,23.73970215539244],[90.38722720524673,23.73970603811387],[90.3872287583353,23.739670317076794],[90.38713712610979,23.7396648812668],[90.38713401993265,23.73969982575959],[90.38715964589402,23.739701378848157],[90.38715741332918,23.739736905749155],[90.38717139112632,23.739737682293445]]]]} },
{ "type": "Feature", "properties": { "id": 205, "image_url": "205.jpg", "name_en": "Khadem's Quarter", "name_bn": "খাদেমের কোয়ার্টার", "name_en_short": null, "name_en_alias": null, "entrance_coords": [], "site_url": null, "color": "#E0E4FF", "area": "residential", "svg_type": 2, "labeling_priority": 1, "base_m": 0, "top_m": 6, "image": null }, "geometry": {"type":"MultiPolygon","coordinates":[[[[90.3871167418223,23.739698952147272],[90.3871200421355,23.739664007654483],[90.38707694392774,23.73966051320521],[90.38707364361453,23.739696040106214],[90.3871167418223,23.739698952147272]]]]} },
{ "type": "Feature", "properties": { "id": 206, "image_url": "206.jpg", "name_en": "Residential Building 01", "name_bn": "আবাসিক ভবন ০১", "name_en_short": null, "name_en_alias": null, "entrance_coords": [], "site_url": null, "color": "#FFE8FB", "area": "residential", "svg_type": 2, "labeling_priority": 1, "base_m": 0, "top_m": 9, "image": null }, "geometry": {"type":"MultiPolygon","coordinates":[[[[90.38748462967692,23.73985659063694],[90.38748462967692,23.739886099319733],[90.38763217309088,23.73989386476258],[90.38763372617947,23.739861249902646],[90.38780922518768,23.739863967807644],[90.38780922518768,23.739900077116847],[90.38797385257591,23.739903183293983],[90.38797385257591,23.739865909168348],[90.38813692687556,23.73987056843405],[90.388135373787,23.73990628947112],[90.38828757646671,23.739912501825394],[90.38828912955528,23.73987678078832],[90.3883881389515,23.739878333876895],[90.38839124512864,23.73979369054993],[90.38830582525739,23.739792914005648],[90.38830660180167,23.739771170765685],[90.38826466841033,23.73976961767712],[90.38826233877748,23.739792137461357],[90.38816138802054,23.7397898078285],[90.38816138802054,23.739767288044266],[90.3881241138949,23.739766511499983],[90.38812256080634,23.7397898078285],[90.38798744210091,23.739785148562806],[90.38798821864519,23.739767288044266],[90.38795094451955,23.739766511499983],[90.38795094451955,23.739787478195655],[90.3878266974341,23.73978437201851],[90.3878266974341,23.739760299145704],[90.38778787021988,23.739758746057138],[90.38778864676416,23.739785148562806],[90.38764964533729,23.73978281892995],[90.38765119842587,23.739756416424285],[90.38761159466738,23.739753310247153],[90.38761159466738,23.73978126584138],[90.3874974426576,23.739776606575674],[90.3874982192019,23.739750980614296],[90.38745939198769,23.739749427525734],[90.38745939198769,23.739774276942825],[90.38741357587496,23.73977272385425],[90.38741279933068,23.739851931371238],[90.38748462967692,23.73985659063694]]]]} },
{ "type": "Feature", "properties": { "id": 207, "image_url": "207.jpg", "name_en": "Residential Quarter 02", "name_bn": "আবাসিক ভবন ০২", "name_en_short": null, "name_en_alias": null, "entrance_coords": [], "site_url": null, "color": "#FFE8FB", "area": "residential", "svg_type": 2, "labeling_priority": 1, "base_m": 0, "top_m": 15, "image": null }, "geometry": {"type":"MultiPolygon","coordinates":[[[[90.38749511302474,23.740062374872224],[90.38749355993616,23.74010430826356],[90.38741590550775,23.740101202086436],[90.38741590550775,23.74012605150352],[90.38740513095584,23.74012556616335],[90.38740435441156,23.740171382276117],[90.38753636693986,23.740178371174675],[90.38753559039557,23.74018924279465],[90.3875977139383,23.7401915724275],[90.387602373204,23.740081303139156],[90.38756199290125,23.7400789735063],[90.38756276944554,23.74006344262062],[90.38749511302474,23.740062374872224]]]]} },
{ "type": "Feature", "properties": { "id": 208, "image_url": "208.jpg", "name_en": "Residential Quarter 03", "name_bn": "আবাসিক ভবন ০৩", "name_en_short": null, "name_en_alias": null, "entrance_coords": [], "site_url": null, "color": "#FFE8FB", "area": "residential", "svg_type": 2, "labeling_priority": 1, "base_m": 0, "top_m": 15, "image": null }, "geometry": {"type":"MultiPolygon","coordinates":[[[[90.38773205609945,23.740061112987767],[90.38773050301089,23.74009683402484],[90.38764818931676,23.74009528093627],[90.3876466362282,23.740120906897644],[90.38763964732964,23.740120906897644],[90.38763770596893,23.740171382276117],[90.38773322091589,23.740173711908966],[90.38773166782732,23.740193513788213],[90.38779185000932,23.740195843421056],[90.38779262655362,23.740185360073223],[90.38782174696428,23.740185748345368],[90.38782135869214,23.740195843421056],[90.38788270569059,23.740198173053916],[90.3878846470513,23.740176818086102],[90.38797822063754,23.740179924263238],[90.3879778323654,23.74020089095891],[90.38802403675031,23.740203608863904],[90.38802403675031,23.74019429033249],[90.38805820469881,23.740195843421056],[90.38805820469881,23.740204385408184],[90.38810868007727,23.740205550224612],[90.38810984489369,23.740181477351808],[90.38820147711922,23.74018380698466],[90.38819953575852,23.74020943294603],[90.38825622349127,23.74021059776246],[90.3882566117634,23.740202444047476],[90.38829194452833,23.74020283231962],[90.38829233280046,23.740212927395312],[90.38834824398891,23.740212927395312],[90.38834863226107,23.740191960699644],[90.3883960014624,23.74019273724393],[90.38839638973455,23.740148085947588],[90.38838396502601,23.740147309403305],[90.38838512984243,23.740115859359793],[90.38835290325464,23.74011624763193],[90.38835406807107,23.740088292037715],[90.38830631059759,23.740086738949138],[90.3883055340533,23.740094504391983],[90.38829155625619,23.740094504391983],[90.38829077971191,23.74010071674626],[90.38825777657983,23.74009955192983],[90.38825816485198,23.74008518586058],[90.38820613638494,23.74008246795558],[90.38820380675207,23.740114306271234],[90.38811877515299,23.74011003527767],[90.38811916342512,23.740087127221287],[90.38807140595164,23.74008518586058],[90.38807101767948,23.740097998841264],[90.38802558983888,23.74009644575269],[90.38802597811102,23.74008285622772],[90.38798559780824,23.74008091486701],[90.38798520953608,23.740108093916955],[90.38788154087416,23.740104987739823],[90.38788387050701,23.74007237287988],[90.38783455994498,23.74006965497489],[90.38783417167284,23.740084409316296],[90.38778291975007,23.740079750050587],[90.38778447283865,23.74006499570918],[90.38773205609945,23.740061112987767]]]]} },
{ "type": "Feature", "properties": { "id": 209, "image_url": "209.jpg", "name_en": "Residential Quarter 04", "name_bn": "আবাসিক ভবন ০৪", "name_en_short": null, "name_en_alias": null, "entrance_coords": [], "site_url": null, "color": "#FFE8FB", "area": "residential", "svg_type": 2, "labeling_priority": 1, "base_m": 0, "top_m": 15, "image": null }, "geometry": {"type":"MultiPolygon","coordinates":[[[[90.3885105417443,23.739815336721843],[90.388512483105,23.739782333589766],[90.38864818421864,23.739788351807974],[90.388646436994,23.739819704783443],[90.38873729267526,23.739823878708968],[90.38873884576381,23.7397928169376],[90.38888755399421,23.739798252747583],[90.38888483608923,23.739830867607527],[90.38891667440488,23.739833197240376],[90.38891356822776,23.73989376769454],[90.38884096133715,23.73989143806168],[90.38883979652077,23.739920170200193],[90.38874544639023,23.73991628747877],[90.3887469994788,23.73988755534026],[90.38862158757692,23.739881342985992],[90.38862003448834,23.73991240475736],[90.3885338380728,23.739910851668785],[90.38853577943351,23.739876683720286],[90.38847016144152,23.739873577543154],[90.38847190866613,23.739813007088998],[90.3885105417443,23.739815336721843]]]]} },
{ "type": "Feature", "properties": { "id": 210, "image_url": "210.jpg", "name_en": "Residential Quarter 05", "name_bn": "আবাসিক ভবন ০৫", "name_en_short": null, "name_en_alias": null, "entrance_coords": [], "site_url": null, "color": "#FFE8FB", "area": "residential", "svg_type": 2, "labeling_priority": 1, "base_m": 0, "top_m": 18, "image": null }, "geometry": {"type":"MultiPolygon","coordinates":[[[[90.38846035756994,23.739956376577457],[90.38845715432474,23.74005101791208],[90.38846967610132,23.740051600320292],[90.3884685112849,23.74007373183239],[90.38845628071243,23.740073149424173],[90.38845569830421,23.74012964302085],[90.38847608259171,23.74013051663317],[90.38847608259171,23.74012469255104],[90.38852384006518,23.740128187000316],[90.38852384006518,23.740137505531724],[90.38854422435263,23.740139835164577],[90.38854597157726,23.740129351816744],[90.38860304758217,23.740134593490655],[90.3886007179493,23.74014565924671],[90.38862226705318,23.740147406471348],[90.38862634391069,23.7400874184254],[90.38861644297104,23.740085671200763],[90.38861819019569,23.740063539688666],[90.38862809113532,23.740063539688666],[90.38863566244208,23.739968024741714],[90.38859722350003,23.739965695108868],[90.3885966410918,23.73997326641563],[90.38849704928738,23.739968024741714],[90.3884982141038,23.73995870621031],[90.38846035756994,23.739956376577457]]]]} },
{ "type": "Feature", "properties": { "id": 211, "image_url": "211.jpg", "name_en": "Residential Quarter 05", "name_bn": "আবাসিক ভবন ০৫", "name_en_short": null, "name_en_alias": null, "entrance_coords": [], "site_url": null, "color": "#FFE8FB", "area": "residential", "svg_type": 2, "labeling_priority": 1, "base_m": 0, "top_m": 15, "image": null }, "geometry": {"type":"MultiPolygon","coordinates":[[[[90.38869201043667,23.74011814045864],[90.38869768891676,23.740042864197104],[90.38872768293976,23.740045048227906],[90.38873205100133,23.740006172479674],[90.38890444383242,23.74002015027679],[90.38890036697491,23.740059171627067],[90.38894251876933,23.740064267698944],[90.38893414665127,23.74014012636869],[90.38887998268746,23.74013721432762],[90.38887648823817,23.740161093064355],[90.38873263340953,23.740147552073402],[90.38873554545061,23.74012148930587],[90.38869201043667,23.740118140458637],[90.38869201043667,23.74011814045864]]]]} },
{ "type": "Feature", "properties": { "id": 212, "image_url": "212.jpg", "name_en": "Residential Quarter 05", "name_bn": "আবাসিক ভবন ০৫", "name_en_short": null, "name_en_alias": null, "entrance_coords": [], "site_url": null, "color": "#FFE8FB", "area": "residential", "svg_type": 2, "labeling_priority": 1, "base_m": 0, "top_m": 15, "image": null }, "geometry": {"type":"MultiPolygon","coordinates":[[[[90.38853643464282,23.74029635737187],[90.38889024763226,23.74031339281211],[90.38889548930617,23.740216421844625],[90.38885355591484,23.740212927395344],[90.38885093507785,23.740223410743184],[90.38875745855967,23.74021816906926],[90.38875833217199,23.740207685721426],[90.38871203071903,23.740205064884474],[90.38871203071903,23.74021467461999],[90.38854080270438,23.74020855933375],[90.38853643464282,23.74029635737187]]]]} },
{ "type": "Feature", "properties": { "id": 213, "image_url": "213.jpg", "name_en": "Residential Quarter 06", "name_bn": "আবাসিক ভবন ০৬", "name_en_short": null, "name_en_alias": null, "entrance_coords": [], "site_url": null, "color": "#FFE8FB", "area": "residential", "svg_type": 2, "labeling_priority": 1, "base_m": 0, "top_m": 15, "image": null }, "geometry": {"type":"MultiPolygon","coordinates":[[[[90.38867408318387,23.74041172879884],[90.38867484759464,23.740391963320107],[90.38874539178948,23.74039371054474],[90.38874451817716,23.740411182791135],[90.38881178632577,23.740414677240416],[90.38881091271345,23.740427563022127],[90.38884891484935,23.74042996545601],[90.38885022526783,23.740412274806538],[90.38889041143455,23.740413366821933],[90.38888779059758,23.740434115114528],[90.38889477949614,23.740434988726843],[90.38888779059758,23.740508372161695],[90.38886900793271,23.740507935355534],[90.38886726070805,23.74052628121425],[90.38882794815368,23.740523660377296],[90.388828821766,23.74050749854938],[90.38875718555579,23.740506188130894],[90.38875500152498,23.74052103954033],[90.3886396846988,23.74051579786642],[90.3886418687296,23.74050531451858],[90.38856455403929,23.74050269368162],[90.38856499084547,23.74051536106025],[90.38853397760812,23.740514487447935],[90.38853441441427,23.740504440906253],[90.38852480467877,23.7405040041001],[90.38852567829109,23.74040659632646],[90.38853441441427,23.74040703313262],[90.38853528802659,23.740386503243112],[90.38855756514074,23.740387813661584],[90.38855756514074,23.74040790674494],[90.3885994985321,23.74041009077574],[90.3885994985321,23.740404412295653],[90.38862614370784,23.74040484910182],[90.38862614370784,23.740411401194216],[90.38867408318387,23.74041172879884]]]]} },
{ "type": "Feature", "properties": { "id": 214, "image_url": "214.jpg", "name_en": "Residential Quarter 07", "name_bn": "আবাসিক ভবন ০৭", "name_en_short": null, "name_en_alias": null, "entrance_coords": [], "site_url": null, "color": "#FFE8FB", "area": "residential", "svg_type": 2, "labeling_priority": 1, "base_m": 0, "top_m": 15, "image": null }, "geometry": {"type":"MultiPolygon","coordinates":[[[[90.38851257410624,23.740732890527827],[90.38854708179285,23.740734637752468],[90.38854795540519,23.740724154404628],[90.38862395967699,23.740726775241587],[90.38862308606467,23.74073900581406],[90.38873316121695,23.74074250026334],[90.38873316121695,23.740727648853902],[90.38881265993804,23.74072852246622],[90.3888117863257,23.740741626651012],[90.38885109888011,23.7407451211003],[90.3888519724924,23.740727648853902],[90.38887556002506,23.740725901629265],[90.38888167531128,23.740641161234258],[90.38887119196345,23.74063941400962],[90.38887206557578,23.74061932092627],[90.3888248905105,23.74061670008931],[90.38882314328586,23.740637666784988],[90.3887838307315,23.740634172335703],[90.3887838307315,23.740621068150908],[90.38871918341984,23.740617573701634],[90.38871918341984,23.740597480618277],[90.38866152500674,23.740595733393643],[90.3886597777821,23.74061844731395],[90.38860823465524,23.74061844731395],[90.38860910826756,23.740608837578435],[90.38857940544868,23.740607963966113],[90.38857853183639,23.740618228910858],[90.38854096650662,23.74061670008931],[90.38854085730507,23.7405941499713],[90.38851721517167,23.74059371316514],[90.38851716057093,23.740617792104707],[90.38850766003696,23.740617792104707],[90.38850252756455,23.74072153356767],[90.38851344771855,23.740722297978444],[90.38851257410624,23.740732890527827]]]]} },
{ "type": "Feature", "properties": { "id": 215, "image_url": "215.jpg", "name_en": "Residential Quarter 08", "name_bn": "আবাসিক ভবন ০৮", "name_en_short": null, "name_en_alias": null, "entrance_coords": [], "site_url": null, "color": "#FFE8FB", "area": "residential", "svg_type": 2, "labeling_priority": 1, "base_m": 0, "top_m": 15, "image": null }, "geometry": {"type":"MultiPolygon","coordinates":[[[[90.38855221426522,23.740860547128015],[90.38855221426522,23.740782795631567],[90.38883701188142,23.740786290080838],[90.38883155180443,23.74086289496112],[90.38855221426522,23.740860547128015]]]]} },
{ "type": "Feature", "properties": { "id": 216, "image_url": "216.jpg", "name_en": "Residential Quarter 09", "name_bn": "আবাসিক ভবন ০৯", "name_en_short": null, "name_en_alias": null, "entrance_coords": [], "site_url": null, "color": "#FFE8FB", "area": "residential", "svg_type": 2, "labeling_priority": 1, "base_m": 0, "top_m": 15, "image": null }, "geometry": {"type":"MultiPolygon","coordinates":[[[[90.38885806218451,23.74101380765021],[90.38885852970357,23.740983676556503],[90.38885852895106,23.740983678061436],[90.38885852970358,23.74098367655649],[90.38885852970358,23.740983676556517],[90.3888585297035,23.74098367655655],[90.3888585297033,23.740983676556723],[90.38885852970357,23.740983676556503],[90.38885852970354,23.740983676556507],[90.38885852970357,23.740983676556517],[90.38885852970394,23.74098367655653],[90.38885852970357,23.740983676556503],[90.38885852819851,23.740983678061344],[90.38885852970357,23.740983676556503],[90.38885852819861,23.740983678061436],[90.38885852970357,23.740983676556503],[90.38885854335378,23.740983007697068],[90.38885854335379,23.740983007697068],[90.38885854335379,23.740983007697075],[90.3888585433537,23.74098300769708],[90.38885854335358,23.740983007697157],[90.38885854335378,23.740983007697068],[90.38885859795454,23.740980946518],[90.38885859795455,23.740980946518],[90.38885859795455,23.740980946518004],[90.38885859795435,23.740980946518064],[90.38885859795454,23.740980946518],[90.38878751507018,23.740934850806834],[90.38868677728868,23.740933484192688],[90.38863081330949,23.74093370288468],[90.38853209805896,23.74093294037269],[90.38846960330024,23.74100698639309],[90.38847547970803,23.7410070955946],[90.38847545923278,23.741050687484314],[90.38884886536732,23.74105509436377],[90.38885009514027,23.741013525582648],[90.38885806218451,23.74101380765021]]]]} },
{ "type": "Feature", "properties": { "id": 217, "image_url": "217.jpg", "name_en": "WASA Pump House", "name_bn": "ওয়াসা পাম্প হাউস", "name_en_short": null, "name_en_alias": null, "entrance_coords": [], "site_url": null, "color": "#E0E4FF", "area": "residential", "svg_type": 2, "labeling_priority": 1, "base_m": 0, "top_m": 4, "image": null }, "geometry": {"type":"MultiPolygon","coordinates":[[[[90.38736672746377,23.74107331225194],[90.38736629065764,23.741000911630827],[90.38747199774849,23.741002658855464],[90.38747079653156,23.741073093848865],[90.38736672746377,23.74107331225194]]]]} },
{ "type": "Feature", "properties": { "id": 218, "image_url": "218.jpg", "name_en": "Garage", "name_bn": "গ্যারেজ", "name_en_short": null, "name_en_alias": null, "entrance_coords": [], "site_url": null, "color": "r", "area": "residential", "svg_type": 2, "labeling_priority": 1, "base_m": 0, "top_m": 3, "image": null }, "geometry": {"type":"MultiPolygon","coordinates":[[[[90.38880018878102,23.740590177337953],[90.38880324642413,23.74053382934323],[90.3888757562468,23.740538634211],[90.38887051457287,23.7405962926242],[90.38880018878102,23.740590177337953]]]]} },
{ "type": "Feature", "properties": { "id": 219, "image_url": "219.jpg", "name_en": "Residential Quarter 10", "name_bn": "আবাসিক ভবন ১০", "name_en_short": null, "name_en_alias": null, "entrance_coords": [], "site_url": null, "color": "#FFE8FB", "area": "residential", "svg_type": 2, "labeling_priority": 1, "base_m": 0, "top_m": 15, "image": null }, "geometry": {"type":"MultiPolygon","coordinates":[[[[90.38830711667212,23.74094053044526],[90.38830677501961,23.74098067461502],[90.38815738746003,23.740978752819675],[90.38815807076504,23.740940487738694],[90.38798519459563,23.740940146086185],[90.38798485294312,23.740982169344758],[90.38783896732197,23.740981144387224],[90.38783896732194,23.74094322095875],[90.38764456704449,23.74094424591628],[90.38764473787067,23.740982681823514],[90.38748945680554,23.740983023476023],[90.38748928597927,23.74094595417883],[90.38738670481366,23.74094702184291],[90.38738465489861,23.74085750888563],[90.3874840757786,23.740858021364406],[90.3874840757786,23.740834788993805],[90.38751004136925,23.740835472298837],[90.38751056452467,23.7408649665193],[90.38763855075747,23.740866632075278],[90.38763889240998,23.740837762438286],[90.38765853742926,23.740838104090795],[90.38765853742926,23.740855186716235],[90.38783141359862,23.74085587002124],[90.3878314990118,23.740838104090795],[90.38785729377612,23.74083848844987],[90.38785695212358,23.740862660364858],[90.38797576178352,23.740864026974887],[90.38797576178352,23.740836694774192],[90.38800309398427,23.740837036426708],[90.38800309398424,23.74085599814094],[90.38814505060158,23.740855485662177],[90.38814505060164,23.740837719731726],[90.38816708718845,23.740837719731726],[90.38816623305713,23.74086761432623],[90.38829674431553,23.740869749654426],[90.388297085968,23.74083695101358],[90.3883233932112,23.74083695101358],[90.38832305155866,23.740858816774146],[90.38838113248515,23.740859158426655],[90.38838044918016,23.740940642549962],[90.3883071166721,23.74094053044526],[90.38830711667212,23.74094053044526]]]]} },
{ "type": "Feature", "properties": { "id": 220, "image_url": "220.jpg", "name_en": "Garage (near residential quarter 10)", "name_bn": "গ্যারেজ (আবাসিক ভবন ১০ এর নিকট)", "name_en_short": null, "name_en_alias": null, "entrance_coords": [], "site_url": null, "color": "#E0E4FF", "area": "residential", "svg_type": 2, "labeling_priority": 1, "base_m": 0, "top_m": 3, "image": null }, "geometry": {"type":"MultiPolygon","coordinates":[[[[90.38726314980296,23.740939158159904],[90.38726409166627,23.74085553708053],[90.38733112776174,23.740855182175537],[90.38733126426368,23.740939185460284],[90.38726314980296,23.740939158159904],[90.38726314980296,23.7409391581599],[90.38726314980296,23.740939158159904],[90.38726314980289,23.7409391581599],[90.38726314980289,23.740939158159918],[90.38726314980286,23.740939158159932],[90.38726314980286,23.74093915815995],[90.38726314980289,23.74093915815995],[90.38726314980296,23.740939158159904]]]]} },
{ "type": "Feature", "properties": { "id": 221, "image_url": "221.jpg", "name_en": "Residential Quarter 11", "name_bn": "আবাসিক ভবন ১১", "name_en_short": null, "name_en_alias": null, "entrance_coords": [], "site_url": null, "color": "#FFE8FB", "area": "residential", "svg_type": 2, "labeling_priority": 1, "base_m": 0, "top_m": 15, "image": null }, "geometry": {"type":"MultiPolygon","coordinates":[[[[90.38716471826474,23.740887533131797],[90.38718219051118,23.740887533131797],[90.3871822997127,23.740894958836524],[90.38720151918376,23.740895177239608],[90.38720151918376,23.74090129252585],[90.38721975584097,23.740901347126623],[90.38721888222868,23.740971290713098],[90.38719846154066,23.740971072310018],[90.38719835233911,23.741011586081413],[90.3871066230454,23.741010930872168],[90.387106663996,23.741001225585293],[90.38709285000117,23.741000816079506],[90.38709246779578,23.741050093274506],[90.38698725211187,23.741048892057567],[90.38698714291033,23.741012964750862],[90.3869751307409,23.74101263714624],[90.38697513074091,23.740994728093657],[90.38686581999922,23.740992216458228],[90.38686614760384,23.740976928242613],[90.38684365208657,23.74097638223491],[90.38684365208657,23.740963714856257],[90.3868284730725,23.740963714856257],[90.38682912828173,23.74089868533909],[90.3868437612881,23.740898903742174],[90.38684387048963,23.740890659025887],[90.3868601415191,23.74089115043282],[90.38686019611988,23.740884106933485],[90.38687499292858,23.740884434538092],[90.38687488372705,23.740890058417413],[90.38688050760636,23.74089016761895],[90.38688039840483,23.740894917885957],[90.38715750755064,23.740899965044637],[90.38715749731297,23.740894638057007],[90.3871645954131,23.740894747258555],[90.38716471826474,23.740887533131797]]]]} },
{ "type": "Feature", "properties": { "id": 222, "image_url": "222.jpg", "name_en": "Res. Quarters (near bhaban 11)", "name_bn": "আবাসিক ভবন (ভবন ১১ এর নিকট)", "name_en_short": null, "name_en_alias": null, "entrance_coords": [], "site_url": null, "color": "#FFE8FB", "area": "residential", "svg_type": 2, "labeling_priority": 1, "base_m": 0, "top_m": 15, "image": null }, "geometry": {"type":"MultiPolygon","coordinates":[[[[90.3872016420356,23.740999751364505],[90.38720076842328,23.74107553723337],[90.38726432371963,23.741076410845697],[90.38726563413815,23.740999969767586],[90.3872016420356,23.740999751364505]]]]} },
{ "type": "Feature", "properties": { "id": 223, "image_url": "223.jpg", "name_en": "Res. Quarters (near bhaban 10)", "name_bn": "আবাসিক ভবন (ভবন ১০ এর নিকট)", "name_en_short": null, "name_en_alias": null, "entrance_coords": [], "site_url": null, "color": "#FFE8FB", "area": "residential", "svg_type": 2, "labeling_priority": 1, "base_m": 0, "top_m": 15, "image": null }, "geometry": {"type":"MultiPolygon","coordinates":[[[[90.38726803657198,23.741076260693575],[90.38726885558356,23.741001075433175],[90.38729233391469,23.741001403037792],[90.38729124189925,23.741076533697424],[90.38726803657198,23.741076260693575]]]]} },
{ "type": "Feature", "properties": { "id": 224, "image_url": "224.jpg", "name_en": "Res. Quarters 2 (near bhaban 10)", "name_bn": "আবাসিক ভবন ২ (ভবন ১০ এর নিকট)", "name_en_short": null, "name_en_alias": null, "entrance_coords": [], "site_url": null, "color": "#FFE8FB", "area": "residential", "svg_type": 2, "labeling_priority": 1, "base_m": 0, "top_m": 15, "image": null }, "geometry": {"type":"MultiPolygon","coordinates":[[[[90.38729954121635,23.74107609689125],[90.38735730883108,23.741076642898957],[90.3873569266257,23.741040852094176],[90.38734338563474,23.741040852094176],[90.38734349483627,23.74104620296964],[90.38729970501866,23.74104587536502],[90.38729954121635,23.74107609689125]]]]} },
{ "type": "Feature", "properties": { "id": 225, "image_url": "225.jpg", "name_en": "Res. Quarters 3 (near bhaban 10)", "name_bn": "আবাসিক ভবন ৩ (ভবন ১০ এর নিকট)", "name_en_short": null, "name_en_alias": null, "entrance_coords": [], "site_url": null, "color": "#FFE8FB", "area": "residential", "svg_type": 2, "labeling_priority": 1, "base_m": 0, "top_m": 15, "image": null }, "geometry": {"type":"MultiPolygon","coordinates":[[[[90.38729943201483,23.741040333386852],[90.38732274654367,23.741040579090317],[90.3873239477606,23.74097006219577],[90.3873002510264,23.740969598089222],[90.38729943201483,23.741040333386852]]]]} },
{ "type": "Feature", "properties": { "id": 226, "image_url": "226.jpg", "name_en": "Res. Quarter's Garage (near bhaban 11)", "name_bn": "আবাসিক ভবনের গ্যারেজ (ভবন ১১ এর নিকট)", "name_en_short": null, "name_en_alias": null, "entrance_coords": [], "site_url": null, "color": "r", "area": "residential", "svg_type": 2, "labeling_priority": 1, "base_m": 0, "top_m": 3, "image": null }, "geometry": {"type":"MultiPolygon","coordinates":[[[[90.38665552513335,23.741064658029927],[90.38675489853486,23.74106596844841],[90.3867559905503,23.740981664859422],[90.38665618034258,23.740980900448637],[90.38665552513335,23.741064658029927]]]]} },
{ "type": "Feature", "properties": { "id": 227, "image_url": "227.jpg", "name_en": "BCSIR Ladies Club", "name_bn": "বিসিএসআইআর লেডিস ক্লাব", "name_en_short": null, "name_en_alias": null, "entrance_coords": [90.3872137818022,23.74078733601206], "site_url": null, "color": "r", "area": "residential", "svg_type": 2, "labeling_priority": 1, "base_m": 0, "top_m": 6, "image": null }, "geometry": {"type":"MultiPolygon","coordinates":[[[[90.38712742593893,23.74077556401512],[90.38731175813868,23.740779768274408],[90.38731852863417,23.740527567317432],[90.38713135719436,23.740522325643504],[90.38712742593893,23.74077556401512]]]]} },
{ "type": "Feature", "properties": { "id": 228, "image_url": "228.jpg", "name_en": "BCSIR Academic Bhaban", "name_bn": "বিসিএসআইআর একাডেমিক ভবন", "name_en_short": null, "name_en_alias": null, "entrance_coords": [], "site_url": null, "color": "#E0E4FF", "area": "residential", "svg_type": 2, "labeling_priority": 1, "base_m": 0, "top_m": 12, "image": null }, "geometry": {"type":"MultiPolygon","coordinates":[[[[90.38643334094967,23.741060088627993],[90.3866213860018,23.741063091670334],[90.38662269642032,23.740958258191792],[90.38659408561678,23.740958039788712],[90.3865938672137,23.740968741539653],[90.38643421456197,23.740965902299603],[90.38643334094967,23.741060088627993]]]]} },
{ "type": "Feature", "properties": { "id": 229, "image_url": "229.jpg", "name_en": "BCSIR High School", "name_bn": "বিসিএসআইআর হাই স্কুল", "name_en_short": null, "name_en_alias": null, "entrance_coords": [90.38631412318816,23.740819614784023], "site_url": null, "color": "r", "area": "residential", "svg_type": 2, "labeling_priority": 1, "base_m": 0, "top_m": 9, "image": null }, "geometry": {"type":"MultiPolygon","coordinates":[[[[90.38640789699083,23.740963718268816],[90.38640735098309,23.74106756893349],[90.38617016523787,23.741063200871892],[90.38617060204406,23.74096055142415],[90.38640789699083,23.740963718268816]]]]} },
{ "type": "Feature", "properties": { "id": 230, "image_url": "230.jpg", "name_en": "BCSIR High School (U building)", "name_bn": "বিসিএসআইআর হাই স্কুল (ইউ বিল্ডিং)", "name_en_short": null, "name_en_alias": null, "entrance_coords": [], "site_url": null, "color": "r", "area": "residential", "svg_type": 2, "labeling_priority": 1, "base_m": 0, "top_m": 9, "image": null }, "geometry": {"type":"MultiPolygon","coordinates":[[[[90.38615160097609,23.74099931797091],[90.38615116416993,23.7410637468796],[90.38586134328227,23.741059269616454],[90.38586461932849,23.74082994638213],[90.38611578287082,23.7408325672191],[90.38611578287082,23.740895904112392],[90.385947612499,23.740895030500063],[90.38594717569283,23.740996587932415],[90.38615160097609,23.74099931797091]]]]} },
{ "type": "Feature", "properties": { "id": 231, "image_url": "231.jpg", "name_en": "School Parents Shade", "name_bn": "স্কুল প্যারেন্টস শেড", "name_en_short": null, "name_en_alias": null, "entrance_coords": [], "site_url": null, "color": "#E0E4FF", "area": "residential", "svg_type": 2, "labeling_priority": 1, "base_m": 0, "top_m": 3, "image": null }, "geometry": {"type":"MultiPolygon","coordinates":[[[[90.38612834104794,23.74089492129853],[90.38612899625717,23.740842504559257],[90.38619014911967,23.74084403338082],[90.38618872949965,23.740895713009696],[90.38612834104794,23.74089492129853]]]]} },
{ "type": "Feature", "properties": { "id": 232, "image_url": "232.jpg", "name_en": "School Guards Mass", "name_bn": "স্কুল গার্ডস মেস", "name_en_short": null, "name_en_alias": null, "entrance_coords": [], "site_url": null, "color": "#E0E4FF", "area": "residential", "svg_type": 2, "labeling_priority": 1, "base_m": 0, "top_m": 4, "image": null }, "geometry": {"type":"MultiPolygon","coordinates":[[[[90.38622331908742,23.74082716174286],[90.38622334638782,23.740847609731258],[90.38626781871506,23.740848483343576],[90.38626866502695,23.740827503106924],[90.38622331908742,23.74082716174286]]]]} },
{ "type": "Feature", "properties": { "id": 233, "image_url": "233.jpg", "name_en": "School Memorial", "name_bn": "স্কুল মেমোরিয়াল", "name_en_short": null, "name_en_alias": null, "entrance_coords": [], "site_url": null, "color": "r", "area": "residential", "svg_type": 2, "labeling_priority": 1, "base_m": 0, "top_m": 2, "image": null }, "geometry": {"type":"MultiPolygon","coordinates":[[[[90.38662228691437,23.740931490164282],[90.38662294212361,23.74089217760984],[90.38660110181556,23.74089217760984],[90.38660093801327,23.74093116255966],[90.38662228691437,23.740931490164282]]]]} },
{ "type": "Feature", "properties": { "id": 234, "image_url": "234.jpg", "name_en": "BCSIR Officers Club", "name_bn": "বিসিএসআইআর অফিসার্স ক্লাব", "name_en_short": null, "name_en_alias": null, "entrance_coords": [90.38536867013713,23.74127126065202], "site_url": null, "color": "r", "area": "residential", "svg_type": 2, "labeling_priority": 1, "base_m": 0, "top_m": 7, "image": null }, "geometry": {"type":"MultiPolygon","coordinates":[[[[90.38553247,23.741476954],[90.385163753,23.741407038],[90.385193338,23.741259164],[90.385562876,23.741333868],[90.38553247,23.741476954]]]]} },
{ "type": "Feature", "properties": { "id": 235, "image_url": "235.jpg", "name_en": "BCSIR Guest House", "name_bn": "বিসিএসআইআর অতিথি ভবন", "name_en_short": null, "name_en_alias": null, "entrance_coords": [], "site_url": null, "color": "#E0E4FF", "area": "residential", "svg_type": 2, "labeling_priority": 1, "base_m": 0, "top_m": 9, "image": null }, "geometry": {"type":"MultiPolygon","coordinates":[[[[90.385531968,23.741478977],[90.385513182,23.74155602],[90.385369472,23.741528497],[90.385378864,23.74148263],[90.385440126,23.741494698],[90.385446896,23.741462919],[90.385531968,23.741478977]]]]} },
{ "type": "Feature", "properties": { "id": 236, "image_url": "236.jpg", "name_en": "Officers Club Stuff Room", "name_bn": "অফিসার্স ক্লাব স্টাফ রুম", "name_en_short": null, "name_en_alias": null, "entrance_coords": [], "site_url": null, "color": "r", "area": "residential", "svg_type": 2, "labeling_priority": 1, "base_m": 0, "top_m": 3, "image": null }, "geometry": {"type":"MultiPolygon","coordinates":[[[[90.385294563,23.741433445],[90.385279819,23.741494753],[90.385246675,23.741487818],[90.385260216,23.741426392],[90.385294563,23.741433445]]]]} },
{ "type": "Feature", "properties": { "id": 237, "image_url": "237.jpg", "name_en": "Officers Club Kitchen", "name_bn": "অফিসার্স ক্লাব রান্নাঘর", "name_en_short": null, "name_en_alias": null, "entrance_coords": [], "site_url": null, "color": "r", "area": "residential", "svg_type": 2, "labeling_priority": 1, "base_m": 0, "top_m": 3, "image": null }, "geometry": {"type":"MultiPolygon","coordinates":[[[[90.385235291,23.741422082],[90.385233544,23.741429709],[90.385253309,23.741433862],[90.385237584,23.741504948],[90.385164419,23.741490971],[90.385179927,23.741418681],[90.385203622,23.741423375],[90.385205042,23.741416168],[90.385235291,23.741422082]]]]} },
{ "type": "Feature", "properties": { "id": 238, "image_url": "238.jpg", "name_en": "Bus Garage (near officers club)", "name_bn": "বাস গ্যারেজ (অফিসার্স ক্লাবের নিকট)", "name_en_short": null, "name_en_alias": null, "entrance_coords": [], "site_url": null, "color": "r", "area": "residential", "svg_type": 2, "labeling_priority": 1, "base_m": 0, "top_m": 3, "image": null }, "geometry": {"type":"MultiPolygon","coordinates":[[[[90.38512356961955,23.74147889085728],[90.38496006074656,23.74147541194509],[90.38496122038396,23.741347272012714],[90.38513110726262,23.741351330743605],[90.38512356961955,23.74147889085728]]]]} },
{ "type": "Feature", "properties": { "id": 239, "image_url": "239.jpg", "name_en": "Res. Quarters 2 (near officers club)", "name_bn": "আবাসিক ভবন ২ (অফিসার্স ক্লাবের নিকট)", "name_en_short": null, "name_en_alias": null, "entrance_coords": [], "site_url": null, "color": "#FFE8FB", "area": "residential", "svg_type": 2, "labeling_priority": 1, "base_m": 0, "top_m": 15, "image": null }, "geometry": {"type":"MultiPolygon","coordinates":[[[[90.384915109,23.741428456],[90.384832389,23.741425672],[90.384833535,23.741384885],[90.384916747,23.741387506],[90.384915109,23.741428456]]]]} },
{ "type": "Feature", "properties": { "id": 240, "image_url": "240.jpg", "name_en": "Pump House (near officers club)", "name_bn": "পাম্প হাউস (অফিসার্স ক্লাবের নিকট)", "name_en_short": null, "name_en_alias": null, "entrance_coords": [], "site_url": null, "color": "#E0E4FF", "area": "residential", "svg_type": 2, "labeling_priority": 1, "base_m": 0, "top_m": 4, "image": null }, "geometry": {"type":"MultiPolygon","coordinates":[[[[90.38482158,23.741388178],[90.384802657,23.741387833],[90.384802904,23.741362608],[90.384822151,23.741362771],[90.38482158,23.741388178]]]]} },
{ "type": "Feature", "properties": { "id": 241, "image_url": "241.jpg", "name_en": "Staff Quarter (near officers Club)", "name_bn": "স্টাফ কোয়ার্টার (অফিসার্স ক্লাবের নিকট)", "name_en_short": null, "name_en_alias": null, "entrance_coords": [], "site_url": null, "color": "#E0E4FF", "area": "residential", "svg_type": 2, "labeling_priority": 1, "base_m": 0, "top_m": 9, "image": null }, "geometry": {"type":"MultiPolygon","coordinates":[[[[90.38558350998566,23.741486235002967],[90.38570301835868,23.741507762440104],[90.38574525424957,23.74134652624287],[90.38562622582984,23.741326316787188],[90.38558350998566,23.741486235002967]]]]} },
{ "type": "Feature", "properties": { "id": 242, "image_url": "242.jpg", "name_en": "Chairman's Banglo (Chaya Neer)", "name_bn": "চেয়ারম্যানের বাংলো (ছায়া নীড়)", "name_en_short": null, "name_en_alias": null, "entrance_coords": [90.38378906470368,23.740984794730636], "site_url": null, "color": "r", "area": "residential", "svg_type": 2, "labeling_priority": 10, "base_m": 0, "top_m": 6, "image": null }, "geometry": {"type":"MultiPolygon","coordinates":[[[[90.383865733,23.741014906],[90.383858503,23.741036726],[90.383912213,23.741052931],[90.383907541,23.741067139],[90.383937373,23.741075544],[90.383923614,23.741116493],[90.38389675,23.74110896],[90.383872834,23.741179149],[90.383836146,23.74116834],[90.383847609,23.741131974],[90.383799126,23.74111887],[90.383807314,23.741093317],[90.383793967,23.741089146],[90.38379922,23.741073017],[90.383764236,23.741063505],[90.383768655,23.741048846],[90.383787411,23.741053841],[90.383806006,23.740997758],[90.383865733,23.741014906]]]]} },
{ "type": "Feature", "properties": { "id": 243, "image_url": "243.jpg", "name_en": "Chairman's Bash Bhaban Garage & Quarter", "name_bn": "চেয়ারম্যানের বাসভবন গ্যারেজ ও কোয়ার্টার", "name_en_short": null, "name_en_alias": null, "entrance_coords": [], "site_url": null, "color": "#E0E4FF", "area": "residential", "svg_type": 2, "labeling_priority": 1, "base_m": 0, "top_m": 5, "image": null }, "geometry": {"type":"MultiPolygon","coordinates":[[[[90.384178416,23.741315988],[90.384175793,23.74139903],[90.384078166,23.741395424],[90.384081442,23.741312049],[90.384178416,23.741315988]]]]} },
{ "type": "Feature", "properties": { "id": 244, "image_url": "244.jpg", "name_en": "BCSIR Play Ground", "name_bn": "বিসিএসআইআর খেলার মাঠ", "name_en_short": null, "name_en_alias": null, "entrance_coords": [90.38790527966684,23.7404996508315], "site_url": null, "color": "#E0E4FF", "area": "residential", "svg_type": 2, "labeling_priority": 10, "base_m": 0, "top_m": 0.3, "image": null }, "geometry": {"type":"MultiPolygon","coordinates":[[[[90.38740023,23.74070905],[90.38740698,23.74025113],[90.3884097,23.74028143],[90.38839806,23.740741581],[90.38740023,23.74070905]]]]} },
{ "type": "Feature", "properties": { "id": 301, "image_url": "301.jpg", "name_en": "BCSIR Main Gate", "name_bn": "বিসিএসআইআর প্রধান গেট", "name_en_short": "Main Gate", "name_en_alias": null, "entrance_coords": [90.38500733,23.73903142], "site_url": null, "color": "b", "area": "office", "svg_type": 3, "labeling_priority": 10, "base_m": 0, "top_m": 7.4, "image": null, "building_model": "models/buildings/main-gate.glb", "model_rotation": 0, "model_size": 1, "wall_gap_m": 27.6 }, "geometry": {"type":"MultiPolygon","coordinates":[[[[90.38500745,23.73904406],[90.38499533,23.73902791],[90.38502784,23.73902945],[90.38500745,23.73904406]]]]} },
{ "type": "Feature", "properties": { "id": 302, "image_url": "302.jpg", "name_en": "BCSIR Secondary Gate", "name_bn": "বিসিএসআইআর সেকেন্ডারি গেট", "name_en_short": "Secondary Gate", "name_en_alias": null, "entrance_coords": [90.38639427,23.73961861], "site_url": null, "color": "#E0E4FF", "area": "office", "svg_type": 3, "labeling_priority": 1, "base_m": 0, "top_m": 3.5, "image": null }, "geometry": {"type":"MultiPolygon","coordinates":[[[[90.38639163,23.73962168],[90.38638647,23.73961498],[90.38639979,23.73961542],[90.38639163,23.73962168]]]]} },
{ "type": "Feature", "properties": { "id": 303, "image_url": "303.jpg", "name_en": "BCSIR Internal Residential Gate", "name_bn": "বিসিএসআইআর অভ্যন্তরীণ আবাসিক গেট", "name_en_short": "Internal Residential Gate", "name_en_alias": null, "entrance_coords": [90.38576127,23.74079911], "site_url": null, "color": "b", "area": "office", "svg_type": 3, "labeling_priority": 1, "base_m": 0, "top_m": 3.5, "image": null }, "geometry": {"type":"MultiPolygon","coordinates":[[[[90.38578467,23.74079845],[90.38576559,23.74080554],[90.38576469,23.74079417],[90.38578467,23.74079845]]]]} },
{ "type": "Feature", "properties": { "id": 304, "image_url": "304.jpg", "name_en": "BCSIR Chairman Gate", "name_bn": "বিসিএসআইআর চেয়ারম্যান গেট", "name_en_short": "Chairman Gate", "name_en_alias": null, "entrance_coords": [90.383520671,23.740845778], "site_url": null, "color": "#E0E4FF", "area": "residential", "svg_type": 3, "labeling_priority": 1, "base_m": 0, "top_m": 3.5, "image": null }, "geometry": {"type":"MultiPolygon","coordinates":[[[[90.383521796,23.740848414],[90.383521031,23.740846561],[90.383523955,23.740847055],[90.383521796,23.740848414]]]]} },
{ "type": "Feature", "properties": { "id": 305, "image_url": "305.jpg", "name_en": "BCSIR Residential School Gate", "name_bn": "বিসিএসআইআর আবাসিক স্কুল গেট", "name_en_short": "Residential School Gate", "name_en_alias": null, "entrance_coords": [90.385580075,23.741573052], "site_url": null, "color": "#E0E4FF", "area": "residential", "svg_type": 3, "labeling_priority": 1, "base_m": 0, "top_m": 3.5, "image": null }, "geometry": {"type":"MultiPolygon","coordinates":[[[[90.385600233,23.741574205],[90.385581515,23.741572681],[90.385590694,23.741565968],[90.385600233,23.741574205]]]]} }
]
}
