{
"type": "FeatureCollection",
"name": "Garden",
"crs": {"type":"name","properties":{"name":"urn:ogc:def:crs:OGC:1.3:CRS84"}},
"features": [
{ "type": "Feature", "properties": { "id": 1, "base_m": 0, "top_m": 0.03, "color": "#CDEBB0", "surface_model": "/models/grass.glb", "surface_scale": 0.01 }, "geometry": {"type":"Polygon","coordinates":[[[90.38468085960041,23.740022138043162],[90.38469634934339,23.740023829332173],[90.3847115353659,23.74002306477687],[90.38472621518767,23.74001982120886],[90.38474008508825,23.740014330311435],[90.38475243638656,23.740006151885705],[90.38476245916145,23.73999586513987],[90.38476995093257,23.739984443144106],[90.38477450673933,23.73997181639305],[90.38477663278248,23.739952493986326],[90.38477389929844,23.73993365811226],[90.38476306660236,23.73991259807272],[90.38475375250856,23.73990201013077],[90.38473765532466,23.739891723376708],[90.3847199382984,23.73988449484634],[90.38470394235465,23.739882363356546],[90.38468855385183,23.73988310474431],[90.38467357030962,23.73988607029531],[90.38466496489683,23.739889429708466],[90.38465291731895,23.739896843585477],[90.3846453243077,23.73990261250824],[90.38463530153281,23.739913849164278],[90.38462598743901,23.739930738899062],[90.38462284899437,23.73994401436808],[90.38462244403377,23.739958123896496],[90.38462376015572,23.73996824846684],[90.3846288221632,23.739981778783893],[90.3846335804503,23.739990351073075],[90.3846428945441,23.74000193524675],[90.38465392972049,23.740011017238185],[90.38466658473925,23.740017597047906],[90.38468085960041,23.740022138043162]]]} },
{ "type": "Feature", "properties": { "id": 2, "base_m": 0, "top_m": 0.03, "color": "#CDEBB0", "surface_model": "/models/grass.glb", "surface_scale": 0.01 }, "geometry": {"type":"Polygon","coordinates":[[[90.38392593711036,23.73953176756239],[90.38386519302027,23.739520276020635],[90.38385668884766,23.739560681759727],[90.38386640790206,23.739573656076967],[90.38388908569571,23.739584035529823],[90.38391297837113,23.73958996664537],[90.38392593711036,23.73953176756239]]]} },
{ "type": "Feature", "properties": { "id": 3, "base_m": 0, "top_m": 0.03, "color": "#CDEBB0", "surface_model": "/models/grass.glb", "surface_scale": 0.01 }, "geometry": {"type":"Polygon","coordinates":[[[90.38383158129041,23.739516939766396],[90.38365866311388,23.739482835829193],[90.38364853909886,23.73953584520599],[90.38381943247238,23.739568466350217],[90.38383158129041,23.739516939766396]]]} },
{ "type": "Feature", "properties": { "id": 4, "base_m": 0, "top_m": 0.03, "color": "#CDEBB0", "surface_model": "/models/grass.glb", "surface_scale": 0.01 }, "geometry": {"type":"Polygon","coordinates":[[[90.38385263924165,23.73961813944053],[90.38369146492255,23.73958625969818],[90.38368012602571,23.73963519139254],[90.383842110266,23.73966558834492],[90.38385263924165,23.73961813944053]]]} },
{ "type": "Feature", "properties": { "id": 5, "base_m": 0, "top_m": 0.03, "color": "#CDEBB0", "surface_model": "/models/grass.glb", "surface_scale": 0.01 }, "geometry": {"type":"Polygon","coordinates":[[[90.38485046216184,23.739043561492224],[90.38392553214972,23.738941249282085],[90.3839012345137,23.739034664781485],[90.38480186688976,23.73921556444701],[90.38485046216184,23.739043561492224]]]} },
{ "type": "Feature", "properties": { "id": 6, "base_m": 0, "top_m": 0.03, "color": "#CDEBB0", "surface_model": "/models/grass.glb", "surface_scale": 0.01 }, "geometry": {"type":"Polygon","coordinates":[[[90.38608478207288,23.739897642894046],[90.38608640191532,23.73981312467161],[90.38588878114213,23.739811641895287],[90.38588716129973,23.73987169432282],[90.38608478207288,23.739897642894046]]]} },
{ "type": "Feature", "properties": { "id": 7, "base_m": 0, "top_m": 0.03, "color": "#CDEBB0", "surface_model": "/models/grass.glb", "surface_scale": 0.01 }, "geometry": {"type":"Polygon","coordinates":[[[90.38586286366368,23.739640381116615],[90.38572112745341,23.73963667417087],[90.3856701024177,23.739836107702452],[90.38585962397885,23.7398657632201],[90.38586286366368,23.739640381116615]]]} },
{ "type": "Feature", "properties": { "id": 8, "base_m": 0, "top_m": 0.03, "color": "#CDEBB0", "surface_model": "/models/grass.glb", "surface_scale": 0.01 }, "geometry": {"type":"Polygon","coordinates":[[[90.38702105098177,23.740255732649192],[90.38702510058779,23.74007075680126],[90.38680480202099,23.740054075599662],[90.38677564485772,23.740220146133723],[90.38695544736446,23.740249060178282],[90.38702105098177,23.740255732649192]]]} },
{ "type": "Feature", "properties": { "id": 9, "base_m": 0, "top_m": 0.03, "color": "#CDEBB0", "surface_model": "/models/grass.glb", "surface_scale": 0.01 }, "geometry": {"type":"Polygon","coordinates":[[[90.38705344782984,23.740257215420463],[90.38724985372123,23.74027575005988],[90.38725775045287,23.74007024709792],[90.3870605346403,23.740062277190734],[90.3870590160381,23.740108706526964],[90.38705790239644,23.740142624953744],[90.38705344782984,23.740257215420463]]]} },
{ "type": "Feature", "properties": { "id": 10, "base_m": 0, "top_m": 0.03, "color": "#CDEBB0", "surface_model": "/models/grass.glb", "surface_scale": 0.01 }, "geometry": {"type":"Polygon","coordinates":[[[90.38692993484665,23.740290207076796],[90.38676390100034,23.740262405119775],[90.38668371880136,23.740739485879626],[90.3870611420813,23.740751348005247],[90.38705952223886,23.74069277874952],[90.38676309107912,23.740665347570065],[90.38676309107912,23.740654041474148],[90.38677442997593,23.740434221119212],[90.3868554220961,23.740443117734372],[90.3868643312293,23.740345810973032],[90.3869242653982,23.74035100066881],[90.38692993484665,23.740290207076796]]]} },
{ "type": "Feature", "properties": { "id": 11, "base_m": 0, "top_m": 0.03, "color": "#CDEBB0", "surface_model": "/models/grass.glb", "surface_scale": 0.01 }, "geometry": {"type":"Polygon","coordinates":[[[90.384765471056,23.739779982299936],[90.38475165177549,23.73982585569571],[90.3847552964209,23.739857550032454],[90.38476683779803,23.73987979166767],[90.38477959405695,23.739901477258343],[90.38478749078867,23.73992914028224],[90.3847882500894,23.739951312400198],[90.38478657962693,23.739971920650625],[90.38478096079858,23.739987246514332],[90.38477215290554,23.740000626235158],[90.38476288943178,23.740010773970553],[90.38474998131265,23.74002053942749],[90.38473768063439,23.7400260998297],[90.38472613925725,23.74003016587366],[90.38472021670887,23.740038402218687],[90.38470890312217,23.740080869778673],[90.3848631171805,23.740115552767506],[90.38489956363458,23.73996361479628],[90.38496395237011,23.739977446302362],[90.38496881189732,23.739907315686004],[90.38496698957461,23.73987006095275],[90.38495362587479,23.739836142454994],[90.38492343279239,23.73981260661091],[90.384765471056,23.739779982299936]]]} },
{ "type": "Feature", "properties": { "id": 12, "base_m": 0, "top_m": 0.03, "color": "#CDEBB0", "surface_model": "/models/grass.glb", "surface_scale": 0.01 }, "geometry": {"type":"Polygon","coordinates":[[[90.38513160605878,23.740444519414556],[90.38516197810384,23.740450635837057],[90.38523031520522,23.7401783157478],[90.38519781711702,23.740171017728397],[90.38513160605878,23.740444519414556]]]} },
{ "type": "Feature", "properties": { "id": 13, "base_m": 0, "top_m": 0.03, "color": "#CDEBB0", "surface_model": "/models/grass.glb", "surface_scale": 0.01 }, "geometry": {"type":"Polygon","coordinates":[[[90.3851777715673,23.740450705341853],[90.38537215265565,23.740491852176667],[90.38543714883208,23.740223146429507],[90.38524337518463,23.740183667628436],[90.3851777715673,23.740450705341853]]]} },
{ "type": "Feature", "properties": { "id": 15, "base_m": 0, "top_m": 0.03, "color": "#CDEBB0", "surface_model": "/models/grass.glb", "surface_scale": 0.01 }, "geometry": {"type":"Polygon","coordinates":[[[90.38498855372661,23.739982103140747],[90.38525066447546,23.740039653309047],[90.3852664579389,23.739943458327485],[90.38525734632537,23.739900365176876],[90.38523547845296,23.739871451054928],[90.38512279816572,23.739850182489963],[90.38508149218447,23.739858036568286],[90.3850432234077,23.73988361444835],[90.3850180146103,23.73991788045917],[90.38498855372661,23.739982103140747]]]} },
{ "type": "Feature", "properties": { "id": 16, "base_m": 0, "top_m": 0.03, "color": "#CDEBB0", "surface_model": "/models/grass.glb", "surface_scale": 0.01 }, "geometry": {"type":"Polygon","coordinates":[[[90.38529227417723,23.74004715985086],[90.38562150714564,23.740120001086023],[90.38566433172919,23.739962085684954],[90.38538213016058,23.739902728538365],[90.38536266139205,23.739899739631017],[90.38533821189574,23.739901824783807],[90.38532925214248,23.739915725801534],[90.38532278178295,23.73993382469816],[90.38529227417723,23.74004715985086]]]} },
{ "type": "Feature", "properties": { "id": 17, "base_m": 0, "top_m": 0.03, "color": "#CDEBB0", "surface_model": "/models/grass.glb", "surface_scale": 0.01 }, "geometry": {"type":"Polygon","coordinates":[[[90.38406190263207,23.73913108053482],[90.38378733934476,23.739072139854475],[90.3837736719245,23.73912774427061],[90.38401269991905,23.739177510202918],[90.38397746834681,23.7393251397562],[90.38393828840873,23.739514889360073],[90.38397534230369,23.739521561868592],[90.38406190263207,23.73913108053482]]]} },
{ "type": "Feature", "properties": { "id": 18, "base_m": 0, "top_m": 0.03, "color": "#CDEBB0", "surface_model": "/models/grass.glb", "surface_scale": 0.01 }, "geometry": {"type":"Polygon","coordinates":[[[90.38478202382042,23.739278432119015],[90.38409926024755,23.739136084930973],[90.38399356553076,23.739600102828522],[90.38433130267178,23.739670164105036],[90.38434709613519,23.739606497311662],[90.3840713179661,23.739547556846404],[90.38415150016505,23.73919724975738],[90.38476866012057,23.7393251397562],[90.38478202382042,23.739278432119015]]]} },
{ "type": "Feature", "properties": { "id": 19, "base_m": 0, "top_m": 0.03, "color": "#CDEBB0", "surface_model": "/models/grass.glb", "surface_scale": 0.01 }, "geometry": {"type":"Polygon","coordinates":[[[90.38376395287015,23.73906769150014],[90.3836127000858,23.739037665104544],[90.38356957178182,23.739232280508684],[90.38358779500884,23.73923617281379],[90.3836205968175,23.739095493712128],[90.38375119661124,23.73912329591818],[90.38376395287015,23.73906769150014]]]} },
{ "type": "Feature", "properties": { "id": 20, "base_m": 0, "top_m": 0.03, "color": "#CDEBB0", "surface_model": "/models/grass.glb", "surface_scale": 0.01 }, "geometry": {"type":"Polygon","coordinates":[[[90.38435863751238,23.739674334417924],[90.38467207701738,23.739736611074527],[90.38468787048079,23.739678226709827],[90.384373216094,23.739612613773513],[90.38435863751238,23.739674334417924]]]} },
{ "type": "Feature", "properties": { "id": 22, "base_m": 0, "top_m": 0.03, "color": "#CDEBB0", "surface_model": "/models/grass.glb", "surface_scale": 0.01 }, "geometry": {"type":"Polygon","coordinates":[[[90.3847065492886,23.73976858345364],[90.38409440072049,23.739646254308557],[90.38408711142966,23.73967628056389],[90.38459857666838,23.739776368031713],[90.38460586595922,23.73978971302161],[90.3845937171412,23.739838644639537],[90.38457913855959,23.739894248728525],[90.3845912873776,23.73989980913612],[90.38460951060462,23.739838644639537],[90.3846242410465,23.739812788730088],[90.38464838682229,23.739792632237968],[90.38468240351274,23.739791937186457],[90.38469683023416,23.739785264691797],[90.3847065492886,23.73976858345364]]]} },
{ "type": "Feature", "properties": { "id": 25, "base_m": 0, "top_m": 0.03, "color": "#CDEBB0", "surface_model": "/models/grass.glb", "surface_scale": 0.01 }, "geometry": {"type":"Polygon","coordinates":[[[90.38430328446046,23.74054113105461],[90.3842531705861,23.740528411684505],[90.38426045987693,23.74048615278476],[90.38380913128736,23.740405527214318],[90.38371862259311,23.740820053322842],[90.383768432747,23.740818941249206],[90.38400776446204,23.740852442463556],[90.38430875142853,23.740950652405385],[90.38439440059561,23.740988740883775],[90.38440776429545,23.740926464825733],[90.38424375525211,23.740871973250528],[90.38430328446046,23.74054113105461]]]} },
{ "type": "Feature", "properties": { "id": 26, "base_m": 0, "top_m": 0.03, "color": "#CDEBB0", "surface_model": "/models/grass.glb", "surface_scale": 0.01 }, "geometry": {"type":"Polygon","coordinates":[[[90.38352363406389,23.740821999451704],[90.38367792405276,23.740815327009795],[90.383787263415,23.740300435878627],[90.38327215353085,23.74021925415386],[90.38352363406389,23.740821999451704]]]} },
{ "type": "Feature", "properties": { "id": 27, "base_m": 0, "top_m": 0.03, "color": "#CDEBB0", "surface_model": "/models/grass.glb", "surface_scale": 0.01 }, "geometry": {"type":"Polygon","coordinates":[[[90.38416752141907,23.740363824313476],[90.38383327706322,23.74030113092744],[90.38381490197598,23.740385787842914],[90.38414899447156,23.740443059813664],[90.38416752141907,23.740363824313476]]]} },
{ "type": "Feature", "properties": { "id": 29, "base_m": 0, "top_m": 0.03, "color": "#CDEBB0", "surface_model": "/models/grass.glb", "surface_scale": 0.01 }, "geometry": {"type":"Polygon","coordinates":[[[90.38382439324003,23.740123893364622],[90.38370169017804,23.740095535332195],[90.38368832647822,23.740146690994056],[90.3835644085344,23.74011888900641],[90.38358870617041,23.74001435347974],[90.38332993634654,23.73995652528002],[90.38327283690182,23.740181165450508],[90.3837867319042,23.740270131747575],[90.38382439324003,23.740123893364622]]]} },
{ "type": "Feature", "properties": { "id": 30, "base_m": 0, "top_m": 0.03, "color": "#CDEBB0", "surface_model": "/models/grass.glb", "surface_scale": 0.01 }, "geometry": {"type":"Polygon","coordinates":[[[90.38446585083162,23.740573728778887],[90.3843334287152,23.740547316977334],[90.3842811887977,23.740853137509422],[90.38440267697793,23.740892060071094],[90.38446585083162,23.740573728778887]]]} },
{ "type": "Feature", "properties": { "id": 31, "base_m": 0, "top_m": 0.03, "color": "#CDEBB0", "surface_model": "/models/grass.glb", "surface_scale": 0.01 }, "geometry": {"type":"Polygon","coordinates":[[[90.3844500573682,23.74090540494671],[90.38467724026522,23.740988810388302],[90.38475499270056,23.740500609778337],[90.38454360326699,23.740459462946287],[90.3844500573682,23.74090540494671]]]} },
{ "type": "Feature", "properties": { "id": 40, "base_m": 0, "top_m": 0.03, "color": "#CDEBB0", "surface_model": "/models/grass.glb", "surface_scale": 0.01 }, "geometry": {"type":"Polygon","coordinates":[[[90.38440875138694,23.73994123416521],[90.3841609154993,23.73989119050426],[90.38414633691768,23.73995235497616],[90.3843893132781,23.740004622774844],[90.38440875138694,23.73994123416521]]]} },
{ "type": "Feature", "properties": { "id": 41, "base_m": 0, "top_m": 0.03, "color": "#CDEBB0", "surface_model": "/models/grass.glb", "surface_scale": 0.01 }, "geometry": {"type":"Polygon","coordinates":[[[90.3866304664828,23.74071051402334],[90.38630882652568,23.74067937593154],[90.3863234051073,23.740590409913946],[90.38619948716347,23.740583737460174],[90.38618247881824,23.740731643438533],[90.38662712555787,23.74073164343854],[90.3866304664828,23.74071051402334]]]} },
{ "type": "Feature", "properties": { "id": 42, "base_m": 0, "top_m": 0.03, "color": "#CDEBB0", "surface_model": "/models/grass.glb", "surface_scale": 0.01 }, "geometry": {"type":"Polygon","coordinates":[[[90.38617822673191,23.740583737460174],[90.38608407339225,23.740581513308843],[90.3860664576061,23.740674927632096],[90.38600632095692,23.74066658707024],[90.38600206887061,23.74073275551292],[90.3861630407094,23.74073275551292],[90.38617822673191,23.740583737460174]]]} },
{ "type": "Feature", "properties": { "id": 43, "base_m": 0, "top_m": 0.03, "color": "#CDEBB0", "surface_model": "/models/grass.glb", "surface_scale": 0.01 }, "geometry": {"type":"Polygon","coordinates":[[[90.38599234981619,23.74066603103277],[90.38593646525328,23.74065713443283],[90.38592978340336,23.740731643438533],[90.38598992005257,23.740732199475726],[90.38599234981619,23.74066603103277]]]} },
{ "type": "Feature", "properties": { "id": 45, "base_m": 0, "top_m": 0.03, "color": "#CDEBB0", "surface_model": "/models/grass.glb", "surface_scale": 0.01 }, "geometry": {"type":"Polygon","coordinates":[[[90.38671155984306,23.73997487461541],[90.38671155984306,23.73965014660131],[90.38642363285595,23.739641249931992],[90.38642970726495,23.73993928802322],[90.38671155984306,23.73997487461541]]]} },
{ "type": "Feature", "properties": { "id": 55, "base_m": 0, "top_m": 0.03, "color": "#CDEBB0", "surface_model": "/models/grass.glb", "surface_scale": 0.01 }, "geometry": {"type":"Polygon","coordinates":[[[90.38402320358509,23.74088618693538],[90.38400376547632,23.74125789683028],[90.38412039412934,23.74126456924952],[90.38412160901115,23.741297931340576],[90.3842030060919,23.74130237961874],[90.38419936144649,23.741463629599597],[90.38478128982976,23.7414825347567],[90.38478614935694,23.74117643768453],[90.38472662014864,23.74116309283668],[90.38430080407697,23.740980157076304],[90.38402320358509,23.74088618693538]]]} },
{ "type": "Feature", "properties": { "id": 56, "base_m": 0, "top_m": 0.03, "color": "#CDEBB0", "surface_model": "/models/grass.glb", "surface_scale": 0.01 }, "geometry": {"type":"Polygon","coordinates":[[[90.38442087489503,23.740998042904124],[90.38476711620869,23.741143724270348],[90.38507002673806,23.741184500196088],[90.38508582020147,23.741064025833182],[90.38467438023109,23.74101880158204],[90.38443383363428,23.740933542705207],[90.38442087489503,23.740998042904124]]]} }
]
}
