{
"type": "FeatureCollection",
"name": "walls",
"crs": {"type":"name","properties":{"name":"urn:ogc:def:crs:OGC:1.3:CRS84"}},
"features": [
{"type":"Feature","properties":{"id":1,"kind":"partition"},"geometry":{"type":"LineString","coordinates":[[90.40225202,24.22149246],[90.40223842,24.22155043]]}},
{"type":"Feature","properties":{"id":2,"kind":"partition"},"geometry":{"type":"LineString","coordinates":[[90.40227058,24.22141337],[90.40225698,24.22147135]]}},
{"type":"Feature","properties":{"id":3,"kind":"partition"},"geometry":{"type":"LineString","coordinates":[[90.4022031,24.22148291],[90.4021895,24.22154089]]}},
{"type":"Feature","properties":{"id":4,"kind":"partition"},"geometry":{"type":"LineString","coordinates":[[90.40222166,24.22140383],[90.40220805,24.2214618]]}},
{"type":"Feature","properties":{"id":5,"kind":"partition"},"geometry":{"type":"LineString","coordinates":[[90.40214737,24.22150235],[90.40212773,24.22149852]]}},
{"type":"Feature","properties":{"id":6,"kind":"partition"},"geometry":{"type":"LineString","coordinates":[[90.40211809,24.22149664],[90.40209845,24.2214928]]}},
{"type":"Feature","properties":{"id":7,"kind":"partition"},"geometry":{"type":"LineString","coordinates":[[90.40215418,24.22147336],[90.40214057,24.22153134]]}},
{"type":"Feature","properties":{"id":8,"kind":"partition"},"geometry":{"type":"LineString","coordinates":[[90.40217273,24.22139428],[90.40215913,24.22145226]]}},
{"type":"Feature","properties":{"id":9,"kind":"partition"},"geometry":{"type":"LineString","coordinates":[[90.40210525,24.22146381],[90.40209165,24.22152179]]}},
{"type":"Feature","properties":{"id":10,"kind":"partition"},"geometry":{"type":"LineString","coordinates":[[90.40212381,24.22138473],[90.4021102,24.22144271]]}},
{"type":"Feature","properties":{"id":11,"kind":"partition"},"geometry":{"type":"LineString","coordinates":[[90.40205633,24.22145427],[90.40204272,24.22151224]]}},
{"type":"Feature","properties":{"id":12,"kind":"partition"},"geometry":{"type":"LineString","coordinates":[[90.40207488,24.22137518],[90.40206128,24.22143316]]}},
{"type":"Feature","properties":{"id":13,"kind":"partition"},"geometry":{"type":"LineString","coordinates":[[90.4020074,24.22144472],[90.4019938,24.2215027]]}},
{"type":"Feature","properties":{"id":14,"kind":"partition"},"geometry":{"type":"LineString","coordinates":[[90.40202596,24.22136564],[90.40201236,24.22142361]]}},
{"type":"Feature","properties":{"id":15,"kind":"corridor"},"geometry":{"type":"LineString","coordinates":[[90.40230095,24.221502],[90.40228131,24.22149817]]}},
{"type":"Feature","properties":{"id":16,"kind":"corridor"},"geometry":{"type":"LineString","coordinates":[[90.40227167,24.22149629],[90.40223238,24.22148862]]}},
{"type":"Feature","properties":{"id":17,"kind":"corridor"},"geometry":{"type":"LineString","coordinates":[[90.40222274,24.22148674],[90.40218346,24.22147908]]}},
{"type":"Feature","properties":{"id":18,"kind":"corridor"},"geometry":{"type":"LineString","coordinates":[[90.40217382,24.22147719],[90.40215418,24.22147336]]}},
{"type":"Feature","properties":{"id":19,"kind":"corridor"},"geometry":{"type":"LineString","coordinates":[[90.40210525,24.22146381],[90.40208561,24.22145998]]}},
{"type":"Feature","properties":{"id":20,"kind":"corridor"},"geometry":{"type":"LineString","coordinates":[[90.40207597,24.2214581],[90.40203669,24.22145043]]}},
{"type":"Feature","properties":{"id":21,"kind":"corridor"},"geometry":{"type":"LineString","coordinates":[[90.40202704,24.22144855],[90.40198776,24.22144089]]}},
{"type":"Feature","properties":{"id":22,"kind":"corridor"},"geometry":{"type":"LineString","coordinates":[[90.40197812,24.221439],[90.40195848,24.22143517]]}},
{"type":"Feature","properties":{"id":23,"kind":"corridor"},"geometry":{"type":"LineString","coordinates":[[90.4023059,24.2214809],[90.40228626,24.22147707]]}},
{"type":"Feature","properties":{"id":24,"kind":"corridor"},"geometry":{"type":"LineString","coordinates":[[90.40227662,24.22147518],[90.40223734,24.22146752]]}},
{"type":"Feature","properties":{"id":25,"kind":"corridor"},"geometry":{"type":"LineString","coordinates":[[90.40222769,24.22146564],[90.40218841,24.22145797]]}},
{"type":"Feature","properties":{"id":26,"kind":"corridor"},"geometry":{"type":"LineString","coordinates":[[90.40217877,24.22145609],[90.40213949,24.22144842]]}},
{"type":"Feature","properties":{"id":27,"kind":"corridor"},"geometry":{"type":"LineString","coordinates":[[90.40212984,24.22144654],[90.40209056,24.22143888]]}},
{"type":"Feature","properties":{"id":28,"kind":"corridor"},"geometry":{"type":"LineString","coordinates":[[90.40208092,24.22143699],[90.40204164,24.22142933]]}},
{"type":"Feature","properties":{"id":29,"kind":"corridor"},"geometry":{"type":"LineString","coordinates":[[90.402032,24.22142745],[90.40199271,24.22141978]]}},
{"type":"Feature","properties":{"id":30,"kind":"corridor"},"geometry":{"type":"LineString","coordinates":[[90.40198307,24.2214179],[90.40196343,24.22141407]]}},
{"type":"Feature","properties":{"id":31,"kind":"outer"},"geometry":{"type":"LineString","coordinates":[[90.40231951,24.22142292],[90.40197703,24.22135609]]}},
{"type":"Feature","properties":{"id":32,"kind":"outer"},"geometry":{"type":"LineString","coordinates":[[90.40228735,24.22155998],[90.40194487,24.22149315]]}},
{"type":"Feature","properties":{"id":33,"kind":"outer"},"geometry":{"type":"LineString","coordinates":[[90.40231951,24.22142292],[90.40228735,24.22155998]]}},
{"type":"Feature","properties":{"id":34,"kind":"outer"},"geometry":{"type":"LineString","coordinates":[[90.40197703,24.22135609],[90.40194487,24.22149315]]}}
]
}
