{
"type": "FeatureCollection",
"name": "shops",
"crs": {"type":"name","properties":{"name":"urn:ogc:def:crs:OGC:1.3:CRS84"}},
"features": [
{"type":"Feature","properties":{"id":"L07-01","name":"Sample Room","class":"office","room_number":"701"},"geometry":{"type":"Polygon","coordinates":[[[90.40341617,24.22175015],[90.40348438,24.22176346],[90.40346517,24.22184532],[90.40339696,24.22183201],[90.40341617,24.22175015]]]}},
{"type":"Feature","properties":{"id":"L07-02","name":"Meeting Room","class":"meeting","room_number":"702"},"geometry":{"type":"Polygon","coordinates":[[[90.40344156,24.2216419],[90.40350978,24.22165521],[90.40349057,24.22173707],[90.40342236,24.22172376],[90.40344156,24.2216419]]]}},
{"type":"Feature","properties":{"id":"L07-03","name":"Production Hall 703","class":"production","room_number":"703"},"geometry":{"type":"Polygon","coordinates":[[[90.40348438,24.22176346],[90.4035526,24.22177677],[90.40353339,24.22185863],[90.40346517,24.22184532],[90.40348438,24.22176346]]]}},
{"type":"Feature","properties":{"id":"L07-04","name":"Production Hall 704","class":"production","room_number":"704"},"geometry":{"type":"Polygon","coordinates":[[[90.40350978,24.22165521],[90.403578,24.22166852],[90.40355879,24.22175039],[90.40349057,24.22173707],[90.40350978,24.22165521]]]}},
{"type":"Feature","properties":{"id":"L07-05","name":"Production Hall 705","class":"production","room_number":"705"},"geometry":{"type":"Polygon","coordinates":[[[90.4035526,24.22177677],[90.40362081,24.22179008],[90.4036016,24.22187194],[90.40353339,24.22185863],[90.4035526,24.22177677]]]}},
{"type":"Feature","properties":{"id":"L07-06","name":"Production Hall 706","class":"production","room_number":"706"},"geometry":{"type":"Polygon","coordinates":[[[90.403578,24.22166852],[90.40364621,24.22168183],[90.403627,24.2217637],[90.40355879,24.22175039],[90.403578,24.22166852]]]}},
{"type":"Feature","properties":{"id":"L07-07","name":"Store","class":"store","room_number":"707"},"geometry":{"type":"Polygon","coordinates":[[[90.4036138,24.22181998],[90.40368201,24.22183329],[90.40366982,24.22188526],[90.4036016,24.22187194],[90.4036138,24.22181998]]]}},
{"type":"Feature","properties":{"id":"L07-08","name":"Production Hall 708","class":"production","room_number":"708"},"geometry":{"type":"Polygon","coordinates":[[[90.40364621,24.22168183],[90.40371443,24.22169515],[90.40369522,24.22177701],[90.403627,24.2217637],[90.40364621,24.22168183]]]}},
{"type":"Feature","properties":{"id":"L07-09","name":"Production Hall 709","class":"production","room_number":"709"},"geometry":{"type":"Polygon","coordinates":[[[90.40368903,24.22180339],[90.40375724,24.2218167],[90.40373803,24.22189857],[90.40366982,24.22188526],[90.40368903,24.22180339]]]}},
{"type":"Feature","properties":{"id":"L07-10","name":"Production Hall 710","class":"production","room_number":"710"},"geometry":{"type":"Polygon","coordinates":[[[90.40371443,24.22169515],[90.40378264,24.22170846],[90.40376343,24.22179032],[90.40369522,24.22177701],[90.40371443,24.22169515]]]}},
{"type":"Feature","properties":{"id":"L07-11","name":"Production Hall 711","class":"production","room_number":"711"},"geometry":{"type":"Polygon","coordinates":[[[90.40375724,24.2218167],[90.40382546,24.22183002],[90.40380625,24.22191188],[90.40373803,24.22189857],[90.40375724,24.2218167]]]}},
{"type":"Feature","properties":{"id":"L07-12","name":"Production Hall 712","class":"production","room_number":"712"},"geometry":{"type":"Polygon","coordinates":[[[90.40378264,24.22170846],[90.40385086,24.22172177],[90.40383165,24.22180363],[90.40376343,24.22179032],[90.40378264,24.22170846]]]}},
{"type":"Feature","properties":{"id":"L07-13","name":"Washroom","class":"toilet","room_number":"713"},"geometry":{"type":"Polygon","coordinates":[[[90.40382546,24.22183002],[90.40389367,24.22184333],[90.40387447,24.22192519],[90.40380625,24.22191188],[90.40382546,24.22183002]]]}},
{"type":"Feature","properties":{"id":"L07-14","name":"Production Hall 714","class":"production","room_number":"714"},"geometry":{"type":"Polygon","coordinates":[[[90.40385086,24.22172177],[90.40391907,24.22173508],[90.40389986,24.22181694],[90.40383165,24.22180363],[90.40385086,24.22172177]]]}}
]
}
