{
"type": "FeatureCollection",
"name": "pois",
"crs": {"type":"name","properties":{"name":"urn:ogc:def:crs:OGC:1.3:CRS84"}},
"features": [
{"type":"Feature","properties":{"id":"lift-a","name":"Lift A","class":"lift"},"geometry":{"type":"Point","coordinates":[90.40226498,24.22106308]}},
{"type":"Feature","properties":{"id":"stair-1","name":"Stair 1","class":"stairs"},"geometry":{"type":"Point","coordinates":[90.40230166,24.22107023]}},
{"type":"Feature","properties":{"id":"stair-2","name":"Stair 2","class":"stairs"},"geometry":{"type":"Point","coordinates":[90.40206224,24.22105606]}}
]
}
