{
"type": "FeatureCollection",
"name": "furniture",
"crs": {"type":"name","properties":{"name":"urn:ogc:def:crs:OGC:1.3:CRS84"}},
"features": [
{"type":"Feature","properties":{"id":"L05-F001","kind":"desk","room":"L05-01"},"geometry":{"type":"Polygon","coordinates":[[[90.38474149,23.74027178],[90.3847271,23.74026889],[90.3847255,23.74027556],[90.38473989,23.74027846],[90.38474149,23.74027178]]]}},
{"type":"Feature","properties":{"id":"L05-F002","kind":"chair","room":"L05-01","height_m":1},"geometry":{"type":"Polygon","coordinates":[[[90.38473528,23.74027882],[90.38472952,23.74027766],[90.38472834,23.74028258],[90.3847341,23.74028374],[90.38473528,23.74027882]]]}},
{"type":"Feature","properties":{"id":"L05-F003","kind":"chair","room":"L05-01"},"geometry":{"type":"Polygon","coordinates":[[[90.38474251,23.74026628],[90.3847382,23.74026541],[90.38473725,23.74026936],[90.38474157,23.74027023],[90.38474251,23.74026628]]]}},
{"type":"Feature","properties":{"id":"L05-F004","kind":"chair","room":"L05-01"},"geometry":{"type":"Polygon","coordinates":[[[90.38473302,23.74026437],[90.3847287,23.7402635],[90.38472775,23.74026745],[90.38473207,23.74026832],[90.38473302,23.74026437]]]}},
{"type":"Feature","properties":{"id":"L05-F005","kind":"cabinet","room":"L05-01"},"geometry":{"type":"Polygon","coordinates":[[[90.38474366,23.74030743],[90.3847301,23.7403047],[90.38472921,23.74030839],[90.38474277,23.74031112],[90.38474366,23.74030743]]]}},
{"type":"Feature","properties":{"id":"L05-F006","kind":"plant","room":"L05-01"},"geometry":{"type":"Polygon","coordinates":[[[90.38471401,23.74030054],[90.3847095,23.74029963],[90.3847085,23.74030376],[90.38471301,23.74030467],[90.38471401,23.74030054]]]}},
{"type":"Feature","properties":{"id":"L05-F007","kind":"desk","room":"L05-02"},"geometry":{"type":"Polygon","coordinates":[[[90.3847028,23.740264],[90.38468841,23.7402611],[90.38468681,23.74026778],[90.3847012,23.74027067],[90.3847028,23.740264]]]}},
{"type":"Feature","properties":{"id":"L05-F008","kind":"chair","room":"L05-02","height_m":1},"geometry":{"type":"Polygon","coordinates":[[[90.38469659,23.74027103],[90.38469083,23.74026987],[90.38468965,23.74027479],[90.38469541,23.74027595],[90.38469659,23.74027103]]]}},
{"type":"Feature","properties":{"id":"L05-F009","kind":"chair","room":"L05-02"},"geometry":{"type":"Polygon","coordinates":[[[90.38470383,23.74025849],[90.38469951,23.74025762],[90.38469856,23.74026158],[90.38470288,23.74026245],[90.38470383,23.74025849]]]}},
{"type":"Feature","properties":{"id":"L05-F010","kind":"chair","room":"L05-02"},"geometry":{"type":"Polygon","coordinates":[[[90.38469433,23.74025658],[90.38469001,23.74025571],[90.38468906,23.74025966],[90.38469338,23.74026053],[90.38469433,23.74025658]]]}},
{"type":"Feature","properties":{"id":"L05-F011","kind":"cabinet","room":"L05-02"},"geometry":{"type":"Polygon","coordinates":[[[90.38470497,23.74029964],[90.38469141,23.74029691],[90.38469052,23.7403006],[90.38470408,23.74030333],[90.38470497,23.74029964]]]}},
{"type":"Feature","properties":{"id":"L05-F012","kind":"plant","room":"L05-02"},"geometry":{"type":"Polygon","coordinates":[[[90.38467532,23.74029275],[90.38467081,23.74029185],[90.38466981,23.74029597],[90.38467432,23.74029688],[90.38467532,23.74029275]]]}},
{"type":"Feature","properties":{"id":"L05-F013","kind":"rack","room":"L05-03"},"geometry":{"type":"Polygon","coordinates":[[[90.38467583,23.74022697],[90.3846138,23.74021448],[90.38461243,23.74022019],[90.38467446,23.74023267],[90.38467583,23.74022697]]]}},
{"type":"Feature","properties":{"id":"L05-F014","kind":"rack","room":"L05-03"},"geometry":{"type":"Polygon","coordinates":[[[90.38467182,23.74024365],[90.38460979,23.74023117],[90.38460842,23.74023688],[90.38467045,23.74024936],[90.38467182,23.74024365]]]}},
{"type":"Feature","properties":{"id":"L05-F015","kind":"rack","room":"L05-03"},"geometry":{"type":"Polygon","coordinates":[[[90.38466781,23.74026034],[90.38460578,23.74024786],[90.38460441,23.74025357],[90.38466644,23.74026605],[90.38466781,23.74026034]]]}},
{"type":"Feature","properties":{"id":"L05-F016","kind":"rack","room":"L05-03"},"geometry":{"type":"Polygon","coordinates":[[[90.3846638,23.74027703],[90.38460178,23.74026455],[90.3846004,23.74027026],[90.38466243,23.74028274],[90.3846638,23.74027703]]]}},
{"type":"Feature","properties":{"id":"L05-F017","kind":"cabinet","room":"L05-03","color":"#cbd5e1","height_m":1.9},"geometry":{"type":"Polygon","coordinates":[[[90.38466602,23.74029291],[90.38465451,23.74029059],[90.38465377,23.74029367],[90.38466529,23.74029598],[90.38466602,23.74029291]]]}},
{"type":"Feature","properties":{"id":"L05-F018","kind":"desk","room":"L05-04"},"geometry":{"type":"Polygon","coordinates":[[[90.38476782,23.74017753],[90.38475458,23.74017486],[90.38475314,23.74018083],[90.38476638,23.7401835],[90.38476782,23.74017753]]]}},
{"type":"Feature","properties":{"id":"L05-F019","kind":"desk","room":"L05-04"},"geometry":{"type":"Polygon","coordinates":[[[90.38475439,23.74017482],[90.38474114,23.74017216],[90.38473971,23.74017813],[90.38475295,23.74018079],[90.38475439,23.74017482]]]}},
{"type":"Feature","properties":{"id":"L05-F020","kind":"desk","room":"L05-04"},"geometry":{"type":"Polygon","coordinates":[[[90.3847693,23.74017138],[90.38475605,23.74016871],[90.38475462,23.74017468],[90.38476786,23.74017735],[90.3847693,23.74017138]]]}},
{"type":"Feature","properties":{"id":"L05-F021","kind":"desk","room":"L05-04"},"geometry":{"type":"Polygon","coordinates":[[[90.38475586,23.74016867],[90.38474262,23.74016601],[90.38474119,23.74017198],[90.38475443,23.74017465],[90.38475586,23.74016867]]]}},
{"type":"Feature","properties":{"id":"L05-F022","kind":"chair","room":"L05-04"},"geometry":{"type":"Polygon","coordinates":[[[90.38476591,23.74016536],[90.38476169,23.74016451],[90.38476076,23.74016837],[90.38476499,23.74016922],[90.38476591,23.74016536]]]}},
{"type":"Feature","properties":{"id":"L05-F023","kind":"chair","room":"L05-04"},"geometry":{"type":"Polygon","coordinates":[[[90.38474809,23.74018092],[90.38474387,23.74018007],[90.38474294,23.74018394],[90.38474716,23.74018479],[90.38474809,23.74018092]]]}},
{"type":"Feature","properties":{"id":"L05-F024","kind":"chair","room":"L05-04"},"geometry":{"type":"Polygon","coordinates":[[[90.38475248,23.74016265],[90.38474826,23.7401618],[90.38474733,23.74016567],[90.38475155,23.74016652],[90.38475248,23.74016265]]]}},
{"type":"Feature","properties":{"id":"L05-F025","kind":"desk","room":"L05-04"},"geometry":{"type":"Polygon","coordinates":[[[90.38477457,23.74014942],[90.38476133,23.74014675],[90.38475989,23.74015273],[90.38477314,23.74015539],[90.38477457,23.74014942]]]}},
{"type":"Feature","properties":{"id":"L05-F026","kind":"desk","room":"L05-04"},"geometry":{"type":"Polygon","coordinates":[[[90.38476114,23.74014671],[90.3847479,23.74014405],[90.38474646,23.74015002],[90.3847597,23.74015269],[90.38476114,23.74014671]]]}},
{"type":"Feature","properties":{"id":"L05-F027","kind":"desk","room":"L05-04"},"geometry":{"type":"Polygon","coordinates":[[[90.38477605,23.74014327],[90.38476281,23.7401406],[90.38476137,23.74014658],[90.38477461,23.74014924],[90.38477605,23.74014327]]]}},
{"type":"Feature","properties":{"id":"L05-F028","kind":"desk","room":"L05-04"},"geometry":{"type":"Polygon","coordinates":[[[90.38476261,23.74014057],[90.38474937,23.7401379],[90.38474794,23.74014387],[90.38476118,23.74014654],[90.38476261,23.74014057]]]}},
{"type":"Feature","properties":{"id":"L05-F029","kind":"chair","room":"L05-04"},"geometry":{"type":"Polygon","coordinates":[[[90.38476828,23.74015552],[90.38476405,23.74015467],[90.38476313,23.74015853],[90.38476735,23.74015938],[90.38476828,23.74015552]]]}},
{"type":"Feature","properties":{"id":"L05-F030","kind":"chair","room":"L05-04"},"geometry":{"type":"Polygon","coordinates":[[[90.38477267,23.74013725],[90.38476844,23.7401364],[90.38476751,23.74014026],[90.38477174,23.74014111],[90.38477267,23.74013725]]]}},
{"type":"Feature","properties":{"id":"L05-F031","kind":"chair","room":"L05-04"},"geometry":{"type":"Polygon","coordinates":[[[90.38475484,23.74015281],[90.38475062,23.74015196],[90.38474969,23.74015583],[90.38475391,23.74015668],[90.38475484,23.74015281]]]}},
{"type":"Feature","properties":{"id":"L05-F032","kind":"chair","room":"L05-04"},"geometry":{"type":"Polygon","coordinates":[[[90.38475923,23.74013454],[90.38475501,23.74013369],[90.38475408,23.74013756],[90.3847583,23.74013841],[90.38475923,23.74013454]]]}},
{"type":"Feature","properties":{"id":"L05-F033","kind":"desk","room":"L05-04"},"geometry":{"type":"Polygon","coordinates":[[[90.38473328,23.74017057],[90.38472003,23.74016791],[90.3847186,23.74017388],[90.38473184,23.74017655],[90.38473328,23.74017057]]]}},
{"type":"Feature","properties":{"id":"L05-F034","kind":"desk","room":"L05-04"},"geometry":{"type":"Polygon","coordinates":[[[90.38471984,23.74016787],[90.3847066,23.7401652],[90.38470517,23.74017118],[90.38471841,23.74017384],[90.38471984,23.74016787]]]}},
{"type":"Feature","properties":{"id":"L05-F035","kind":"desk","room":"L05-04"},"geometry":{"type":"Polygon","coordinates":[[[90.38473475,23.74016442],[90.38472151,23.74016176],[90.38472008,23.74016773],[90.38473332,23.7401704],[90.38473475,23.74016442]]]}},
{"type":"Feature","properties":{"id":"L05-F036","kind":"desk","room":"L05-04"},"geometry":{"type":"Polygon","coordinates":[[[90.38472132,23.74016172],[90.38470808,23.74015906],[90.38470664,23.74016503],[90.38471988,23.74016769],[90.38472132,23.74016172]]]}},
{"type":"Feature","properties":{"id":"L05-F037","kind":"chair","room":"L05-04"},"geometry":{"type":"Polygon","coordinates":[[[90.38472698,23.74017667],[90.38472276,23.74017582],[90.38472183,23.74017969],[90.38472605,23.74018054],[90.38472698,23.74017667]]]}},
{"type":"Feature","properties":{"id":"L05-F038","kind":"chair","room":"L05-04"},"geometry":{"type":"Polygon","coordinates":[[[90.38473137,23.7401584],[90.38472715,23.74015755],[90.38472622,23.74016142],[90.38473044,23.74016227],[90.38473137,23.7401584]]]}},
{"type":"Feature","properties":{"id":"L05-F039","kind":"chair","room":"L05-04"},"geometry":{"type":"Polygon","coordinates":[[[90.38471355,23.74017397],[90.38470933,23.74017312],[90.3847084,23.74017698],[90.38471262,23.74017783],[90.38471355,23.74017397]]]}},
{"type":"Feature","properties":{"id":"L05-F040","kind":"chair","room":"L05-04"},"geometry":{"type":"Polygon","coordinates":[[[90.38471794,23.7401557],[90.38471372,23.74015485],[90.38471279,23.74015871],[90.38471701,23.74015956],[90.38471794,23.7401557]]]}},
{"type":"Feature","properties":{"id":"L05-F041","kind":"desk","room":"L05-04"},"geometry":{"type":"Polygon","coordinates":[[[90.38474003,23.74014247],[90.38472679,23.7401398],[90.38472535,23.74014577],[90.38473859,23.74014844],[90.38474003,23.74014247]]]}},
{"type":"Feature","properties":{"id":"L05-F042","kind":"desk","room":"L05-04"},"geometry":{"type":"Polygon","coordinates":[[[90.38472659,23.74013976],[90.38471335,23.7401371],[90.38471192,23.74014307],[90.38472516,23.74014573],[90.38472659,23.74013976]]]}},
{"type":"Feature","properties":{"id":"L05-F043","kind":"desk","room":"L05-04"},"geometry":{"type":"Polygon","coordinates":[[[90.3847415,23.74013632],[90.38472826,23.74013365],[90.38472683,23.74013962],[90.38474007,23.74014229],[90.3847415,23.74013632]]]}},
{"type":"Feature","properties":{"id":"L05-F044","kind":"desk","room":"L05-04"},"geometry":{"type":"Polygon","coordinates":[[[90.38472807,23.74013361],[90.38471483,23.74013095],[90.38471339,23.74013692],[90.38472664,23.74013959],[90.38472807,23.74013361]]]}},
{"type":"Feature","properties":{"id":"L05-F045","kind":"chair","room":"L05-04"},"geometry":{"type":"Polygon","coordinates":[[[90.38473373,23.74014857],[90.38472951,23.74014772],[90.38472858,23.74015158],[90.38473281,23.74015243],[90.38473373,23.74014857]]]}},
{"type":"Feature","properties":{"id":"L05-F046","kind":"chair","room":"L05-04"},"geometry":{"type":"Polygon","coordinates":[[[90.38473812,23.7401303],[90.3847339,23.74012945],[90.38473297,23.74013331],[90.38473719,23.74013416],[90.38473812,23.7401303]]]}},
{"type":"Feature","properties":{"id":"L05-F047","kind":"chair","room":"L05-04"},"geometry":{"type":"Polygon","coordinates":[[[90.3847203,23.74014586],[90.38471608,23.74014501],[90.38471515,23.74014888],[90.38471937,23.74014973],[90.3847203,23.74014586]]]}},
{"type":"Feature","properties":{"id":"L05-F048","kind":"chair","room":"L05-04"},"geometry":{"type":"Polygon","coordinates":[[[90.38472469,23.74012759],[90.38472047,23.74012674],[90.38471954,23.74013061],[90.38472376,23.74013146],[90.38472469,23.74012759]]]}},
{"type":"Feature","properties":{"id":"L05-F049","kind":"desk","room":"L05-04"},"geometry":{"type":"Polygon","coordinates":[[[90.38469873,23.74016362],[90.38468549,23.74016095],[90.38468406,23.74016693],[90.3846973,23.74016959],[90.38469873,23.74016362]]]}},
{"type":"Feature","properties":{"id":"L05-F050","kind":"desk","room":"L05-04"},"geometry":{"type":"Polygon","coordinates":[[[90.3846853,23.74016092],[90.38467206,23.74015825],[90.38467062,23.74016422],[90.38468386,23.74016689],[90.3846853,23.74016092]]]}},
{"type":"Feature","properties":{"id":"L05-F051","kind":"desk","room":"L05-04"},"geometry":{"type":"Polygon","coordinates":[[[90.38470021,23.74015747],[90.38468697,23.74015481],[90.38468553,23.74016078],[90.38469877,23.74016344],[90.38470021,23.74015747]]]}},
{"type":"Feature","properties":{"id":"L05-F052","kind":"desk","room":"L05-04"},"geometry":{"type":"Polygon","coordinates":[[[90.38468678,23.74015477],[90.38467353,23.7401521],[90.3846721,23.74015808],[90.38468534,23.74016074],[90.38468678,23.74015477]]]}},
{"type":"Feature","properties":{"id":"L05-F053","kind":"chair","room":"L05-04"},"geometry":{"type":"Polygon","coordinates":[[[90.38469244,23.74016972],[90.38468822,23.74016887],[90.38468729,23.74017273],[90.38469151,23.74017358],[90.38469244,23.74016972]]]}},
{"type":"Feature","properties":{"id":"L05-F054","kind":"chair","room":"L05-04"},"geometry":{"type":"Polygon","coordinates":[[[90.38469683,23.74015145],[90.38469261,23.7401506],[90.38469168,23.74015446],[90.3846959,23.74015531],[90.38469683,23.74015145]]]}},
{"type":"Feature","properties":{"id":"L05-F055","kind":"chair","room":"L05-04"},"geometry":{"type":"Polygon","coordinates":[[[90.38467901,23.74016702],[90.38467478,23.74016617],[90.38467386,23.74017003],[90.38467808,23.74017088],[90.38467901,23.74016702]]]}},
{"type":"Feature","properties":{"id":"L05-F056","kind":"chair","room":"L05-04"},"geometry":{"type":"Polygon","coordinates":[[[90.38468339,23.74014875],[90.38467917,23.7401479],[90.38467824,23.74015176],[90.38468247,23.74015261],[90.38468339,23.74014875]]]}},
{"type":"Feature","properties":{"id":"L05-F057","kind":"desk","room":"L05-04"},"geometry":{"type":"Polygon","coordinates":[[[90.38470548,23.74013551],[90.38469224,23.74013285],[90.38469081,23.74013882],[90.38470405,23.74014149],[90.38470548,23.74013551]]]}},
{"type":"Feature","properties":{"id":"L05-F058","kind":"desk","room":"L05-04"},"geometry":{"type":"Polygon","coordinates":[[[90.38469205,23.74013281],[90.38467881,23.74013014],[90.38467737,23.74013612],[90.38469062,23.74013878],[90.38469205,23.74013281]]]}},
{"type":"Feature","properties":{"id":"L05-F059","kind":"desk","room":"L05-04"},"geometry":{"type":"Polygon","coordinates":[[[90.38470696,23.74012936],[90.38469372,23.7401267],[90.38469228,23.74013267],[90.38470553,23.74013534],[90.38470696,23.74012936]]]}},
{"type":"Feature","properties":{"id":"L05-F060","kind":"desk","room":"L05-04"},"geometry":{"type":"Polygon","coordinates":[[[90.38469353,23.74012666],[90.38468029,23.740124],[90.38467885,23.74012997],[90.38469209,23.74013263],[90.38469353,23.74012666]]]}},
{"type":"Feature","properties":{"id":"L05-F061","kind":"chair","room":"L05-04"},"geometry":{"type":"Polygon","coordinates":[[[90.38469919,23.74014161],[90.38469497,23.74014076],[90.38469404,23.74014463],[90.38469826,23.74014548],[90.38469919,23.74014161]]]}},
{"type":"Feature","properties":{"id":"L05-F062","kind":"chair","room":"L05-04"},"geometry":{"type":"Polygon","coordinates":[[[90.38470358,23.74012334],[90.38469936,23.74012249],[90.38469843,23.74012636],[90.38470265,23.74012721],[90.38470358,23.74012334]]]}},
{"type":"Feature","properties":{"id":"L05-F063","kind":"chair","room":"L05-04"},"geometry":{"type":"Polygon","coordinates":[[[90.38468576,23.74013891],[90.38468153,23.74013806],[90.38468061,23.74014192],[90.38468483,23.74014277],[90.38468576,23.74013891]]]}},
{"type":"Feature","properties":{"id":"L05-F064","kind":"chair","room":"L05-04"},"geometry":{"type":"Polygon","coordinates":[[[90.38469015,23.74012064],[90.38468592,23.74011979],[90.38468499,23.74012365],[90.38468922,23.7401245],[90.38469015,23.74012064]]]}},
{"type":"Feature","properties":{"id":"L05-F065","kind":"desk","room":"L05-04"},"geometry":{"type":"Polygon","coordinates":[[[90.38466419,23.74015667],[90.38465095,23.740154],[90.38464951,23.74015997],[90.38466275,23.74016264],[90.38466419,23.74015667]]]}},
{"type":"Feature","properties":{"id":"L05-F066","kind":"desk","room":"L05-04"},"geometry":{"type":"Polygon","coordinates":[[[90.38465076,23.74015396],[90.38463751,23.7401513],[90.38463608,23.74015727],[90.38464932,23.74015994],[90.38465076,23.74015396]]]}},
{"type":"Feature","properties":{"id":"L05-F067","kind":"desk","room":"L05-04"},"geometry":{"type":"Polygon","coordinates":[[[90.38466567,23.74015052],[90.38465242,23.74014785],[90.38465099,23.74015383],[90.38466423,23.74015649],[90.38466567,23.74015052]]]}},
{"type":"Feature","properties":{"id":"L05-F068","kind":"desk","room":"L05-04"},"geometry":{"type":"Polygon","coordinates":[[[90.38465223,23.74014781],[90.38463899,23.74014515],[90.38463756,23.74015112],[90.3846508,23.74015379],[90.38465223,23.74014781]]]}},
{"type":"Feature","properties":{"id":"L05-F069","kind":"chair","room":"L05-04"},"geometry":{"type":"Polygon","coordinates":[[[90.3846579,23.74016277],[90.38465367,23.74016192],[90.38465275,23.74016578],[90.38465697,23.74016663],[90.3846579,23.74016277]]]}},
{"type":"Feature","properties":{"id":"L05-F070","kind":"chair","room":"L05-04"},"geometry":{"type":"Polygon","coordinates":[[[90.38466228,23.7401445],[90.38465806,23.74014365],[90.38465713,23.74014751],[90.38466136,23.74014836],[90.38466228,23.7401445]]]}},
{"type":"Feature","properties":{"id":"L05-F071","kind":"chair","room":"L05-04"},"geometry":{"type":"Polygon","coordinates":[[[90.38464885,23.74014179],[90.38464463,23.74014094],[90.3846437,23.74014481],[90.38464792,23.74014566],[90.38464885,23.74014179]]]}},
{"type":"Feature","properties":{"id":"L05-F072","kind":"desk","room":"L05-04"},"geometry":{"type":"Polygon","coordinates":[[[90.38467094,23.74012856],[90.3846577,23.7401259],[90.38465626,23.74013187],[90.38466951,23.74013453],[90.38467094,23.74012856]]]}},
{"type":"Feature","properties":{"id":"L05-F073","kind":"desk","room":"L05-04"},"geometry":{"type":"Polygon","coordinates":[[[90.38465751,23.74012586],[90.38464427,23.74012319],[90.38464283,23.74012916],[90.38465607,23.74013183],[90.38465751,23.74012586]]]}},
{"type":"Feature","properties":{"id":"L05-F074","kind":"desk","room":"L05-04"},"geometry":{"type":"Polygon","coordinates":[[[90.38467242,23.74012241],[90.38465918,23.74011975],[90.38465774,23.74012572],[90.38467098,23.74012838],[90.38467242,23.74012241]]]}},
{"type":"Feature","properties":{"id":"L05-F075","kind":"desk","room":"L05-04"},"geometry":{"type":"Polygon","coordinates":[[[90.38465898,23.74011971],[90.38464574,23.74011704],[90.38464431,23.74012302],[90.38465755,23.74012568],[90.38465898,23.74011971]]]}},
{"type":"Feature","properties":{"id":"L05-F076","kind":"chair","room":"L05-04"},"geometry":{"type":"Polygon","coordinates":[[[90.38466465,23.74013466],[90.38466043,23.74013381],[90.3846595,23.74013767],[90.38466372,23.74013852],[90.38466465,23.74013466]]]}},
{"type":"Feature","properties":{"id":"L05-F077","kind":"chair","room":"L05-04"},"geometry":{"type":"Polygon","coordinates":[[[90.38466904,23.74011639],[90.38466481,23.74011554],[90.38466389,23.74011941],[90.38466811,23.74012026],[90.38466904,23.74011639]]]}},
{"type":"Feature","properties":{"id":"L05-F078","kind":"chair","room":"L05-04"},"geometry":{"type":"Polygon","coordinates":[[[90.38465121,23.74013196],[90.38464699,23.74013111],[90.38464606,23.74013497],[90.38465029,23.74013582],[90.38465121,23.74013196]]]}},
{"type":"Feature","properties":{"id":"L05-F079","kind":"chair","room":"L05-04"},"geometry":{"type":"Polygon","coordinates":[[[90.3846556,23.74011369],[90.38465138,23.74011284],[90.38465045,23.7401167],[90.38465467,23.74011755],[90.3846556,23.74011369]]]}},
{"type":"Feature","properties":{"id":"L05-F080","kind":"cabinet","room":"L05-04"},"geometry":{"type":"Polygon","coordinates":[[[90.38478919,23.74011787],[90.38477192,23.74011439],[90.38477107,23.74011791],[90.38478835,23.74012138],[90.38478919,23.74011787]]]}},
{"type":"Feature","properties":{"id":"L05-F081","kind":"plant","room":"L05-04"},"geometry":{"type":"Polygon","coordinates":[[[90.38464286,23.74008934],[90.38463854,23.74008847],[90.38463759,23.74009242],[90.38464191,23.74009329],[90.38464286,23.74008934]]]}},
{"type":"Feature","properties":{"id":"L05-F082","kind":"board","room":"L05-05","base_m":0.8,"height_m":1.2},"geometry":{"type":"Polygon","coordinates":[[[90.38457343,23.74007416],[90.38454464,23.74006837],[90.38454447,23.74006907],[90.38457326,23.74007487],[90.38457343,23.74007416]]]}},
{"type":"Feature","properties":{"id":"L05-F083","kind":"podium","room":"L05-05"},"geometry":{"type":"Polygon","coordinates":[[[90.38454012,23.74007464],[90.38453436,23.74007348],[90.38453309,23.74007875],[90.38453885,23.74007991],[90.38454012,23.74007464]]]}},
{"type":"Feature","properties":{"id":"L05-F084","kind":"desk","room":"L05-05","height_m":0.74},"geometry":{"type":"Polygon","coordinates":[[[90.38461469,23.74014376],[90.38454931,23.7401306],[90.38454825,23.74013499],[90.38461364,23.74014815],[90.38461469,23.74014376]]]}},
{"type":"Feature","properties":{"id":"L05-F085","kind":"chair","room":"L05-05"},"geometry":{"type":"Polygon","coordinates":[[[90.38461155,23.74014847],[90.38460752,23.74014766],[90.38460664,23.74015134],[90.38461067,23.74015216],[90.38461155,23.74014847]]]}},
{"type":"Feature","properties":{"id":"L05-F086","kind":"chair","room":"L05-05"},"geometry":{"type":"Polygon","coordinates":[[[90.38460388,23.74014692],[90.38459985,23.74014611],[90.38459896,23.7401498],[90.38460299,23.74015061],[90.38460388,23.74014692]]]}},
{"type":"Feature","properties":{"id":"L05-F087","kind":"chair","room":"L05-05"},"geometry":{"type":"Polygon","coordinates":[[[90.3845962,23.74014538],[90.38459217,23.74014457],[90.38459128,23.74014825],[90.38459531,23.74014907],[90.3845962,23.74014538]]]}},
{"type":"Feature","properties":{"id":"L05-F088","kind":"chair","room":"L05-05"},"geometry":{"type":"Polygon","coordinates":[[[90.38458852,23.74014383],[90.38458449,23.74014302],[90.38458361,23.74014671],[90.38458764,23.74014752],[90.38458852,23.74014383]]]}},
{"type":"Feature","properties":{"id":"L05-F089","kind":"chair","room":"L05-05"},"geometry":{"type":"Polygon","coordinates":[[[90.38458085,23.74014229],[90.38457682,23.74014148],[90.38457593,23.74014516],[90.38457996,23.74014598],[90.38458085,23.74014229]]]}},
{"type":"Feature","properties":{"id":"L05-F090","kind":"chair","room":"L05-05"},"geometry":{"type":"Polygon","coordinates":[[[90.38457317,23.74014074],[90.38456914,23.74013993],[90.38456825,23.74014362],[90.38457228,23.74014443],[90.38457317,23.74014074]]]}},
{"type":"Feature","properties":{"id":"L05-F091","kind":"chair","room":"L05-05"},"geometry":{"type":"Polygon","coordinates":[[[90.38456549,23.7401392],[90.38456146,23.74013839],[90.38456058,23.74014207],[90.38456461,23.74014289],[90.38456549,23.7401392]]]}},
{"type":"Feature","properties":{"id":"L05-F092","kind":"chair","room":"L05-05"},"geometry":{"type":"Polygon","coordinates":[[[90.38455782,23.74013765],[90.38455379,23.74013684],[90.3845529,23.74014053],[90.38455693,23.74014134],[90.38455782,23.74013765]]]}},
{"type":"Feature","properties":{"id":"L05-F093","kind":"desk","room":"L05-05","height_m":0.74},"geometry":{"type":"Polygon","coordinates":[[[90.38454067,23.74012886],[90.38447529,23.7401157],[90.38447423,23.74012009],[90.38453962,23.74013325],[90.38454067,23.74012886]]]}},
{"type":"Feature","properties":{"id":"L05-F094","kind":"chair","room":"L05-05"},"geometry":{"type":"Polygon","coordinates":[[[90.38453753,23.74013357],[90.3845335,23.74013276],[90.38453261,23.74013645],[90.38453664,23.74013726],[90.38453753,23.74013357]]]}},
{"type":"Feature","properties":{"id":"L05-F095","kind":"chair","room":"L05-05"},"geometry":{"type":"Polygon","coordinates":[[[90.38452985,23.74013202],[90.38452582,23.74013121],[90.38452494,23.7401349],[90.38452897,23.74013571],[90.38452985,23.74013202]]]}},
{"type":"Feature","properties":{"id":"L05-F096","kind":"chair","room":"L05-05"},"geometry":{"type":"Polygon","coordinates":[[[90.38452218,23.74013048],[90.38451815,23.74012967],[90.38451726,23.74013336],[90.38452129,23.74013417],[90.38452218,23.74013048]]]}},
{"type":"Feature","properties":{"id":"L05-F097","kind":"chair","room":"L05-05"},"geometry":{"type":"Polygon","coordinates":[[[90.3845145,23.74012893],[90.38451047,23.74012812],[90.38450959,23.74013181],[90.38451362,23.74013262],[90.3845145,23.74012893]]]}},
{"type":"Feature","properties":{"id":"L05-F098","kind":"chair","room":"L05-05"},"geometry":{"type":"Polygon","coordinates":[[[90.38450683,23.74012739],[90.3845028,23.74012658],[90.38450191,23.74013027],[90.38450594,23.74013108],[90.38450683,23.74012739]]]}},
{"type":"Feature","properties":{"id":"L05-F099","kind":"chair","room":"L05-05"},"geometry":{"type":"Polygon","coordinates":[[[90.38449915,23.74012584],[90.38449512,23.74012503],[90.38449423,23.74012872],[90.38449826,23.74012953],[90.38449915,23.74012584]]]}},
{"type":"Feature","properties":{"id":"L05-F100","kind":"chair","room":"L05-05"},"geometry":{"type":"Polygon","coordinates":[[[90.38449147,23.7401243],[90.38448744,23.74012349],[90.38448656,23.74012718],[90.38449059,23.74012799],[90.38449147,23.7401243]]]}},
{"type":"Feature","properties":{"id":"L05-F101","kind":"chair","room":"L05-05"},"geometry":{"type":"Polygon","coordinates":[[[90.3844838,23.74012275],[90.38447977,23.74012194],[90.38447888,23.74012563],[90.38448291,23.74012644],[90.3844838,23.74012275]]]}},
{"type":"Feature","properties":{"id":"L05-F102","kind":"desk","room":"L05-05","height_m":0.74},"geometry":{"type":"Polygon","coordinates":[[[90.38461775,23.74013102],[90.38455237,23.74011786],[90.38455131,23.74012225],[90.3846167,23.74013541],[90.38461775,23.74013102]]]}},
{"type":"Feature","properties":{"id":"L05-F103","kind":"chair","room":"L05-05"},"geometry":{"type":"Polygon","coordinates":[[[90.38461461,23.74013573],[90.38461058,23.74013492],[90.38460969,23.74013861],[90.38461372,23.74013942],[90.38461461,23.74013573]]]}},
{"type":"Feature","properties":{"id":"L05-F104","kind":"chair","room":"L05-05"},"geometry":{"type":"Polygon","coordinates":[[[90.38460693,23.74013419],[90.3846029,23.74013337],[90.38460202,23.74013706],[90.38460605,23.74013787],[90.38460693,23.74013419]]]}},
{"type":"Feature","properties":{"id":"L05-F105","kind":"chair","room":"L05-05"},"geometry":{"type":"Polygon","coordinates":[[[90.38459926,23.74013264],[90.38459523,23.74013183],[90.38459434,23.74013552],[90.38459837,23.74013633],[90.38459926,23.74013264]]]}},
{"type":"Feature","properties":{"id":"L05-F106","kind":"chair","room":"L05-05"},"geometry":{"type":"Polygon","coordinates":[[[90.38459158,23.7401311],[90.38458755,23.74013028],[90.38458667,23.74013397],[90.3845907,23.74013478],[90.38459158,23.7401311]]]}},
{"type":"Feature","properties":{"id":"L05-F107","kind":"chair","room":"L05-05"},"geometry":{"type":"Polygon","coordinates":[[[90.38458391,23.74012955],[90.38457988,23.74012874],[90.38457899,23.74013243],[90.38458302,23.74013324],[90.38458391,23.74012955]]]}},
{"type":"Feature","properties":{"id":"L05-F108","kind":"chair","room":"L05-05"},"geometry":{"type":"Polygon","coordinates":[[[90.38457623,23.74012801],[90.3845722,23.74012719],[90.38457131,23.74013088],[90.38457534,23.74013169],[90.38457623,23.74012801]]]}},
{"type":"Feature","properties":{"id":"L05-F109","kind":"chair","room":"L05-05"},"geometry":{"type":"Polygon","coordinates":[[[90.38456855,23.74012646],[90.38456452,23.74012565],[90.38456364,23.74012934],[90.38456767,23.74013015],[90.38456855,23.74012646]]]}},
{"type":"Feature","properties":{"id":"L05-F110","kind":"chair","room":"L05-05"},"geometry":{"type":"Polygon","coordinates":[[[90.38456088,23.74012492],[90.38455685,23.7401241],[90.38455596,23.74012779],[90.38455999,23.7401286],[90.38456088,23.74012492]]]}},
{"type":"Feature","properties":{"id":"L05-F111","kind":"desk","room":"L05-05","height_m":0.74},"geometry":{"type":"Polygon","coordinates":[[[90.38454373,23.74011612],[90.38447835,23.74010296],[90.38447729,23.74010736],[90.38454268,23.74012052],[90.38454373,23.74011612]]]}},
{"type":"Feature","properties":{"id":"L05-F112","kind":"chair","room":"L05-05"},"geometry":{"type":"Polygon","coordinates":[[[90.38454059,23.74012083],[90.38453656,23.74012002],[90.38453567,23.74012371],[90.3845397,23.74012452],[90.38454059,23.74012083]]]}},
{"type":"Feature","properties":{"id":"L05-F113","kind":"chair","room":"L05-05"},"geometry":{"type":"Polygon","coordinates":[[[90.38453291,23.74011929],[90.38452888,23.74011848],[90.384528,23.74012216],[90.38453203,23.74012298],[90.38453291,23.74011929]]]}},
{"type":"Feature","properties":{"id":"L05-F114","kind":"chair","room":"L05-05"},"geometry":{"type":"Polygon","coordinates":[[[90.38452524,23.74011774],[90.38452121,23.74011693],[90.38452032,23.74012062],[90.38452435,23.74012143],[90.38452524,23.74011774]]]}},
{"type":"Feature","properties":{"id":"L05-F115","kind":"chair","room":"L05-05"},"geometry":{"type":"Polygon","coordinates":[[[90.38451756,23.7401162],[90.38451353,23.74011539],[90.38451264,23.74011907],[90.38451667,23.74011989],[90.38451756,23.7401162]]]}},
{"type":"Feature","properties":{"id":"L05-F116","kind":"chair","room":"L05-05"},"geometry":{"type":"Polygon","coordinates":[[[90.38450988,23.74011465],[90.38450585,23.74011384],[90.38450497,23.74011753],[90.384509,23.74011834],[90.38450988,23.74011465]]]}},
{"type":"Feature","properties":{"id":"L05-F117","kind":"chair","room":"L05-05"},"geometry":{"type":"Polygon","coordinates":[[[90.38450221,23.74011311],[90.38449818,23.7401123],[90.38449729,23.74011598],[90.38450132,23.7401168],[90.38450221,23.74011311]]]}},
{"type":"Feature","properties":{"id":"L05-F118","kind":"chair","room":"L05-05"},"geometry":{"type":"Polygon","coordinates":[[[90.38449453,23.74011156],[90.3844905,23.74011075],[90.38448962,23.74011444],[90.38449365,23.74011525],[90.38449453,23.74011156]]]}},
{"type":"Feature","properties":{"id":"L05-F119","kind":"chair","room":"L05-05"},"geometry":{"type":"Polygon","coordinates":[[[90.38448686,23.74011002],[90.38448283,23.74010921],[90.38448194,23.74011289],[90.38448597,23.74011371],[90.38448686,23.74011002]]]}},
{"type":"Feature","properties":{"id":"L05-F120","kind":"desk","room":"L05-05","height_m":0.74},"geometry":{"type":"Polygon","coordinates":[[[90.38462081,23.74011829],[90.38455543,23.74010513],[90.38455437,23.74010952],[90.38461976,23.74012268],[90.38462081,23.74011829]]]}},
{"type":"Feature","properties":{"id":"L05-F121","kind":"chair","room":"L05-05"},"geometry":{"type":"Polygon","coordinates":[[[90.38461767,23.74012299],[90.38461364,23.74012218],[90.38461275,23.74012587],[90.38461678,23.74012668],[90.38461767,23.74012299]]]}},
{"type":"Feature","properties":{"id":"L05-F122","kind":"chair","room":"L05-05"},"geometry":{"type":"Polygon","coordinates":[[[90.38460999,23.74012145],[90.38460596,23.74012064],[90.38460508,23.74012433],[90.38460911,23.74012514],[90.38460999,23.74012145]]]}},
{"type":"Feature","properties":{"id":"L05-F123","kind":"chair","room":"L05-05"},"geometry":{"type":"Polygon","coordinates":[[[90.38460232,23.7401199],[90.38459829,23.74011909],[90.3845974,23.74012278],[90.38460143,23.74012359],[90.38460232,23.7401199]]]}},
{"type":"Feature","properties":{"id":"L05-F124","kind":"chair","room":"L05-05"},"geometry":{"type":"Polygon","coordinates":[[[90.38459464,23.74011836],[90.38459061,23.74011755],[90.38458973,23.74012124],[90.38459376,23.74012205],[90.38459464,23.74011836]]]}},
{"type":"Feature","properties":{"id":"L05-F125","kind":"chair","room":"L05-05"},"geometry":{"type":"Polygon","coordinates":[[[90.38458697,23.74011681],[90.38458294,23.740116],[90.38458205,23.74011969],[90.38458608,23.7401205],[90.38458697,23.74011681]]]}},
{"type":"Feature","properties":{"id":"L05-F126","kind":"chair","room":"L05-05"},"geometry":{"type":"Polygon","coordinates":[[[90.38457929,23.74011527],[90.38457526,23.74011446],[90.38457437,23.74011815],[90.3845784,23.74011896],[90.38457929,23.74011527]]]}},
{"type":"Feature","properties":{"id":"L05-F127","kind":"chair","room":"L05-05"},"geometry":{"type":"Polygon","coordinates":[[[90.38457161,23.74011372],[90.38456758,23.74011291],[90.3845667,23.7401166],[90.38457073,23.74011741],[90.38457161,23.74011372]]]}},
{"type":"Feature","properties":{"id":"L05-F128","kind":"chair","room":"L05-05"},"geometry":{"type":"Polygon","coordinates":[[[90.38456394,23.74011218],[90.38455991,23.74011137],[90.38455902,23.74011506],[90.38456305,23.74011587],[90.38456394,23.74011218]]]}},
{"type":"Feature","properties":{"id":"L05-F129","kind":"desk","room":"L05-05","height_m":0.74},"geometry":{"type":"Polygon","coordinates":[[[90.38454679,23.74010339],[90.38448141,23.74009023],[90.38448035,23.74009462],[90.38454574,23.74010778],[90.38454679,23.74010339]]]}},
{"type":"Feature","properties":{"id":"L05-F130","kind":"chair","room":"L05-05"},"geometry":{"type":"Polygon","coordinates":[[[90.38454365,23.7401081],[90.38453962,23.74010729],[90.38453873,23.74011097],[90.38454276,23.74011179],[90.38454365,23.7401081]]]}},
{"type":"Feature","properties":{"id":"L05-F131","kind":"chair","room":"L05-05"},"geometry":{"type":"Polygon","coordinates":[[[90.38453597,23.74010655],[90.38453194,23.74010574],[90.38453106,23.74010943],[90.38453509,23.74011024],[90.38453597,23.74010655]]]}},
{"type":"Feature","properties":{"id":"L05-F132","kind":"chair","room":"L05-05"},"geometry":{"type":"Polygon","coordinates":[[[90.3845283,23.74010501],[90.38452427,23.74010419],[90.38452338,23.74010788],[90.38452741,23.7401087],[90.3845283,23.74010501]]]}},
{"type":"Feature","properties":{"id":"L05-F133","kind":"chair","room":"L05-05"},"geometry":{"type":"Polygon","coordinates":[[[90.38452062,23.74010346],[90.38451659,23.74010265],[90.3845157,23.74010634],[90.38451973,23.74010715],[90.38452062,23.74010346]]]}},
{"type":"Feature","properties":{"id":"L05-F134","kind":"chair","room":"L05-05"},"geometry":{"type":"Polygon","coordinates":[[[90.38451294,23.74010192],[90.38450891,23.7401011],[90.38450803,23.74010479],[90.38451206,23.74010561],[90.38451294,23.74010192]]]}},
{"type":"Feature","properties":{"id":"L05-F135","kind":"chair","room":"L05-05"},"geometry":{"type":"Polygon","coordinates":[[[90.38450527,23.74010037],[90.38450124,23.74009956],[90.38450035,23.74010325],[90.38450438,23.74010406],[90.38450527,23.74010037]]]}},
{"type":"Feature","properties":{"id":"L05-F136","kind":"chair","room":"L05-05"},"geometry":{"type":"Polygon","coordinates":[[[90.38449759,23.74009883],[90.38449356,23.74009801],[90.38449268,23.7401017],[90.38449671,23.74010251],[90.38449759,23.74009883]]]}},
{"type":"Feature","properties":{"id":"L05-F137","kind":"chair","room":"L05-05"},"geometry":{"type":"Polygon","coordinates":[[[90.38448992,23.74009728],[90.38448589,23.74009647],[90.384485,23.74010016],[90.38448903,23.74010097],[90.38448992,23.74009728]]]}},
{"type":"Feature","properties":{"id":"L05-F138","kind":"desk","room":"L05-05","height_m":0.74},"geometry":{"type":"Polygon","coordinates":[[[90.38462387,23.74010555],[90.38455849,23.74009239],[90.38455743,23.74009678],[90.38462282,23.74010994],[90.38462387,23.74010555]]]}},
{"type":"Feature","properties":{"id":"L05-F139","kind":"chair","room":"L05-05"},"geometry":{"type":"Polygon","coordinates":[[[90.38462073,23.74011026],[90.3846167,23.74010945],[90.38461581,23.74011314],[90.38461984,23.74011395],[90.38462073,23.74011026]]]}},
{"type":"Feature","properties":{"id":"L05-F140","kind":"chair","room":"L05-05"},"geometry":{"type":"Polygon","coordinates":[[[90.38461305,23.74010871],[90.38460902,23.7401079],[90.38460814,23.74011159],[90.38461217,23.7401124],[90.38461305,23.74010871]]]}},
{"type":"Feature","properties":{"id":"L05-F141","kind":"chair","room":"L05-05"},"geometry":{"type":"Polygon","coordinates":[[[90.38460538,23.74010717],[90.38460135,23.74010636],[90.38460046,23.74011005],[90.38460449,23.74011086],[90.38460538,23.74010717]]]}},
{"type":"Feature","properties":{"id":"L05-F142","kind":"chair","room":"L05-05"},"geometry":{"type":"Polygon","coordinates":[[[90.3845977,23.74010562],[90.38459367,23.74010481],[90.38459278,23.7401085],[90.38459681,23.74010931],[90.3845977,23.74010562]]]}},
{"type":"Feature","properties":{"id":"L05-F143","kind":"chair","room":"L05-05"},"geometry":{"type":"Polygon","coordinates":[[[90.38459002,23.74010408],[90.38458599,23.74010327],[90.38458511,23.74010696],[90.38458914,23.74010777],[90.38459002,23.74010408]]]}},
{"type":"Feature","properties":{"id":"L05-F144","kind":"chair","room":"L05-05"},"geometry":{"type":"Polygon","coordinates":[[[90.38458235,23.74010253],[90.38457832,23.74010172],[90.38457743,23.74010541],[90.38458146,23.74010622],[90.38458235,23.74010253]]]}},
{"type":"Feature","properties":{"id":"L05-F145","kind":"chair","room":"L05-05"},"geometry":{"type":"Polygon","coordinates":[[[90.38457467,23.74010099],[90.38457064,23.74010018],[90.38456976,23.74010387],[90.38457379,23.74010468],[90.38457467,23.74010099]]]}},
{"type":"Feature","properties":{"id":"L05-F146","kind":"chair","room":"L05-05"},"geometry":{"type":"Polygon","coordinates":[[[90.384567,23.74009944],[90.38456297,23.74009863],[90.38456208,23.74010232],[90.38456611,23.74010313],[90.384567,23.74009944]]]}},
{"type":"Feature","properties":{"id":"L05-F147","kind":"desk","room":"L05-05","height_m":0.74},"geometry":{"type":"Polygon","coordinates":[[[90.38454985,23.74009065],[90.38448447,23.74007749],[90.38448341,23.74008188],[90.3845488,23.74009504],[90.38454985,23.74009065]]]}},
{"type":"Feature","properties":{"id":"L05-F148","kind":"chair","room":"L05-05"},"geometry":{"type":"Polygon","coordinates":[[[90.38454671,23.74009536],[90.38454268,23.74009455],[90.38454179,23.74009824],[90.38454582,23.74009905],[90.38454671,23.74009536]]]}},
{"type":"Feature","properties":{"id":"L05-F149","kind":"chair","room":"L05-05"},"geometry":{"type":"Polygon","coordinates":[[[90.38453903,23.74009382],[90.384535,23.740093],[90.38453412,23.74009669],[90.38453815,23.7400975],[90.38453903,23.74009382]]]}},
{"type":"Feature","properties":{"id":"L05-F150","kind":"chair","room":"L05-05"},"geometry":{"type":"Polygon","coordinates":[[[90.38453136,23.74009227],[90.38452733,23.74009146],[90.38452644,23.74009515],[90.38453047,23.74009596],[90.38453136,23.74009227]]]}},
{"type":"Feature","properties":{"id":"L05-F151","kind":"chair","room":"L05-05"},"geometry":{"type":"Polygon","coordinates":[[[90.38452368,23.74009073],[90.38451965,23.74008991],[90.38451876,23.7400936],[90.38452279,23.74009441],[90.38452368,23.74009073]]]}},
{"type":"Feature","properties":{"id":"L05-F152","kind":"chair","room":"L05-05"},"geometry":{"type":"Polygon","coordinates":[[[90.384516,23.74008918],[90.38451197,23.74008837],[90.38451109,23.74009206],[90.38451512,23.74009287],[90.384516,23.74008918]]]}},
{"type":"Feature","properties":{"id":"L05-F153","kind":"chair","room":"L05-05"},"geometry":{"type":"Polygon","coordinates":[[[90.38450833,23.74008764],[90.3845043,23.74008682],[90.38450341,23.74009051],[90.38450744,23.74009132],[90.38450833,23.74008764]]]}},
{"type":"Feature","properties":{"id":"L05-F154","kind":"chair","room":"L05-05"},"geometry":{"type":"Polygon","coordinates":[[[90.38450065,23.74008609],[90.38449662,23.74008528],[90.38449573,23.74008897],[90.38449976,23.74008978],[90.38450065,23.74008609]]]}},
{"type":"Feature","properties":{"id":"L05-F155","kind":"chair","room":"L05-05"},"geometry":{"type":"Polygon","coordinates":[[[90.38449297,23.74008455],[90.38448894,23.74008373],[90.38448806,23.74008742],[90.38449209,23.74008823],[90.38449297,23.74008455]]]}},
{"type":"Feature","properties":{"id":"L05-F156","kind":"shelf","room":"L05-06"},"geometry":{"type":"Polygon","coordinates":[[[90.38459628,23.74024134],[90.38456527,23.7402351],[90.38456422,23.74023949],[90.38459523,23.74024573],[90.38459628,23.74024134]]]}},
{"type":"Feature","properties":{"id":"L05-F157","kind":"shelf","room":"L05-06"},"geometry":{"type":"Polygon","coordinates":[[[90.38455568,23.74023317],[90.38452466,23.74022693],[90.38452361,23.74023132],[90.38455462,23.74023756],[90.38455568,23.74023317]]]}},
{"type":"Feature","properties":{"id":"L05-F158","kind":"shelf","room":"L05-06"},"geometry":{"type":"Polygon","coordinates":[[[90.38459291,23.74025539],[90.38456189,23.74024915],[90.38456084,23.74025354],[90.38459185,23.74025979],[90.38459291,23.74025539]]]}},
{"type":"Feature","properties":{"id":"L05-F159","kind":"shelf","room":"L05-06"},"geometry":{"type":"Polygon","coordinates":[[[90.3845523,23.74024722],[90.38452129,23.74024098],[90.38452023,23.74024537],[90.38455124,23.74025161],[90.3845523,23.74024722]]]}},
{"type":"Feature","properties":{"id":"L05-F160","kind":"shelf","room":"L05-06"},"geometry":{"type":"Polygon","coordinates":[[[90.38458953,23.74026945],[90.38455852,23.74026321],[90.38455746,23.7402676],[90.38458848,23.74027384],[90.38458953,23.74026945]]]}},
{"type":"Feature","properties":{"id":"L05-F161","kind":"shelf","room":"L05-06"},"geometry":{"type":"Polygon","coordinates":[[[90.38454892,23.74026127],[90.38451791,23.74025503],[90.38451686,23.74025942],[90.38454787,23.74026567],[90.38454892,23.74026127]]]}},
{"type":"Feature","properties":{"id":"L05-F162","kind":"basin","room":"L05-07"},"geometry":{"type":"Polygon","coordinates":[[[90.38452725,23.74019522],[90.38452197,23.74019416],[90.38451555,23.7402209],[90.38452083,23.74022196],[90.38452725,23.74019522]]]}},
{"type":"Feature","properties":{"id":"L05-F163","kind":"cubicle","room":"L05-07"},"geometry":{"type":"Polygon","coordinates":[[[90.38447942,23.7402443],[90.38447894,23.74024421],[90.38447567,23.74025782],[90.38447615,23.74025792],[90.38447942,23.7402443]]]}},
{"type":"Feature","properties":{"id":"L05-F164","kind":"cubicle","room":"L05-07"},"geometry":{"type":"Polygon","coordinates":[[[90.38449142,23.74024672],[90.38449094,23.74024662],[90.38448767,23.74026023],[90.38448815,23.74026033],[90.38449142,23.74024672]]]}},
{"type":"Feature","properties":{"id":"L05-F165","kind":"cubicle","room":"L05-07"},"geometry":{"type":"Polygon","coordinates":[[[90.38450341,23.74024913],[90.38450293,23.74024903],[90.38449966,23.74026265],[90.38450014,23.74026274],[90.38450341,23.74024913]]]}},
{"type":"Feature","properties":{"id":"L05-F166","kind":"basin","room":"L05-08"},"geometry":{"type":"Polygon","coordinates":[[[90.38448856,23.74018743],[90.38448328,23.74018637],[90.38447686,23.74021311],[90.38448214,23.74021417],[90.38448856,23.74018743]]]}},
{"type":"Feature","properties":{"id":"L05-F167","kind":"cubicle","room":"L05-08"},"geometry":{"type":"Polygon","coordinates":[[[90.38444073,23.74023651],[90.38444025,23.74023642],[90.38443698,23.74025003],[90.38443746,23.74025013],[90.38444073,23.74023651]]]}},
{"type":"Feature","properties":{"id":"L05-F168","kind":"cubicle","room":"L05-08"},"geometry":{"type":"Polygon","coordinates":[[[90.38445273,23.74023893],[90.38445225,23.74023883],[90.38444898,23.74025245],[90.38444946,23.74025254],[90.38445273,23.74023893]]]}},
{"type":"Feature","properties":{"id":"L05-F169","kind":"cubicle","room":"L05-08"},"geometry":{"type":"Polygon","coordinates":[[[90.38446472,23.74024134],[90.38446424,23.74024125],[90.38446097,23.74025486],[90.38446145,23.74025496],[90.38446472,23.74024134]]]}}
]
}
