{
"type": "FeatureCollection",
"name": "shops",
"crs": {"type":"name","properties":{"name":"urn:ogc:def:crs:OGC:1.3:CRS84"}},
"features": [
{"type":"Feature","properties":{"id":"L05-01","name":"Project Monitoring","class":"office","room_number":"501"},"geometry":{"type":"Polygon","coordinates":[[[90.38476468,23.74022827],[90.38472599,23.74022049],[90.38470558,23.74030547],[90.38474427,23.74031326],[90.38476468,23.74022827]]]}},
{"type":"Feature","properties":{"id":"L05-02","name":"Planning Officer","class":"office","room_number":"502"},"geometry":{"type":"Polygon","coordinates":[[[90.38472599,23.74022049],[90.3846873,23.7402127],[90.38466689,23.74029769],[90.38470558,23.74030547],[90.38472599,23.74022049]]]}},
{"type":"Feature","properties":{"id":"L05-03","name":"Server Room","class":"store","room_number":"503"},"geometry":{"type":"Polygon","coordinates":[[[90.3846873,23.7402127],[90.38460992,23.74019713],[90.38458951,23.74028211],[90.38466689,23.74029769],[90.3846873,23.7402127]]]}},
{"type":"Feature","properties":{"id":"L05-04","name":"ICT Cell","class":"office","room_number":"504"},"geometry":{"type":"Polygon","coordinates":[[[90.38479143,23.74011694],[90.38463667,23.74008579],[90.38461625,23.74017078],[90.38477101,23.74020192],[90.38479143,23.74011694]]]}},
{"type":"Feature","properties":{"id":"L05-05","name":"Training Room","class":"classroom","room_number":"505"},"geometry":{"type":"Polygon","coordinates":[[[90.38463667,23.74008579],[90.38448191,23.74005464],[90.38446149,23.74013963],[90.38461625,23.74017078],[90.38463667,23.74008579]]]}},
{"type":"Feature","properties":{"id":"L05-06","name":"Electrical Room","class":"store","room_number":"506"},"geometry":{"type":"Polygon","coordinates":[[[90.38460275,23.74022699],[90.38452537,23.74021141],[90.38451213,23.74026654],[90.38458951,23.74028211],[90.38460275,23.74022699]]]}},
{"type":"Feature","properties":{"id":"L05-07","name":"Gents Washroom","class":"toilet","room_number":"507"},"geometry":{"type":"Polygon","coordinates":[[[90.38453254,23.74018155],[90.38449385,23.74017376],[90.38447344,23.74025875],[90.38451213,23.74026654],[90.38453254,23.74018155]]]}},
{"type":"Feature","properties":{"id":"L05-08","name":"Ladies Washroom","class":"toilet","room_number":"508"},"geometry":{"type":"Polygon","coordinates":[[[90.38449385,23.74017376],[90.38445516,23.74016598],[90.38443475,23.74025096],[90.38447344,23.74025875],[90.38449385,23.74017376]]]}}
]
}
