{
"type": "FeatureCollection",
"name": "walls",
"crs": {"type":"name","properties":{"name":"urn:ogc:def:crs:OGC:1.3:CRS84"}},
"features": [
{"type":"Feature","properties":{"id":1,"kind":"partition"},"geometry":{"type":"LineString","coordinates":[[90.3846873,23.7402127],[90.38466689,23.74029769]]}},
{"type":"Feature","properties":{"id":2,"kind":"partition"},"geometry":{"type":"LineString","coordinates":[[90.38471405,23.74010136],[90.38469363,23.74018635]]}},
{"type":"Feature","properties":{"id":3,"kind":"partition"},"geometry":{"type":"LineString","coordinates":[[90.38460275,23.74022699],[90.38456886,23.74022017]]}},
{"type":"Feature","properties":{"id":4,"kind":"partition"},"geometry":{"type":"LineString","coordinates":[[90.38455926,23.74021824],[90.38452537,23.74021141]]}},
{"type":"Feature","properties":{"id":5,"kind":"partition"},"geometry":{"type":"LineString","coordinates":[[90.38460992,23.74019713],[90.38458951,23.74028211]]}},
{"type":"Feature","properties":{"id":6,"kind":"partition"},"geometry":{"type":"LineString","coordinates":[[90.38463667,23.74008579],[90.38461625,23.74017078]]}},
{"type":"Feature","properties":{"id":7,"kind":"partition"},"geometry":{"type":"LineString","coordinates":[[90.38453254,23.74018155],[90.38451213,23.74026654]]}},
{"type":"Feature","properties":{"id":8,"kind":"partition"},"geometry":{"type":"LineString","coordinates":[[90.38455929,23.74007021],[90.38453887,23.7401552]]}},
{"type":"Feature","properties":{"id":9,"kind":"corridor"},"geometry":{"type":"LineString","coordinates":[[90.38476468,23.74022827],[90.38473079,23.74022145]]}},
{"type":"Feature","properties":{"id":10,"kind":"corridor"},"geometry":{"type":"LineString","coordinates":[[90.38472119,23.74021952],[90.38465341,23.74020588]]}},
{"type":"Feature","properties":{"id":11,"kind":"corridor"},"geometry":{"type":"LineString","coordinates":[[90.38464381,23.74020395],[90.38460992,23.74019713]]}},
{"type":"Feature","properties":{"id":12,"kind":"corridor"},"geometry":{"type":"LineString","coordinates":[[90.38453254,23.74018155],[90.38449865,23.74017473]]}},
{"type":"Feature","properties":{"id":13,"kind":"corridor"},"geometry":{"type":"LineString","coordinates":[[90.38448906,23.7401728],[90.38445516,23.74016598]]}},
{"type":"Feature","properties":{"id":14,"kind":"corridor"},"geometry":{"type":"LineString","coordinates":[[90.38477101,23.74020192],[90.38473712,23.7401951]]}},
{"type":"Feature","properties":{"id":15,"kind":"corridor"},"geometry":{"type":"LineString","coordinates":[[90.38472752,23.74019317],[90.38465974,23.74017953]]}},
{"type":"Feature","properties":{"id":16,"kind":"corridor"},"geometry":{"type":"LineString","coordinates":[[90.38465014,23.7401776],[90.38458236,23.74016395]]}},
{"type":"Feature","properties":{"id":17,"kind":"corridor"},"geometry":{"type":"LineString","coordinates":[[90.38457276,23.74016202],[90.38450498,23.74014838]]}},
{"type":"Feature","properties":{"id":18,"kind":"corridor"},"geometry":{"type":"LineString","coordinates":[[90.38449539,23.74014645],[90.38446149,23.74013963]]}},
{"type":"Feature","properties":{"id":19,"kind":"outer"},"geometry":{"type":"LineString","coordinates":[[90.38479143,23.74011694],[90.38448191,23.74005464]]}},
{"type":"Feature","properties":{"id":20,"kind":"outer"},"geometry":{"type":"LineString","coordinates":[[90.38474427,23.74031326],[90.38443475,23.74025096]]}},
{"type":"Feature","properties":{"id":21,"kind":"outer"},"geometry":{"type":"LineString","coordinates":[[90.38479143,23.74011694],[90.38474427,23.74031326]]}},
{"type":"Feature","properties":{"id":22,"kind":"outer"},"geometry":{"type":"LineString","coordinates":[[90.38448191,23.74005464],[90.38443475,23.74025096]]}}
]
}
