{
"type": "FeatureCollection",
"name": "shops",
"crs": {"type":"name","properties":{"name":"urn:ogc:def:crs:OGC:1.3:CRS84"}},
"features": [
{"type":"Feature","properties":{"id":"L04-01","name":"Production Hall 401","class":"production","room_number":"401"},"geometry":{"type":"Polygon","coordinates":[[[90.40341617,24.22175015],[90.40348438,24.22176346],[90.40346517,24.22184532],[90.40339696,24.22183201],[90.40341617,24.22175015]]]}},
{"type":"Feature","properties":{"id":"L04-02","name":"Production Hall 402","class":"production","room_number":"402"},"geometry":{"type":"Polygon","coordinates":[[[90.40344156,24.2216419],[90.40350978,24.22165521],[90.40349057,24.22173707],[90.40342236,24.22172376],[90.40344156,24.2216419]]]}},
{"type":"Feature","properties":{"id":"L04-03","name":"Production Hall 403","class":"production","room_number":"403"},"geometry":{"type":"Polygon","coordinates":[[[90.40348438,24.22176346],[90.4035526,24.22177677],[90.40353339,24.22185863],[90.40346517,24.22184532],[90.40348438,24.22176346]]]}},
{"type":"Feature","properties":{"id":"L04-04","name":"Production Hall 404","class":"production","room_number":"404"},"geometry":{"type":"Polygon","coordinates":[[[90.40350978,24.22165521],[90.403578,24.22166852],[90.40355879,24.22175039],[90.40349057,24.22173707],[90.40350978,24.22165521]]]}},
{"type":"Feature","properties":{"id":"L04-05","name":"Production Hall 405","class":"production","room_number":"405"},"geometry":{"type":"Polygon","coordinates":[[[90.4035526,24.22177677],[90.40362081,24.22179008],[90.4036016,24.22187194],[90.40353339,24.22185863],[90.4035526,24.22177677]]]}},
{"type":"Feature","properties":{"id":"L04-06","name":"Production Hall 406","class":"production","room_number":"406"},"geometry":{"type":"Polygon","coordinates":[[[90.403578,24.22166852],[90.40364621,24.22168183],[90.403627,24.2217637],[90.40355879,24.22175039],[90.403578,24.22166852]]]}},
{"type":"Feature","properties":{"id":"L04-07","name":"Store","class":"store","room_number":"407"},"geometry":{"type":"Polygon","coordinates":[[[90.4036138,24.22181998],[90.40368201,24.22183329],[90.40366982,24.22188526],[90.4036016,24.22187194],[90.4036138,24.22181998]]]}},
{"type":"Feature","properties":{"id":"L04-08","name":"Production Hall 408","class":"production","room_number":"408"},"geometry":{"type":"Polygon","coordinates":[[[90.40364621,24.22168183],[90.40371443,24.22169515],[90.40369522,24.22177701],[90.403627,24.2217637],[90.40364621,24.22168183]]]}},
{"type":"Feature","properties":{"id":"L04-09","name":"Production Hall 409","class":"production","room_number":"409"},"geometry":{"type":"Polygon","coordinates":[[[90.40368903,24.22180339],[90.40375724,24.2218167],[90.40373803,24.22189857],[90.40366982,24.22188526],[90.40368903,24.22180339]]]}},
{"type":"Feature","properties":{"id":"L04-10","name":"Production Hall 410","class":"production","room_number":"410"},"geometry":{"type":"Polygon","coordinates":[[[90.40371443,24.22169515],[90.40378264,24.22170846],[90.40376343,24.22179032],[90.40369522,24.22177701],[90.40371443,24.22169515]]]}},
{"type":"Feature","properties":{"id":"L04-11","name":"Production Hall 411","class":"production","room_number":"411"},"geometry":{"type":"Polygon","coordinates":[[[90.40375724,24.2218167],[90.40382546,24.22183002],[90.40380625,24.22191188],[90.40373803,24.22189857],[90.40375724,24.2218167]]]}},
{"type":"Feature","properties":{"id":"L04-12","name":"Production Hall 412","class":"production","room_number":"412"},"geometry":{"type":"Polygon","coordinates":[[[90.40378264,24.22170846],[90.40385086,24.22172177],[90.40383165,24.22180363],[90.40376343,24.22179032],[90.40378264,24.22170846]]]}},
{"type":"Feature","properties":{"id":"L04-13","name":"Washroom","class":"toilet","room_number":"413"},"geometry":{"type":"Polygon","coordinates":[[[90.40382546,24.22183002],[90.40389367,24.22184333],[90.40387447,24.22192519],[90.40380625,24.22191188],[90.40382546,24.22183002]]]}},
{"type":"Feature","properties":{"id":"L04-14","name":"Production Hall 414","class":"production","room_number":"414"},"geometry":{"type":"Polygon","coordinates":[[[90.40385086,24.22172177],[90.40391907,24.22173508],[90.40389986,24.22181694],[90.40383165,24.22180363],[90.40385086,24.22172177]]]}}
]
}
