{
"type": "FeatureCollection",
"name": "pois",
"crs": {"type":"name","properties":{"name":"urn:ogc:def:crs:OGC:1.3:CRS84"}},
"features": [
{"type":"Feature","properties":{"id":"lift-a","name":"Lift A","class":"lift"},"geometry":{"type":"Point","coordinates":[90.40278533,24.22166429]}},
{"type":"Feature","properties":{"id":"stair-1","name":"Stair 1","class":"stairs"},"geometry":{"type":"Point","coordinates":[90.40281884,24.22167083]}},
{"type":"Feature","properties":{"id":"stair-2","name":"Stair 2","class":"stairs"},"geometry":{"type":"Point","coordinates":[90.40244776,24.22156585]}},
{"type":"Feature","properties":{"id":"entrance","name":"Main Entrance","class":"entrance"},"geometry":{"type":"Point","coordinates":[90.4027936,24.22151545]}},
{"type":"Feature","properties":{"id":"info","name":"Information Desk","class":"info"},"geometry":{"type":"Point","coordinates":[90.40271826,24.221558]}}
]
}
