{
"type": "FeatureCollection",
"name": "walls",
"crs": {"type":"name","properties":{"name":"urn:ogc:def:crs:OGC:1.3:CRS84"}},
"features": [
{"type":"Feature","properties":{"id":1,"kind":"partition"},"geometry":{"type":"LineString","coordinates":[[90.40251303,24.22159239],[90.40248967,24.22169193]]}},
{"type":"Feature","properties":{"id":2,"kind":"partition"},"geometry":{"type":"LineString","coordinates":[[90.40254258,24.22146646],[90.40251922,24.221566]]}},
{"type":"Feature","properties":{"id":3,"kind":"partition"},"geometry":{"type":"LineString","coordinates":[[90.40259682,24.22160874],[90.40257346,24.22170828]]}},
{"type":"Feature","properties":{"id":4,"kind":"partition"},"geometry":{"type":"LineString","coordinates":[[90.40262637,24.22148281],[90.40260301,24.22158236]]}},
{"type":"Feature","properties":{"id":5,"kind":"partition"},"geometry":{"type":"LineString","coordinates":[[90.40268061,24.22162509],[90.40265725,24.22172463]]}},
{"type":"Feature","properties":{"id":6,"kind":"partition"},"geometry":{"type":"LineString","coordinates":[[90.40271016,24.22149916],[90.4026868,24.22159871]]}},
{"type":"Feature","properties":{"id":7,"kind":"partition"},"geometry":{"type":"LineString","coordinates":[[90.40275738,24.22167134],[90.40279446,24.22167858]]}},
{"type":"Feature","properties":{"id":8,"kind":"partition"},"geometry":{"type":"LineString","coordinates":[[90.4028041,24.22168046],[90.40284117,24.22168769]]}},
{"type":"Feature","properties":{"id":9,"kind":"partition"},"geometry":{"type":"LineString","coordinates":[[90.4027644,24.22164144],[90.40274104,24.22174098]]}},
{"type":"Feature","properties":{"id":10,"kind":"partition"},"geometry":{"type":"LineString","coordinates":[[90.40279395,24.22151552],[90.40277059,24.22161506]]}},
{"type":"Feature","properties":{"id":11,"kind":"partition"},"geometry":{"type":"LineString","coordinates":[[90.40284819,24.22165779],[90.40282483,24.22175734]]}},
{"type":"Feature","properties":{"id":12,"kind":"partition"},"geometry":{"type":"LineString","coordinates":[[90.40287774,24.22153187],[90.40285438,24.22163141]]}},
{"type":"Feature","properties":{"id":13,"kind":"partition"},"geometry":{"type":"LineString","coordinates":[[90.40293198,24.22167414],[90.40290862,24.22177369]]}},
{"type":"Feature","properties":{"id":14,"kind":"partition"},"geometry":{"type":"LineString","coordinates":[[90.40296153,24.22154822],[90.40293817,24.22164776]]}},
{"type":"Feature","properties":{"id":15,"kind":"partition"},"geometry":{"type":"LineString","coordinates":[[90.40301577,24.2216905],[90.40299241,24.22179004]]}},
{"type":"Feature","properties":{"id":16,"kind":"partition"},"geometry":{"type":"LineString","coordinates":[[90.40304532,24.22156457],[90.40302196,24.22166411]]}},
{"type":"Feature","properties":{"id":17,"kind":"corridor"},"geometry":{"type":"LineString","coordinates":[[90.40242924,24.22157603],[90.40246631,24.22158327]]}},
{"type":"Feature","properties":{"id":18,"kind":"corridor"},"geometry":{"type":"LineString","coordinates":[[90.40247595,24.22158515],[90.4025501,24.22159962]]}},
{"type":"Feature","properties":{"id":19,"kind":"corridor"},"geometry":{"type":"LineString","coordinates":[[90.40255974,24.2216015],[90.40263389,24.22161597]]}},
{"type":"Feature","properties":{"id":20,"kind":"corridor"},"geometry":{"type":"LineString","coordinates":[[90.40264354,24.22161785],[90.40271768,24.22163232]]}},
{"type":"Feature","properties":{"id":21,"kind":"corridor"},"geometry":{"type":"LineString","coordinates":[[90.40272733,24.22163421],[90.4027644,24.22164144]]}},
{"type":"Feature","properties":{"id":22,"kind":"corridor"},"geometry":{"type":"LineString","coordinates":[[90.40284819,24.22165779],[90.40288526,24.22166503]]}},
{"type":"Feature","properties":{"id":23,"kind":"corridor"},"geometry":{"type":"LineString","coordinates":[[90.40289491,24.22166691],[90.40296905,24.22168138]]}},
{"type":"Feature","properties":{"id":24,"kind":"corridor"},"geometry":{"type":"LineString","coordinates":[[90.4029787,24.22168326],[90.40305285,24.22169773]]}},
{"type":"Feature","properties":{"id":25,"kind":"corridor"},"geometry":{"type":"LineString","coordinates":[[90.40306249,24.22169961],[90.40309956,24.22170685]]}},
{"type":"Feature","properties":{"id":26,"kind":"corridor"},"geometry":{"type":"LineString","coordinates":[[90.40243543,24.22154965],[90.4024725,24.22155689]]}},
{"type":"Feature","properties":{"id":27,"kind":"corridor"},"geometry":{"type":"LineString","coordinates":[[90.40248214,24.22155877],[90.40255629,24.22157324]]}},
{"type":"Feature","properties":{"id":28,"kind":"corridor"},"geometry":{"type":"LineString","coordinates":[[90.40256594,24.22157512],[90.40264008,24.22158959]]}},
{"type":"Feature","properties":{"id":29,"kind":"corridor"},"geometry":{"type":"LineString","coordinates":[[90.40264973,24.22159147],[90.4026868,24.22159871]]}},
{"type":"Feature","properties":{"id":30,"kind":"corridor"},"geometry":{"type":"LineString","coordinates":[[90.40277059,24.22161506],[90.40280766,24.22162229]]}},
{"type":"Feature","properties":{"id":31,"kind":"corridor"},"geometry":{"type":"LineString","coordinates":[[90.40281731,24.22162418],[90.40289145,24.22163865]]}},
{"type":"Feature","properties":{"id":32,"kind":"corridor"},"geometry":{"type":"LineString","coordinates":[[90.4029011,24.22164053],[90.40297525,24.221655]]}},
{"type":"Feature","properties":{"id":33,"kind":"corridor"},"geometry":{"type":"LineString","coordinates":[[90.40298489,24.22165688],[90.40305904,24.22167135]]}},
{"type":"Feature","properties":{"id":34,"kind":"corridor"},"geometry":{"type":"LineString","coordinates":[[90.40306868,24.22167323],[90.40310575,24.22168047]]}},
{"type":"Feature","properties":{"id":35,"kind":"outer"},"geometry":{"type":"LineString","coordinates":[[90.40245878,24.22145011],[90.40278493,24.22151375]]}},
{"type":"Feature","properties":{"id":36,"kind":"outer"},"geometry":{"type":"LineString","coordinates":[[90.40280228,24.22151714],[90.40312911,24.22158092]]}},
{"type":"Feature","properties":{"id":37,"kind":"outer"},"geometry":{"type":"LineString","coordinates":[[90.40240588,24.22167558],[90.40307621,24.22180639]]}},
{"type":"Feature","properties":{"id":38,"kind":"outer"},"geometry":{"type":"LineString","coordinates":[[90.40245878,24.22145011],[90.40240588,24.22167558]]}},
{"type":"Feature","properties":{"id":39,"kind":"outer"},"geometry":{"type":"LineString","coordinates":[[90.40312911,24.22158092],[90.40307621,24.22180639]]}}
]
}
