{
"type": "FeatureCollection",
"name": "shops",
"crs": {"type":"name","properties":{"name":"urn:ogc:def:crs:OGC:1.3:CRS84"}},
"features": [
{"type":"Feature","properties":{"id":"L01-01","name":"Reception","class":"reception","room_number":"101"},"geometry":{"type":"Polygon","coordinates":[[[90.40264324,24.22117414],[90.40271972,24.22118907],[90.40274101,24.22109837],[90.40266452,24.22108344],[90.40264324,24.22117414]]]}},
{"type":"Feature","properties":{"id":"L01-02","name":"Medical Room","class":"first-aid","room_number":"102"},"geometry":{"type":"Polygon","coordinates":[[[90.40261577,24.22129123],[90.40269225,24.22130615],[90.40271353,24.22121545],[90.40263705,24.22120053],[90.40261577,24.22129123]]]}},
{"type":"Feature","properties":{"id":"L01-03","name":"Canteen","class":"food","room_number":"103"},"geometry":{"type":"Polygon","coordinates":[[[90.40271972,24.22118907],[90.4027962,24.22120399],[90.40281749,24.22111329],[90.40274101,24.22109837],[90.40271972,24.22118907]]]}},
{"type":"Feature","properties":{"id":"L01-04","name":"Prayer Room","class":"prayer","room_number":"104"},"geometry":{"type":"Polygon","coordinates":[[[90.40269225,24.22130615],[90.40276873,24.22132108],[90.40279001,24.22123038],[90.40271353,24.22121545],[90.40269225,24.22130615]]]}},
{"type":"Feature","properties":{"id":"L01-05","name":"Production Hall 105","class":"production","room_number":"105"},"geometry":{"type":"Polygon","coordinates":[[[90.4027962,24.22120399],[90.40287268,24.22121892],[90.40289397,24.22112822],[90.40281749,24.22111329],[90.4027962,24.22120399]]]}},
{"type":"Feature","properties":{"id":"L01-06","name":"Production Hall 106","class":"production","room_number":"106"},"geometry":{"type":"Polygon","coordinates":[[[90.40276873,24.22132108],[90.40284521,24.22133601],[90.40286649,24.2212453],[90.40279001,24.22123038],[90.40276873,24.22132108]]]}},
{"type":"Feature","properties":{"id":"L01-07","name":"Store","class":"store","room_number":"107"},"geometry":{"type":"Polygon","coordinates":[[[90.4028797,24.22118902],[90.40295618,24.22120395],[90.40297045,24.22114314],[90.40289397,24.22112822],[90.4028797,24.22118902]]]}},
{"type":"Feature","properties":{"id":"L01-08","name":"Production Hall 108","class":"production","room_number":"108"},"geometry":{"type":"Polygon","coordinates":[[[90.40294917,24.22123385],[90.40302565,24.22124877],[90.40304693,24.22115807],[90.40297045,24.22114314],[90.40294917,24.22123385]]]}},
{"type":"Feature","properties":{"id":"L01-09","name":"Production Hall 109","class":"production","room_number":"109"},"geometry":{"type":"Polygon","coordinates":[[[90.40292169,24.22135093],[90.40299817,24.22136586],[90.40301946,24.22127516],[90.40294298,24.22126023],[90.40292169,24.22135093]]]}},
{"type":"Feature","properties":{"id":"L01-10","name":"Production Hall 110","class":"production","room_number":"110"},"geometry":{"type":"Polygon","coordinates":[[[90.40302565,24.22124877],[90.40310213,24.2212637],[90.40312341,24.221173],[90.40304693,24.22115807],[90.40302565,24.22124877]]]}},
{"type":"Feature","properties":{"id":"L01-11","name":"Production Hall 111","class":"production","room_number":"111"},"geometry":{"type":"Polygon","coordinates":[[[90.40299817,24.22136586],[90.40307465,24.22138078],[90.40309594,24.22129008],[90.40301946,24.22127516],[90.40299817,24.22136586]]]}},
{"type":"Feature","properties":{"id":"L01-12","name":"Washroom","class":"toilet","room_number":"112"},"geometry":{"type":"Polygon","coordinates":[[[90.40310213,24.2212637],[90.40317861,24.22127862],[90.40319989,24.22118792],[90.40312341,24.221173],[90.40310213,24.2212637]]]}},
{"type":"Feature","properties":{"id":"L01-13","name":"Production Hall 113","class":"production","room_number":"113"},"geometry":{"type":"Polygon","coordinates":[[[90.40307465,24.22138078],[90.40315114,24.22139571],[90.40317242,24.22130501],[90.40309594,24.22129008],[90.40307465,24.22138078]]]}}
]
}
