{
"type": "FeatureCollection",
"name": "corridor",
"crs": {"type":"name","properties":{"name":"urn:ogc:def:crs:OGC:1.3:CRS84"}},
"features": [
{"type":"Feature","properties":{"id":1,"name":"Corridor","class":"corridor"},"geometry":{"type":"Polygon","coordinates":[[[90.38477114,23.7402014],[90.38446162,23.7401391],[90.38445504,23.7401665],[90.38476456,23.7402288],[90.38477114,23.7402014]]]}},
{"type":"Feature","properties":{"id":2,"name":"Lift lobby","class":"lobby"},"geometry":{"type":"Polygon","coordinates":[[[90.38460992,23.74019713],[90.38453254,23.74018155],[90.38452526,23.74021185],[90.38460264,23.74022743],[90.38460992,23.74019713]]]}},
{"type":"Feature","properties":{"id":3,"name":"Waiting lounge","class":"lobby"},"geometry":{"type":"Polygon","coordinates":[[[90.38463667,23.74008579],[90.38455929,23.74007021],[90.38453887,23.7401552],[90.38461625,23.74017078],[90.38463667,23.74008579]]]}}
]
}
