{
"type": "FeatureCollection",
"name": "doors",
"crs": {"type":"name","properties":{"name":"urn:ogc:def:crs:OGC:1.3:CRS84"}},
"features": [
{"type":"Feature","properties":{"id":"L06-D01","room":"L06-01","thickness_m":0.12},"geometry":{"type":"LineString","coordinates":[[90.38475413,23.74022615],[90.38474453,23.74022422]]}},
{"type":"Feature","properties":{"id":"L06-D02","room":"L06-01","thickness_m":0.12},"geometry":{"type":"LineString","coordinates":[[90.38463007,23.74020118],[90.38462048,23.74019925]]}},
{"type":"Feature","properties":{"id":"L06-D03","room":"L06-02","thickness_m":0.12},"geometry":{"type":"LineString","coordinates":[[90.38476046,23.7401998],[90.38475086,23.74019787]]}},
{"type":"Feature","properties":{"id":"L06-D04","room":"L06-03","thickness_m":0.12},"geometry":{"type":"LineString","coordinates":[[90.38467908,23.74018342],[90.38466949,23.74018149]]}},
{"type":"Feature","properties":{"id":"L06-D05","room":"L06-04","thickness_m":0.12},"geometry":{"type":"LineString","coordinates":[[90.38464039,23.74017563],[90.3846308,23.7401737]]}},
{"type":"Feature","properties":{"id":"L06-D06","room":"L06-05","thickness_m":0.12},"geometry":{"type":"LineString","coordinates":[[90.38452433,23.74015227],[90.38451473,23.74015034]]}},
{"type":"Feature","properties":{"id":"L06-D07","room":"L06-06","thickness_m":0.12},"geometry":{"type":"LineString","coordinates":[[90.38448564,23.74014449],[90.38447604,23.74014255]]}},
{"type":"Feature","properties":{"id":"L06-D08","room":"L06-07","thickness_m":0.1},"geometry":{"type":"LineString","coordinates":[[90.38456886,23.74022017],[90.38455926,23.74021824]]}},
{"type":"Feature","properties":{"id":"L06-D09","room":"L06-08","thickness_m":0.12},"geometry":{"type":"LineString","coordinates":[[90.384518,23.74017862],[90.3845084,23.74017669]]}},
{"type":"Feature","properties":{"id":"L06-D10","room":"L06-09","thickness_m":0.12},"geometry":{"type":"LineString","coordinates":[[90.38447931,23.74017084],[90.38446971,23.7401689]]}}
]
}
