{
"type": "FeatureCollection",
"name": "furniture",
"crs": {"type":"name","properties":{"name":"urn:ogc:def:crs:OGC:1.3:CRS84"}},
"features": [
{"type":"Feature","properties":{"id":"L06-F001","kind":"table","room":"L06-01","color":"#7b5235"},"geometry":{"type":"Polygon","coordinates":[[[90.38472063,23.7402624],[90.38463427,23.74024501],[90.38463111,23.74025819],[90.38471747,23.74027557],[90.38472063,23.7402624]]]}},
{"type":"Feature","properties":{"id":"L06-F002","kind":"chair","room":"L06-01"},"geometry":{"type":"Polygon","coordinates":[[[90.38471965,23.74025686],[90.38471543,23.74025601],[90.3847145,23.74025987],[90.38471872,23.74026072],[90.38471965,23.74025686]]]}},
{"type":"Feature","properties":{"id":"L06-F003","kind":"chair","room":"L06-01"},"geometry":{"type":"Polygon","coordinates":[[[90.38471496,23.74027636],[90.38471074,23.74027551],[90.38470981,23.74027937],[90.38471404,23.74028022],[90.38471496,23.74027636]]]}},
{"type":"Feature","properties":{"id":"L06-F004","kind":"chair","room":"L06-01"},"geometry":{"type":"Polygon","coordinates":[[[90.38471101,23.74025512],[90.38470679,23.74025427],[90.38470586,23.74025813],[90.38471008,23.74025898],[90.38471101,23.74025512]]]}},
{"type":"Feature","properties":{"id":"L06-F005","kind":"chair","room":"L06-01"},"geometry":{"type":"Polygon","coordinates":[[[90.38470633,23.74027462],[90.38470211,23.74027377],[90.38470118,23.74027763],[90.3847054,23.74027848],[90.38470633,23.74027462]]]}},
{"type":"Feature","properties":{"id":"L06-F006","kind":"chair","room":"L06-01"},"geometry":{"type":"Polygon","coordinates":[[[90.38470238,23.74025338],[90.38469815,23.74025253],[90.38469723,23.7402564],[90.38470145,23.74025725],[90.38470238,23.74025338]]]}},
{"type":"Feature","properties":{"id":"L06-F007","kind":"chair","room":"L06-01"},"geometry":{"type":"Polygon","coordinates":[[[90.38469769,23.74027288],[90.38469347,23.74027203],[90.38469254,23.7402759],[90.38469676,23.74027675],[90.38469769,23.74027288]]]}},
{"type":"Feature","properties":{"id":"L06-F008","kind":"chair","room":"L06-01"},"geometry":{"type":"Polygon","coordinates":[[[90.38469374,23.74025164],[90.38468952,23.74025079],[90.38468859,23.74025466],[90.38469281,23.74025551],[90.38469374,23.74025164]]]}},
{"type":"Feature","properties":{"id":"L06-F009","kind":"chair","room":"L06-01"},"geometry":{"type":"Polygon","coordinates":[[[90.38468906,23.74027114],[90.38468484,23.74027029],[90.38468391,23.74027416],[90.38468813,23.74027501],[90.38468906,23.74027114]]]}},
{"type":"Feature","properties":{"id":"L06-F010","kind":"chair","room":"L06-01"},"geometry":{"type":"Polygon","coordinates":[[[90.38468511,23.7402499],[90.38468088,23.74024906],[90.38467995,23.74025292],[90.38468418,23.74025377],[90.38468511,23.7402499]]]}},
{"type":"Feature","properties":{"id":"L06-F011","kind":"chair","room":"L06-01"},"geometry":{"type":"Polygon","coordinates":[[[90.38468042,23.7402694],[90.3846762,23.74026855],[90.38467527,23.74027242],[90.38467949,23.74027327],[90.38468042,23.7402694]]]}},
{"type":"Feature","properties":{"id":"L06-F012","kind":"chair","room":"L06-01"},"geometry":{"type":"Polygon","coordinates":[[[90.38467647,23.74024817],[90.38467225,23.74024732],[90.38467132,23.74025118],[90.38467554,23.74025203],[90.38467647,23.74024817]]]}},
{"type":"Feature","properties":{"id":"L06-F013","kind":"chair","room":"L06-01"},"geometry":{"type":"Polygon","coordinates":[[[90.38467179,23.74026767],[90.38466756,23.74026682],[90.38466664,23.74027068],[90.38467086,23.74027153],[90.38467179,23.74026767]]]}},
{"type":"Feature","properties":{"id":"L06-F014","kind":"chair","room":"L06-01"},"geometry":{"type":"Polygon","coordinates":[[[90.38466783,23.74024643],[90.38466361,23.74024558],[90.38466268,23.74024944],[90.38466691,23.74025029],[90.38466783,23.74024643]]]}},
{"type":"Feature","properties":{"id":"L06-F015","kind":"chair","room":"L06-01"},"geometry":{"type":"Polygon","coordinates":[[[90.38466315,23.74026593],[90.38465893,23.74026508],[90.384658,23.74026894],[90.38466222,23.74026979],[90.38466315,23.74026593]]]}},
{"type":"Feature","properties":{"id":"L06-F016","kind":"chair","room":"L06-01"},"geometry":{"type":"Polygon","coordinates":[[[90.3846592,23.74024469],[90.38465498,23.74024384],[90.38465405,23.74024771],[90.38465827,23.74024856],[90.3846592,23.74024469]]]}},
{"type":"Feature","properties":{"id":"L06-F017","kind":"chair","room":"L06-01"},"geometry":{"type":"Polygon","coordinates":[[[90.38465451,23.74026419],[90.38465029,23.74026334],[90.38464936,23.7402672],[90.38465359,23.74026805],[90.38465451,23.74026419]]]}},
{"type":"Feature","properties":{"id":"L06-F018","kind":"chair","room":"L06-01"},"geometry":{"type":"Polygon","coordinates":[[[90.38465056,23.74024295],[90.38464634,23.7402421],[90.38464541,23.74024597],[90.38464963,23.74024682],[90.38465056,23.74024295]]]}},
{"type":"Feature","properties":{"id":"L06-F019","kind":"chair","room":"L06-01"},"geometry":{"type":"Polygon","coordinates":[[[90.38464588,23.74026245],[90.38464166,23.7402616],[90.38464073,23.74026547],[90.38464495,23.74026632],[90.38464588,23.74026245]]]}},
{"type":"Feature","properties":{"id":"L06-F020","kind":"chair","room":"L06-01"},"geometry":{"type":"Polygon","coordinates":[[[90.38464193,23.74024121],[90.3846377,23.74024036],[90.38463678,23.74024423],[90.384641,23.74024508],[90.38464193,23.74024121]]]}},
{"type":"Feature","properties":{"id":"L06-F021","kind":"chair","room":"L06-01"},"geometry":{"type":"Polygon","coordinates":[[[90.38463724,23.74026071],[90.38463302,23.74025986],[90.38463209,23.74026373],[90.38463631,23.74026458],[90.38463724,23.74026071]]]}},
{"type":"Feature","properties":{"id":"L06-F022","kind":"chair","room":"L06-01","height_m":1.05},"geometry":{"type":"Polygon","coordinates":[[[90.38472531,23.74026803],[90.38472071,23.74026711],[90.38471969,23.74027132],[90.3847243,23.74027225],[90.38472531,23.74026803]]]}},
{"type":"Feature","properties":{"id":"L06-F023","kind":"chair","room":"L06-01","height_m":1.05},"geometry":{"type":"Polygon","coordinates":[[[90.38463205,23.74024926],[90.38462744,23.74024834],[90.38462643,23.74025255],[90.38463103,23.74025348],[90.38463205,23.74024926]]]}},
{"type":"Feature","properties":{"id":"L06-F024","kind":"cabinet","room":"L06-01"},"geometry":{"type":"Polygon","coordinates":[[[90.38474255,23.74030785],[90.38471664,23.74030264],[90.3847158,23.74030615],[90.38474171,23.74031137],[90.38474255,23.74030785]]]}},
{"type":"Feature","properties":{"id":"L06-F025","kind":"board","room":"L06-01","base_m":0.8,"height_m":1.1},"geometry":{"type":"Polygon","coordinates":[[[90.38467691,23.74029786],[90.38465771,23.740294],[90.38465755,23.7402947],[90.38467674,23.74029856],[90.38467691,23.74029786]]]}},
{"type":"Feature","properties":{"id":"L06-F026","kind":"plant","room":"L06-01"},"geometry":{"type":"Polygon","coordinates":[[[90.38474335,23.74030663],[90.38473903,23.74030576],[90.38473808,23.74030971],[90.3847424,23.74031058],[90.38474335,23.74030663]]]}},
{"type":"Feature","properties":{"id":"L06-F027","kind":"desk","room":"L06-02","color":"#8b5e3c"},"geometry":{"type":"Polygon","coordinates":[[[90.38476595,23.7401433],[90.38474676,23.74013944],[90.38474486,23.74014735],[90.38476405,23.74015121],[90.38476595,23.7401433]]]}},
{"type":"Feature","properties":{"id":"L06-F028","kind":"chair","room":"L06-02","height_m":1.15},"geometry":{"type":"Polygon","coordinates":[[[90.3847611,23.74013542],[90.38475477,23.74013415],[90.3847535,23.74013942],[90.38475984,23.74014069],[90.3847611,23.74013542]]]}},
{"type":"Feature","properties":{"id":"L06-F029","kind":"chair","room":"L06-02"},"geometry":{"type":"Polygon","coordinates":[[[90.38476219,23.74015268],[90.38475739,23.74015171],[90.38475634,23.7401561],[90.38476113,23.74015707],[90.38476219,23.74015268]]]}},
{"type":"Feature","properties":{"id":"L06-F030","kind":"chair","room":"L06-02"},"geometry":{"type":"Polygon","coordinates":[[[90.38475067,23.74015036],[90.38474588,23.74014939],[90.38474482,23.74015378],[90.38474962,23.74015475],[90.38475067,23.74015036]]]}},
{"type":"Feature","properties":{"id":"L06-F031","kind":"sofa","room":"L06-02"},"geometry":{"type":"Polygon","coordinates":[[[90.38471263,23.74015124],[90.38470447,23.74014959],[90.38470004,23.74016804],[90.3847082,23.74016968],[90.38471263,23.74015124]]]}},
{"type":"Feature","properties":{"id":"L06-F032","kind":"table","room":"L06-02","height_m":0.42},"geometry":{"type":"Polygon","coordinates":[[[90.38472106,23.740158],[90.38471435,23.74015665],[90.38471224,23.74016543],[90.38471895,23.74016678],[90.38472106,23.740158]]]}},
{"type":"Feature","properties":{"id":"L06-F033","kind":"armchair","room":"L06-02"},"geometry":{"type":"Polygon","coordinates":[[[90.38473007,23.74016027],[90.38472336,23.74015892],[90.38472146,23.74016682],[90.38472817,23.74016818],[90.38473007,23.74016027]]]}},
{"type":"Feature","properties":{"id":"L06-F034","kind":"cabinet","room":"L06-02"},"geometry":{"type":"Polygon","coordinates":[[[90.38478908,23.74011831],[90.38476798,23.74011406],[90.38476713,23.74011757],[90.38478824,23.74012182],[90.38478908,23.74011831]]]}},
{"type":"Feature","properties":{"id":"L06-F035","kind":"plant","room":"L06-02"},"geometry":{"type":"Polygon","coordinates":[[[90.38472024,23.74010491],[90.38471592,23.74010404],[90.38471497,23.74010799],[90.38471929,23.74010886],[90.38472024,23.74010491]]]}},
{"type":"Feature","properties":{"id":"L06-F036","kind":"desk","room":"L06-03","color":"#8b5e3c"},"geometry":{"type":"Polygon","coordinates":[[[90.38469708,23.74012944],[90.38467789,23.74012558],[90.38467599,23.74013348],[90.38469518,23.74013735],[90.38469708,23.74012944]]]}},
{"type":"Feature","properties":{"id":"L06-F037","kind":"chair","room":"L06-03","height_m":1.15},"geometry":{"type":"Polygon","coordinates":[[[90.38469223,23.74012156],[90.3846859,23.74012029],[90.38468464,23.74012556],[90.38469097,23.74012683],[90.38469223,23.74012156]]]}},
{"type":"Feature","properties":{"id":"L06-F038","kind":"chair","room":"L06-03"},"geometry":{"type":"Polygon","coordinates":[[[90.38469332,23.74013881],[90.38468852,23.74013785],[90.38468747,23.74014224],[90.38469227,23.74014321],[90.38469332,23.74013881]]]}},
{"type":"Feature","properties":{"id":"L06-F039","kind":"chair","room":"L06-03"},"geometry":{"type":"Polygon","coordinates":[[[90.38468181,23.7401365],[90.38467701,23.74013553],[90.38467595,23.74013992],[90.38468075,23.74014089],[90.38468181,23.7401365]]]}},
{"type":"Feature","properties":{"id":"L06-F040","kind":"cabinet","room":"L06-03"},"geometry":{"type":"Polygon","coordinates":[[[90.38471171,23.74010273],[90.38469621,23.74009961],[90.38469537,23.74010313],[90.38471086,23.74010625],[90.38471171,23.74010273]]]}},
{"type":"Feature","properties":{"id":"L06-F041","kind":"plant","room":"L06-03"},"geometry":{"type":"Polygon","coordinates":[[[90.38468155,23.74009712],[90.38467723,23.74009625],[90.38467628,23.74010021],[90.3846806,23.74010108],[90.38468155,23.74009712]]]}},
{"type":"Feature","properties":{"id":"L06-F042","kind":"desk","room":"L06-04","color":"#8b5e3c"},"geometry":{"type":"Polygon","coordinates":[[[90.38465839,23.74012166],[90.3846392,23.74011779],[90.3846373,23.7401257],[90.38465649,23.74012956],[90.38465839,23.74012166]]]}},
{"type":"Feature","properties":{"id":"L06-F043","kind":"chair","room":"L06-04","height_m":1.15},"geometry":{"type":"Polygon","coordinates":[[[90.38465354,23.74011377],[90.38464721,23.7401125],[90.38464595,23.74011777],[90.38465228,23.74011904],[90.38465354,23.74011377]]]}},
{"type":"Feature","properties":{"id":"L06-F044","kind":"chair","room":"L06-04"},"geometry":{"type":"Polygon","coordinates":[[[90.38465463,23.74013103],[90.38464983,23.74013006],[90.38464878,23.74013445],[90.38465358,23.74013542],[90.38465463,23.74013103]]]}},
{"type":"Feature","properties":{"id":"L06-F045","kind":"chair","room":"L06-04"},"geometry":{"type":"Polygon","coordinates":[[[90.38464312,23.74012871],[90.38463832,23.74012774],[90.38463726,23.74013214],[90.38464206,23.7401331],[90.38464312,23.74012871]]]}},
{"type":"Feature","properties":{"id":"L06-F046","kind":"cabinet","room":"L06-04"},"geometry":{"type":"Polygon","coordinates":[[[90.38467302,23.74009495],[90.38465752,23.74009183],[90.38465668,23.74009534],[90.38467217,23.74009846],[90.38467302,23.74009495]]]}},
{"type":"Feature","properties":{"id":"L06-F047","kind":"plant","room":"L06-04"},"geometry":{"type":"Polygon","coordinates":[[[90.38464286,23.74008934],[90.38463854,23.74008847],[90.38463759,23.74009242],[90.38464191,23.74009329],[90.38464286,23.74008934]]]}},
{"type":"Feature","properties":{"id":"L06-F048","kind":"desk","room":"L06-05"},"geometry":{"type":"Polygon","coordinates":[[[90.38453937,23.74010013],[90.38452497,23.74009723],[90.38452337,23.7401039],[90.38453776,23.7401068],[90.38453937,23.74010013]]]}},
{"type":"Feature","properties":{"id":"L06-F049","kind":"chair","room":"L06-05","height_m":1},"geometry":{"type":"Polygon","coordinates":[[[90.38453653,23.74009311],[90.38453077,23.74009195],[90.38452959,23.74009687],[90.38453534,23.74009803],[90.38453653,23.74009311]]]}},
{"type":"Feature","properties":{"id":"L06-F050","kind":"chair","room":"L06-05"},"geometry":{"type":"Polygon","coordinates":[[[90.38453712,23.74010824],[90.3845328,23.74010737],[90.38453185,23.74011132],[90.38453617,23.74011219],[90.38453712,23.74010824]]]}},
{"type":"Feature","properties":{"id":"L06-F051","kind":"chair","room":"L06-05"},"geometry":{"type":"Polygon","coordinates":[[[90.38452762,23.74010632],[90.3845233,23.74010545],[90.38452235,23.74010941],[90.38452667,23.74011028],[90.38452762,23.74010632]]]}},
{"type":"Feature","properties":{"id":"L06-F052","kind":"cabinet","room":"L06-05"},"geometry":{"type":"Polygon","coordinates":[[[90.38455695,23.74007158],[90.38454339,23.74006886],[90.3845425,23.74007254],[90.38455606,23.74007527],[90.38455695,23.74007158]]]}},
{"type":"Feature","properties":{"id":"L06-F053","kind":"plant","room":"L06-05"},"geometry":{"type":"Polygon","coordinates":[[[90.38452698,23.74006601],[90.38452247,23.7400651],[90.38452148,23.74006923],[90.38452599,23.74007014],[90.38452698,23.74006601]]]}},
{"type":"Feature","properties":{"id":"L06-F054","kind":"desk","room":"L06-06","color":"#8b5e3c"},"geometry":{"type":"Polygon","coordinates":[[[90.38450363,23.74009051],[90.38448444,23.74008664],[90.38448254,23.74009455],[90.38450173,23.74009841],[90.38450363,23.74009051]]]}},
{"type":"Feature","properties":{"id":"L06-F055","kind":"chair","room":"L06-06","height_m":1.15},"geometry":{"type":"Polygon","coordinates":[[[90.38449878,23.74008262],[90.38449245,23.74008135],[90.38449119,23.74008662],[90.38449752,23.74008789],[90.38449878,23.74008262]]]}},
{"type":"Feature","properties":{"id":"L06-F056","kind":"chair","room":"L06-06"},"geometry":{"type":"Polygon","coordinates":[[[90.38449987,23.74009988],[90.38449507,23.74009891],[90.38449402,23.7401033],[90.38449882,23.74010427],[90.38449987,23.74009988]]]}},
{"type":"Feature","properties":{"id":"L06-F057","kind":"chair","room":"L06-06"},"geometry":{"type":"Polygon","coordinates":[[[90.38448836,23.74009756],[90.38448356,23.7400966],[90.3844825,23.74010099],[90.3844873,23.74010195],[90.38448836,23.74009756]]]}},
{"type":"Feature","properties":{"id":"L06-F058","kind":"cabinet","room":"L06-06"},"geometry":{"type":"Polygon","coordinates":[[[90.38451826,23.7400638],[90.38450277,23.74006068],[90.38450192,23.74006419],[90.38451741,23.74006731],[90.38451826,23.7400638]]]}},
{"type":"Feature","properties":{"id":"L06-F059","kind":"plant","room":"L06-06"},"geometry":{"type":"Polygon","coordinates":[[[90.3844881,23.74005819],[90.38448378,23.74005732],[90.38448283,23.74006127],[90.38448715,23.74006214],[90.3844881,23.74005819]]]}},
{"type":"Feature","properties":{"id":"L06-F060","kind":"shelf","room":"L06-07"},"geometry":{"type":"Polygon","coordinates":[[[90.38459628,23.74024134],[90.38456527,23.7402351],[90.38456422,23.74023949],[90.38459523,23.74024573],[90.38459628,23.74024134]]]}},
{"type":"Feature","properties":{"id":"L06-F061","kind":"shelf","room":"L06-07"},"geometry":{"type":"Polygon","coordinates":[[[90.38455568,23.74023317],[90.38452466,23.74022693],[90.38452361,23.74023132],[90.38455462,23.74023756],[90.38455568,23.74023317]]]}},
{"type":"Feature","properties":{"id":"L06-F062","kind":"shelf","room":"L06-07"},"geometry":{"type":"Polygon","coordinates":[[[90.38459291,23.74025539],[90.38456189,23.74024915],[90.38456084,23.74025354],[90.38459185,23.74025979],[90.38459291,23.74025539]]]}},
{"type":"Feature","properties":{"id":"L06-F063","kind":"shelf","room":"L06-07"},"geometry":{"type":"Polygon","coordinates":[[[90.3845523,23.74024722],[90.38452129,23.74024098],[90.38452023,23.74024537],[90.38455124,23.74025161],[90.3845523,23.74024722]]]}},
{"type":"Feature","properties":{"id":"L06-F064","kind":"shelf","room":"L06-07"},"geometry":{"type":"Polygon","coordinates":[[[90.38458953,23.74026945],[90.38455852,23.74026321],[90.38455746,23.7402676],[90.38458848,23.74027384],[90.38458953,23.74026945]]]}},
{"type":"Feature","properties":{"id":"L06-F065","kind":"shelf","room":"L06-07"},"geometry":{"type":"Polygon","coordinates":[[[90.38454892,23.74026127],[90.38451791,23.74025503],[90.38451686,23.74025942],[90.38454787,23.74026567],[90.38454892,23.74026127]]]}},
{"type":"Feature","properties":{"id":"L06-F066","kind":"basin","room":"L06-08"},"geometry":{"type":"Polygon","coordinates":[[[90.38452725,23.74019522],[90.38452197,23.74019416],[90.38451555,23.7402209],[90.38452083,23.74022196],[90.38452725,23.74019522]]]}},
{"type":"Feature","properties":{"id":"L06-F067","kind":"cubicle","room":"L06-08"},"geometry":{"type":"Polygon","coordinates":[[[90.38447942,23.7402443],[90.38447894,23.74024421],[90.38447567,23.74025782],[90.38447615,23.74025792],[90.38447942,23.7402443]]]}},
{"type":"Feature","properties":{"id":"L06-F068","kind":"cubicle","room":"L06-08"},"geometry":{"type":"Polygon","coordinates":[[[90.38449142,23.74024672],[90.38449094,23.74024662],[90.38448767,23.74026023],[90.38448815,23.74026033],[90.38449142,23.74024672]]]}},
{"type":"Feature","properties":{"id":"L06-F069","kind":"cubicle","room":"L06-08"},"geometry":{"type":"Polygon","coordinates":[[[90.38450341,23.74024913],[90.38450293,23.74024903],[90.38449966,23.74026265],[90.38450014,23.74026274],[90.38450341,23.74024913]]]}},
{"type":"Feature","properties":{"id":"L06-F070","kind":"basin","room":"L06-09"},"geometry":{"type":"Polygon","coordinates":[[[90.38448856,23.74018743],[90.38448328,23.74018637],[90.38447686,23.74021311],[90.38448214,23.74021417],[90.38448856,23.74018743]]]}},
{"type":"Feature","properties":{"id":"L06-F071","kind":"cubicle","room":"L06-09"},"geometry":{"type":"Polygon","coordinates":[[[90.38444073,23.74023651],[90.38444025,23.74023642],[90.38443698,23.74025003],[90.38443746,23.74025013],[90.38444073,23.74023651]]]}},
{"type":"Feature","properties":{"id":"L06-F072","kind":"cubicle","room":"L06-09"},"geometry":{"type":"Polygon","coordinates":[[[90.38445273,23.74023893],[90.38445225,23.74023883],[90.38444898,23.74025245],[90.38444946,23.74025254],[90.38445273,23.74023893]]]}},
{"type":"Feature","properties":{"id":"L06-F073","kind":"cubicle","room":"L06-09"},"geometry":{"type":"Polygon","coordinates":[[[90.38446472,23.74024134],[90.38446424,23.74024125],[90.38446097,23.74025486],[90.38446145,23.74025496],[90.38446472,23.74024134]]]}},
{"type":"Feature","properties":{"id":"L06-F074","kind":"sofa","room":null},"geometry":{"type":"Polygon","coordinates":[[[90.38462761,23.74008581],[90.3845675,23.74007371],[90.38456581,23.74008073],[90.38462592,23.74009283],[90.38462761,23.74008581]]]}},
{"type":"Feature","properties":{"id":"L06-F075","kind":"table","room":null,"height_m":0.42},"geometry":{"type":"Polygon","coordinates":[[[90.3846027,23.74009184],[90.38458735,23.74008875],[90.38458587,23.7400949],[90.38460122,23.74009799],[90.3846027,23.74009184]]]}},
{"type":"Feature","properties":{"id":"L06-F076","kind":"plant","room":null},"geometry":{"type":"Polygon","coordinates":[[[90.38463422,23.7400876],[90.3846299,23.74008673],[90.38462895,23.74009068],[90.38463327,23.74009155],[90.38463422,23.7400876]]]}},
{"type":"Feature","properties":{"id":"L06-F077","kind":"plant","room":null},"geometry":{"type":"Polygon","coordinates":[[[90.384565,23.74007366],[90.38456068,23.7400728],[90.38455973,23.74007675],[90.38456405,23.74007762],[90.384565,23.74007366]]]}}
]
}
