{
"type": "FeatureCollection",
"name": "shops",
"crs": {"type":"name","properties":{"name":"urn:ogc:def:crs:OGC:1.3:CRS84"}},
"features": [
{"type":"Feature","properties":{"id":"L06-01","name":"Board Room","class":"meeting","room_number":"601"},"geometry":{"type":"Polygon","coordinates":[[[90.38476468,23.74022827],[90.38460992,23.74019713],[90.38458951,23.74028211],[90.38474427,23.74031326],[90.38476468,23.74022827]]]}},
{"type":"Feature","properties":{"id":"L06-02","name":"Secretary","class":"office","room_number":"602"},"geometry":{"type":"Polygon","coordinates":[[[90.38479143,23.74011694],[90.38471405,23.74010136],[90.38469363,23.74018635],[90.38477101,23.74020192],[90.38479143,23.74011694]]]}},
{"type":"Feature","properties":{"id":"L06-03","name":"Member (Administration)","class":"office","room_number":"603"},"geometry":{"type":"Polygon","coordinates":[[[90.38471405,23.74010136],[90.38467536,23.74009358],[90.38465494,23.74017856],[90.38469363,23.74018635],[90.38471405,23.74010136]]]}},
{"type":"Feature","properties":{"id":"L06-04","name":"Chairman's Office","class":"office","room_number":"604"},"geometry":{"type":"Polygon","coordinates":[[[90.38467536,23.74009358],[90.38463667,23.74008579],[90.38461625,23.74017078],[90.38465494,23.74017856],[90.38467536,23.74009358]]]}},
{"type":"Feature","properties":{"id":"L06-05","name":"PS to Chairman","class":"office","room_number":"605"},"geometry":{"type":"Polygon","coordinates":[[[90.38455929,23.74007021],[90.3845206,23.74006243],[90.38450018,23.74014741],[90.38453887,23.7401552],[90.38455929,23.74007021]]]}},
{"type":"Feature","properties":{"id":"L06-06","name":"Member (Science)","class":"office","room_number":"606"},"geometry":{"type":"Polygon","coordinates":[[[90.3845206,23.74006243],[90.38448191,23.74005464],[90.38446149,23.74013963],[90.38450018,23.74014741],[90.3845206,23.74006243]]]}},
{"type":"Feature","properties":{"id":"L06-07","name":"Janitor's Room","class":"store","room_number":"607"},"geometry":{"type":"Polygon","coordinates":[[[90.38460275,23.74022699],[90.38452537,23.74021141],[90.38451213,23.74026654],[90.38458951,23.74028211],[90.38460275,23.74022699]]]}},
{"type":"Feature","properties":{"id":"L06-08","name":"Gents Washroom","class":"toilet","room_number":"608"},"geometry":{"type":"Polygon","coordinates":[[[90.38453254,23.74018155],[90.38449385,23.74017376],[90.38447344,23.74025875],[90.38451213,23.74026654],[90.38453254,23.74018155]]]}},
{"type":"Feature","properties":{"id":"L06-09","name":"Ladies Washroom","class":"toilet","room_number":"609"},"geometry":{"type":"Polygon","coordinates":[[[90.38449385,23.74017376],[90.38445516,23.74016598],[90.38443475,23.74025096],[90.38447344,23.74025875],[90.38449385,23.74017376]]]}}
]
}
