{
"type": "FeatureCollection",
"name": "corridor",
"crs": {"type":"name","properties":{"name":"urn:ogc:def:crs:OGC:1.3:CRS84"}},
"features": [
{"type":"Feature","properties":{"id":1,"name":"Corridor","class":"corridor"},"geometry":{"type":"Polygon","coordinates":[[[90.40263705,24.22120053],[90.40317242,24.22130501],[90.40317861,24.22127862],[90.40264324,24.22117414],[90.40263705,24.22120053]]]}},
{"type":"Feature","properties":{"id":2,"name":"Lift lobby","class":"lobby"},"geometry":{"type":"Polygon","coordinates":[[[90.40287268,24.22121892],[90.40294917,24.22123385],[90.40295618,24.22120395],[90.4028797,24.22118902],[90.40287268,24.22121892]]]}}
]
}
