{
"type": "FeatureCollection",
"name": "walls",
"crs": {"type":"name","properties":{"name":"urn:ogc:def:crs:OGC:1.3:CRS84"}},
"features": [
{"type":"Feature","properties":{"id":1,"kind":"partition"},"geometry":{"type":"LineString","coordinates":[[90.40271972,24.22118907],[90.40274101,24.22109837]]}},
{"type":"Feature","properties":{"id":2,"kind":"partition"},"geometry":{"type":"LineString","coordinates":[[90.40269225,24.22130615],[90.40271353,24.22121545]]}},
{"type":"Feature","properties":{"id":3,"kind":"partition"},"geometry":{"type":"LineString","coordinates":[[90.4027962,24.22120399],[90.40281749,24.22111329]]}},
{"type":"Feature","properties":{"id":4,"kind":"partition"},"geometry":{"type":"LineString","coordinates":[[90.40276873,24.22132108],[90.40279001,24.22123038]]}},
{"type":"Feature","properties":{"id":5,"kind":"partition"},"geometry":{"type":"LineString","coordinates":[[90.4028797,24.22118902],[90.40291312,24.22119554]]}},
{"type":"Feature","properties":{"id":6,"kind":"partition"},"geometry":{"type":"LineString","coordinates":[[90.40292276,24.22119742],[90.40295618,24.22120395]]}},
{"type":"Feature","properties":{"id":7,"kind":"partition"},"geometry":{"type":"LineString","coordinates":[[90.40287268,24.22121892],[90.40289397,24.22112822]]}},
{"type":"Feature","properties":{"id":8,"kind":"partition"},"geometry":{"type":"LineString","coordinates":[[90.40284521,24.22133601],[90.40286649,24.2212453]]}},
{"type":"Feature","properties":{"id":9,"kind":"partition"},"geometry":{"type":"LineString","coordinates":[[90.40294917,24.22123385],[90.40297045,24.22114314]]}},
{"type":"Feature","properties":{"id":10,"kind":"partition"},"geometry":{"type":"LineString","coordinates":[[90.40292169,24.22135093],[90.40294298,24.22126023]]}},
{"type":"Feature","properties":{"id":11,"kind":"partition"},"geometry":{"type":"LineString","coordinates":[[90.40302565,24.22124877],[90.40304693,24.22115807]]}},
{"type":"Feature","properties":{"id":12,"kind":"partition"},"geometry":{"type":"LineString","coordinates":[[90.40299817,24.22136586],[90.40301946,24.22127516]]}},
{"type":"Feature","properties":{"id":13,"kind":"partition"},"geometry":{"type":"LineString","coordinates":[[90.40310213,24.2212637],[90.40312341,24.221173]]}},
{"type":"Feature","properties":{"id":14,"kind":"partition"},"geometry":{"type":"LineString","coordinates":[[90.40307465,24.22138078],[90.40309594,24.22129008]]}},
{"type":"Feature","properties":{"id":15,"kind":"corridor"},"geometry":{"type":"LineString","coordinates":[[90.40264324,24.22117414],[90.40267666,24.22118066]]}},
{"type":"Feature","properties":{"id":16,"kind":"corridor"},"geometry":{"type":"LineString","coordinates":[[90.4026863,24.22118255],[90.40275314,24.22119559]]}},
{"type":"Feature","properties":{"id":17,"kind":"corridor"},"geometry":{"type":"LineString","coordinates":[[90.40276278,24.22119747],[90.40282962,24.22121052]]}},
{"type":"Feature","properties":{"id":18,"kind":"corridor"},"geometry":{"type":"LineString","coordinates":[[90.40283927,24.2212124],[90.40287268,24.22121892]]}},
{"type":"Feature","properties":{"id":19,"kind":"corridor"},"geometry":{"type":"LineString","coordinates":[[90.40294917,24.22123385],[90.40298259,24.22124037]]}},
{"type":"Feature","properties":{"id":20,"kind":"corridor"},"geometry":{"type":"LineString","coordinates":[[90.40299223,24.22124225],[90.40305907,24.22125529]]}},
{"type":"Feature","properties":{"id":21,"kind":"corridor"},"geometry":{"type":"LineString","coordinates":[[90.40306871,24.22125718],[90.40313555,24.22127022]]}},
{"type":"Feature","properties":{"id":22,"kind":"corridor"},"geometry":{"type":"LineString","coordinates":[[90.40314519,24.2212721],[90.40317861,24.22127862]]}},
{"type":"Feature","properties":{"id":23,"kind":"corridor"},"geometry":{"type":"LineString","coordinates":[[90.40263705,24.22120053],[90.40267047,24.22120705]]}},
{"type":"Feature","properties":{"id":24,"kind":"corridor"},"geometry":{"type":"LineString","coordinates":[[90.40268011,24.22120893],[90.40274695,24.22122197]]}},
{"type":"Feature","properties":{"id":25,"kind":"corridor"},"geometry":{"type":"LineString","coordinates":[[90.40275659,24.22122386],[90.40282343,24.2212369]]}},
{"type":"Feature","properties":{"id":26,"kind":"corridor"},"geometry":{"type":"LineString","coordinates":[[90.40283307,24.22123878],[90.40289991,24.22125183]]}},
{"type":"Feature","properties":{"id":27,"kind":"corridor"},"geometry":{"type":"LineString","coordinates":[[90.40290956,24.22125371],[90.40297639,24.22126675]]}},
{"type":"Feature","properties":{"id":28,"kind":"corridor"},"geometry":{"type":"LineString","coordinates":[[90.40298604,24.22126863],[90.40305288,24.22128168]]}},
{"type":"Feature","properties":{"id":29,"kind":"corridor"},"geometry":{"type":"LineString","coordinates":[[90.40306252,24.22128356],[90.40312936,24.2212966]]}},
{"type":"Feature","properties":{"id":30,"kind":"corridor"},"geometry":{"type":"LineString","coordinates":[[90.403139,24.22129849],[90.40317242,24.22130501]]}},
{"type":"Feature","properties":{"id":31,"kind":"outer"},"geometry":{"type":"LineString","coordinates":[[90.40261577,24.22129123],[90.40315114,24.22139571]]}},
{"type":"Feature","properties":{"id":32,"kind":"outer"},"geometry":{"type":"LineString","coordinates":[[90.40266452,24.22108344],[90.40319989,24.22118792]]}},
{"type":"Feature","properties":{"id":33,"kind":"outer"},"geometry":{"type":"LineString","coordinates":[[90.40261577,24.22129123],[90.40266452,24.22108344]]}},
{"type":"Feature","properties":{"id":34,"kind":"outer"},"geometry":{"type":"LineString","coordinates":[[90.40315114,24.22139571],[90.40319989,24.22118792]]}}
]
}
