{
"type": "FeatureCollection",
"name": "corridor",
"crs": {"type":"name","properties":{"name":"urn:ogc:def:crs:OGC:1.3:CRS84"}},
"features": [
{"type":"Feature","properties":{"id":1,"name":"Corridor","class":"corridor"},"geometry":{"type":"Polygon","coordinates":[[[90.4023059,24.2214809],[90.40196343,24.22141407],[90.40195848,24.22143517],[90.40230095,24.221502],[90.4023059,24.2214809]]]}},
{"type":"Feature","properties":{"id":2,"name":"Lift lobby","class":"lobby"},"geometry":{"type":"Polygon","coordinates":[[[90.40215418,24.22147336],[90.40210525,24.22146381],[90.40209845,24.2214928],[90.40214737,24.22150235],[90.40215418,24.22147336]]]}}
]
}
