{
"type": "FeatureCollection",
"name": "corridor",
"crs": {"type":"name","properties":{"name":"urn:ogc:def:crs:OGC:1.3:CRS84"}},
"features": [
{"type":"Feature","properties":{"id":1,"name":"Corridor","class":"corridor"},"geometry":{"type":"Polygon","coordinates":[[[90.40342236,24.22172376],[90.40389986,24.22181694],[90.40389367,24.22184333],[90.40341617,24.22175015],[90.40342236,24.22172376]]]}},
{"type":"Feature","properties":{"id":2,"name":"Lift lobby","class":"lobby"},"geometry":{"type":"Polygon","coordinates":[[[90.40362081,24.22179008],[90.40368903,24.22180339],[90.40368201,24.22183329],[90.4036138,24.22181998],[90.40362081,24.22179008]]]}}
]
}
