{
"type": "FeatureCollection",
"name": "walls",
"crs": {"type":"name","properties":{"name":"urn:ogc:def:crs:OGC:1.3:CRS84"}},
"features": [
{"type":"Feature","properties":{"id":1,"kind":"partition"},"geometry":{"type":"LineString","coordinates":[[90.40348438,24.22176346],[90.40346517,24.22184532]]}},
{"type":"Feature","properties":{"id":2,"kind":"partition"},"geometry":{"type":"LineString","coordinates":[[90.40350978,24.22165521],[90.40349057,24.22173707]]}},
{"type":"Feature","properties":{"id":3,"kind":"partition"},"geometry":{"type":"LineString","coordinates":[[90.4035526,24.22177677],[90.40353339,24.22185863]]}},
{"type":"Feature","properties":{"id":4,"kind":"partition"},"geometry":{"type":"LineString","coordinates":[[90.403578,24.22166852],[90.40355879,24.22175039]]}},
{"type":"Feature","properties":{"id":5,"kind":"partition"},"geometry":{"type":"LineString","coordinates":[[90.4036138,24.22181998],[90.40364308,24.2218257]]}},
{"type":"Feature","properties":{"id":6,"kind":"partition"},"geometry":{"type":"LineString","coordinates":[[90.40365273,24.22182758],[90.40368201,24.22183329]]}},
{"type":"Feature","properties":{"id":7,"kind":"partition"},"geometry":{"type":"LineString","coordinates":[[90.40362081,24.22179008],[90.4036016,24.22187194]]}},
{"type":"Feature","properties":{"id":8,"kind":"partition"},"geometry":{"type":"LineString","coordinates":[[90.40364621,24.22168183],[90.403627,24.2217637]]}},
{"type":"Feature","properties":{"id":9,"kind":"partition"},"geometry":{"type":"LineString","coordinates":[[90.40368903,24.22180339],[90.40366982,24.22188526]]}},
{"type":"Feature","properties":{"id":10,"kind":"partition"},"geometry":{"type":"LineString","coordinates":[[90.40371443,24.22169515],[90.40369522,24.22177701]]}},
{"type":"Feature","properties":{"id":11,"kind":"partition"},"geometry":{"type":"LineString","coordinates":[[90.40375724,24.2218167],[90.40373803,24.22189857]]}},
{"type":"Feature","properties":{"id":12,"kind":"partition"},"geometry":{"type":"LineString","coordinates":[[90.40378264,24.22170846],[90.40376343,24.22179032]]}},
{"type":"Feature","properties":{"id":13,"kind":"partition"},"geometry":{"type":"LineString","coordinates":[[90.40382546,24.22183002],[90.40380625,24.22191188]]}},
{"type":"Feature","properties":{"id":14,"kind":"partition"},"geometry":{"type":"LineString","coordinates":[[90.40385086,24.22172177],[90.40383165,24.22180363]]}},
{"type":"Feature","properties":{"id":15,"kind":"corridor"},"geometry":{"type":"LineString","coordinates":[[90.40341617,24.22175015],[90.40344545,24.22175586]]}},
{"type":"Feature","properties":{"id":16,"kind":"corridor"},"geometry":{"type":"LineString","coordinates":[[90.4034551,24.22175774],[90.40351367,24.22176917]]}},
{"type":"Feature","properties":{"id":17,"kind":"corridor"},"geometry":{"type":"LineString","coordinates":[[90.40352331,24.22177105],[90.40358188,24.22178248]]}},
{"type":"Feature","properties":{"id":18,"kind":"corridor"},"geometry":{"type":"LineString","coordinates":[[90.40359153,24.22178437],[90.40362081,24.22179008]]}},
{"type":"Feature","properties":{"id":19,"kind":"corridor"},"geometry":{"type":"LineString","coordinates":[[90.40368903,24.22180339],[90.40371831,24.22180911]]}},
{"type":"Feature","properties":{"id":20,"kind":"corridor"},"geometry":{"type":"LineString","coordinates":[[90.40372796,24.22181099],[90.40378653,24.22182242]]}},
{"type":"Feature","properties":{"id":21,"kind":"corridor"},"geometry":{"type":"LineString","coordinates":[[90.40379617,24.2218243],[90.40385474,24.22183573]]}},
{"type":"Feature","properties":{"id":22,"kind":"corridor"},"geometry":{"type":"LineString","coordinates":[[90.40386439,24.22183761],[90.40389367,24.22184333]]}},
{"type":"Feature","properties":{"id":23,"kind":"corridor"},"geometry":{"type":"LineString","coordinates":[[90.40342236,24.22172376],[90.40345164,24.22172948]]}},
{"type":"Feature","properties":{"id":24,"kind":"corridor"},"geometry":{"type":"LineString","coordinates":[[90.40346129,24.22173136],[90.40351986,24.22174279]]}},
{"type":"Feature","properties":{"id":25,"kind":"corridor"},"geometry":{"type":"LineString","coordinates":[[90.4035295,24.22174467],[90.40358807,24.2217561]]}},
{"type":"Feature","properties":{"id":26,"kind":"corridor"},"geometry":{"type":"LineString","coordinates":[[90.40359772,24.22175798],[90.40365629,24.22176941]]}},
{"type":"Feature","properties":{"id":27,"kind":"corridor"},"geometry":{"type":"LineString","coordinates":[[90.40366593,24.22177129],[90.4037245,24.22178272]]}},
{"type":"Feature","properties":{"id":28,"kind":"corridor"},"geometry":{"type":"LineString","coordinates":[[90.40373415,24.22178461],[90.40379272,24.22179604]]}},
{"type":"Feature","properties":{"id":29,"kind":"corridor"},"geometry":{"type":"LineString","coordinates":[[90.40380236,24.22179792],[90.40386093,24.22180935]]}},
{"type":"Feature","properties":{"id":30,"kind":"corridor"},"geometry":{"type":"LineString","coordinates":[[90.40387058,24.22181123],[90.40389986,24.22181694]]}},
{"type":"Feature","properties":{"id":31,"kind":"outer"},"geometry":{"type":"LineString","coordinates":[[90.40344156,24.2216419],[90.40391907,24.22173508]]}},
{"type":"Feature","properties":{"id":32,"kind":"outer"},"geometry":{"type":"LineString","coordinates":[[90.40339696,24.22183201],[90.40387447,24.22192519]]}},
{"type":"Feature","properties":{"id":33,"kind":"outer"},"geometry":{"type":"LineString","coordinates":[[90.40344156,24.2216419],[90.40339696,24.22183201]]}},
{"type":"Feature","properties":{"id":34,"kind":"outer"},"geometry":{"type":"LineString","coordinates":[[90.40391907,24.22173508],[90.40387447,24.22192519]]}}
]
}
