{
"type": "FeatureCollection",
"name": "furniture",
"crs": {"type":"name","properties":{"name":"urn:ogc:def:crs:OGC:1.3:CRS84"}},
"features": [
{"type":"Feature","properties":{"id":"L03-F001","kind":"desk","room":"L03-01"},"geometry":{"type":"Polygon","coordinates":[[[90.38474149,23.74027178],[90.3847271,23.74026889],[90.3847255,23.74027556],[90.38473989,23.74027846],[90.38474149,23.74027178]]]}},
{"type":"Feature","properties":{"id":"L03-F002","kind":"chair","room":"L03-01","height_m":1},"geometry":{"type":"Polygon","coordinates":[[[90.38473528,23.74027882],[90.38472952,23.74027766],[90.38472834,23.74028258],[90.3847341,23.74028374],[90.38473528,23.74027882]]]}},
{"type":"Feature","properties":{"id":"L03-F003","kind":"chair","room":"L03-01"},"geometry":{"type":"Polygon","coordinates":[[[90.38474251,23.74026628],[90.3847382,23.74026541],[90.38473725,23.74026936],[90.38474157,23.74027023],[90.38474251,23.74026628]]]}},
{"type":"Feature","properties":{"id":"L03-F004","kind":"chair","room":"L03-01"},"geometry":{"type":"Polygon","coordinates":[[[90.38473302,23.74026437],[90.3847287,23.7402635],[90.38472775,23.74026745],[90.38473207,23.74026832],[90.38473302,23.74026437]]]}},
{"type":"Feature","properties":{"id":"L03-F005","kind":"desk","room":"L03-01"},"geometry":{"type":"Polygon","coordinates":[[[90.3847028,23.740264],[90.38468841,23.7402611],[90.38468681,23.74026778],[90.3847012,23.74027067],[90.3847028,23.740264]]]}},
{"type":"Feature","properties":{"id":"L03-F006","kind":"chair","room":"L03-01","height_m":1},"geometry":{"type":"Polygon","coordinates":[[[90.38469659,23.74027103],[90.38469083,23.74026987],[90.38468965,23.74027479],[90.38469541,23.74027595],[90.38469659,23.74027103]]]}},
{"type":"Feature","properties":{"id":"L03-F007","kind":"chair","room":"L03-01"},"geometry":{"type":"Polygon","coordinates":[[[90.38470383,23.74025849],[90.38469951,23.74025762],[90.38469856,23.74026158],[90.38470288,23.74026245],[90.38470383,23.74025849]]]}},
{"type":"Feature","properties":{"id":"L03-F008","kind":"chair","room":"L03-01"},"geometry":{"type":"Polygon","coordinates":[[[90.38469433,23.74025658],[90.38469001,23.74025571],[90.38468906,23.74025966],[90.38469338,23.74026053],[90.38469433,23.74025658]]]}},
{"type":"Feature","properties":{"id":"L03-F009","kind":"cabinet","room":"L03-01"},"geometry":{"type":"Polygon","coordinates":[[[90.38474366,23.74030743],[90.38472734,23.74030415],[90.38472646,23.74030784],[90.38474277,23.74031112],[90.38474366,23.74030743]]]}},
{"type":"Feature","properties":{"id":"L03-F010","kind":"plant","room":"L03-01"},"geometry":{"type":"Polygon","coordinates":[[[90.38467532,23.74029275],[90.38467081,23.74029185],[90.38466981,23.74029597],[90.38467432,23.74029688],[90.38467532,23.74029275]]]}},
{"type":"Feature","properties":{"id":"L03-F011","kind":"desk","room":"L03-02"},"geometry":{"type":"Polygon","coordinates":[[[90.38466412,23.74025621],[90.38464972,23.74025331],[90.38464812,23.74025999],[90.38466251,23.74026289],[90.38466412,23.74025621]]]}},
{"type":"Feature","properties":{"id":"L03-F012","kind":"chair","room":"L03-02","height_m":1},"geometry":{"type":"Polygon","coordinates":[[[90.3846579,23.74026325],[90.38465214,23.74026209],[90.38465096,23.74026701],[90.38465672,23.74026816],[90.3846579,23.74026325]]]}},
{"type":"Feature","properties":{"id":"L03-F013","kind":"chair","room":"L03-02"},"geometry":{"type":"Polygon","coordinates":[[[90.38466514,23.74025071],[90.38466082,23.74024984],[90.38465987,23.74025379],[90.38466419,23.74025466],[90.38466514,23.74025071]]]}},
{"type":"Feature","properties":{"id":"L03-F014","kind":"chair","room":"L03-02"},"geometry":{"type":"Polygon","coordinates":[[[90.38465564,23.74024879],[90.38465132,23.74024793],[90.38465037,23.74025188],[90.38465469,23.74025275],[90.38465564,23.74024879]]]}},
{"type":"Feature","properties":{"id":"L03-F015","kind":"desk","room":"L03-02"},"geometry":{"type":"Polygon","coordinates":[[[90.38462543,23.74024842],[90.38461103,23.74024553],[90.38460943,23.7402522],[90.38462382,23.7402551],[90.38462543,23.74024842]]]}},
{"type":"Feature","properties":{"id":"L03-F016","kind":"chair","room":"L03-02","height_m":1},"geometry":{"type":"Polygon","coordinates":[[[90.38461921,23.74025546],[90.38461345,23.7402543],[90.38461227,23.74025922],[90.38461803,23.74026038],[90.38461921,23.74025546]]]}},
{"type":"Feature","properties":{"id":"L03-F017","kind":"chair","room":"L03-02"},"geometry":{"type":"Polygon","coordinates":[[[90.38462645,23.74024292],[90.38462213,23.74024205],[90.38462118,23.740246],[90.3846255,23.74024687],[90.38462645,23.74024292]]]}},
{"type":"Feature","properties":{"id":"L03-F018","kind":"chair","room":"L03-02"},"geometry":{"type":"Polygon","coordinates":[[[90.38461695,23.74024101],[90.38461263,23.74024014],[90.38461168,23.74024409],[90.384616,23.74024496],[90.38461695,23.74024101]]]}},
{"type":"Feature","properties":{"id":"L03-F019","kind":"cabinet","room":"L03-02"},"geometry":{"type":"Polygon","coordinates":[[[90.38466628,23.74029186],[90.38464996,23.74028857],[90.38464908,23.74029226],[90.38466539,23.74029554],[90.38466628,23.74029186]]]}},
{"type":"Feature","properties":{"id":"L03-F020","kind":"plant","room":"L03-02"},"geometry":{"type":"Polygon","coordinates":[[[90.38459794,23.74027718],[90.38459343,23.74027627],[90.38459243,23.7402804],[90.38459694,23.74028131],[90.38459794,23.74027718]]]}},
{"type":"Feature","properties":{"id":"L03-F021","kind":"desk","room":"L03-03"},"geometry":{"type":"Polygon","coordinates":[[[90.38477151,23.74014685],[90.38475711,23.74014395],[90.38475551,23.74015063],[90.3847699,23.74015352],[90.38477151,23.74014685]]]}},
{"type":"Feature","properties":{"id":"L03-F022","kind":"chair","room":"L03-03","height_m":1},"geometry":{"type":"Polygon","coordinates":[[[90.38476866,23.74013983],[90.38476291,23.74013867],[90.38476173,23.74014359],[90.38476748,23.74014475],[90.38476866,23.74013983]]]}},
{"type":"Feature","properties":{"id":"L03-F023","kind":"chair","room":"L03-03"},"geometry":{"type":"Polygon","coordinates":[[[90.38476926,23.74015496],[90.38476494,23.74015409],[90.38476399,23.74015804],[90.38476831,23.74015891],[90.38476926,23.74015496]]]}},
{"type":"Feature","properties":{"id":"L03-F024","kind":"chair","room":"L03-03"},"geometry":{"type":"Polygon","coordinates":[[[90.38475976,23.74015305],[90.38475544,23.74015218],[90.38475449,23.74015613],[90.38475881,23.740157],[90.38475976,23.74015305]]]}},
{"type":"Feature","properties":{"id":"L03-F025","kind":"cabinet","room":"L03-03"},"geometry":{"type":"Polygon","coordinates":[[[90.38478908,23.74011831],[90.38477553,23.74011558],[90.38477464,23.74011927],[90.3847882,23.740122],[90.38478908,23.74011831]]]}},
{"type":"Feature","properties":{"id":"L03-F026","kind":"plant","room":"L03-03"},"geometry":{"type":"Polygon","coordinates":[[[90.38475912,23.74011274],[90.38475461,23.74011183],[90.38475362,23.74011596],[90.38475813,23.74011686],[90.38475912,23.74011274]]]}},
{"type":"Feature","properties":{"id":"L03-F027","kind":"desk","room":"L03-04","color":"#8b5e3c"},"geometry":{"type":"Polygon","coordinates":[[[90.38473577,23.74013723],[90.38471658,23.74013337],[90.38471468,23.74014127],[90.38473387,23.74014513],[90.38473577,23.74013723]]]}},
{"type":"Feature","properties":{"id":"L03-F028","kind":"chair","room":"L03-04","height_m":1.15},"geometry":{"type":"Polygon","coordinates":[[[90.38473092,23.74012935],[90.38472459,23.74012807],[90.38472332,23.74013334],[90.38472966,23.74013462],[90.38473092,23.74012935]]]}},
{"type":"Feature","properties":{"id":"L03-F029","kind":"chair","room":"L03-04"},"geometry":{"type":"Polygon","coordinates":[[[90.38473201,23.7401466],[90.38472721,23.74014564],[90.38472616,23.74015003],[90.38473096,23.74015099],[90.38473201,23.7401466]]]}},
{"type":"Feature","properties":{"id":"L03-F030","kind":"chair","room":"L03-04"},"geometry":{"type":"Polygon","coordinates":[[[90.3847205,23.74014428],[90.3847157,23.74014332],[90.38471464,23.74014771],[90.38471944,23.74014868],[90.3847205,23.74014428]]]}},
{"type":"Feature","properties":{"id":"L03-F031","kind":"cabinet","room":"L03-04"},"geometry":{"type":"Polygon","coordinates":[[[90.3847504,23.74011052],[90.3847349,23.7401074],[90.38473406,23.74011092],[90.38474955,23.74011403],[90.3847504,23.74011052]]]}},
{"type":"Feature","properties":{"id":"L03-F032","kind":"plant","room":"L03-04"},"geometry":{"type":"Polygon","coordinates":[[[90.38472024,23.74010491],[90.38471592,23.74010404],[90.38471497,23.74010799],[90.38471929,23.74010886],[90.38472024,23.74010491]]]}},
{"type":"Feature","properties":{"id":"L03-F033","kind":"desk","room":"L03-05"},"geometry":{"type":"Polygon","coordinates":[[[90.38469413,23.74013127],[90.38467973,23.74012838],[90.38467813,23.74013505],[90.38469252,23.74013795],[90.38469413,23.74013127]]]}},
{"type":"Feature","properties":{"id":"L03-F034","kind":"chair","room":"L03-05","height_m":1},"geometry":{"type":"Polygon","coordinates":[[[90.38469128,23.74012426],[90.38468553,23.7401231],[90.38468435,23.74012802],[90.3846901,23.74012918],[90.38469128,23.74012426]]]}},
{"type":"Feature","properties":{"id":"L03-F035","kind":"chair","room":"L03-05"},"geometry":{"type":"Polygon","coordinates":[[[90.38469188,23.74013938],[90.38468756,23.74013852],[90.38468661,23.74014247],[90.38469093,23.74014334],[90.38469188,23.74013938]]]}},
{"type":"Feature","properties":{"id":"L03-F036","kind":"chair","room":"L03-05"},"geometry":{"type":"Polygon","coordinates":[[[90.38468238,23.74013747],[90.38467806,23.7401366],[90.38467711,23.74014056],[90.38468143,23.74014143],[90.38468238,23.74013747]]]}},
{"type":"Feature","properties":{"id":"L03-F037","kind":"cabinet","room":"L03-05"},"geometry":{"type":"Polygon","coordinates":[[[90.38471171,23.74010273],[90.38469815,23.7401],[90.38469726,23.74010369],[90.38471082,23.74010642],[90.38471171,23.74010273]]]}},
{"type":"Feature","properties":{"id":"L03-F038","kind":"plant","room":"L03-05"},"geometry":{"type":"Polygon","coordinates":[[[90.38468174,23.74009716],[90.38467723,23.74009625],[90.38467624,23.74010038],[90.38468075,23.74010129],[90.38468174,23.74009716]]]}},
{"type":"Feature","properties":{"id":"L03-F039","kind":"desk","room":"L03-06"},"geometry":{"type":"Polygon","coordinates":[[[90.38465544,23.74012349],[90.38464104,23.74012059],[90.38463944,23.74012727],[90.38465383,23.74013016],[90.38465544,23.74012349]]]}},
{"type":"Feature","properties":{"id":"L03-F040","kind":"chair","room":"L03-06","height_m":1},"geometry":{"type":"Polygon","coordinates":[[[90.38465259,23.74011647],[90.38464684,23.74011531],[90.38464566,23.74012023],[90.38465141,23.74012139],[90.38465259,23.74011647]]]}},
{"type":"Feature","properties":{"id":"L03-F041","kind":"chair","room":"L03-06"},"geometry":{"type":"Polygon","coordinates":[[[90.38465319,23.7401316],[90.38464887,23.74013073],[90.38464792,23.74013468],[90.38465224,23.74013555],[90.38465319,23.7401316]]]}},
{"type":"Feature","properties":{"id":"L03-F042","kind":"chair","room":"L03-06"},"geometry":{"type":"Polygon","coordinates":[[[90.38464369,23.74012969],[90.38463937,23.74012882],[90.38463842,23.74013277],[90.38464274,23.74013364],[90.38464369,23.74012969]]]}},
{"type":"Feature","properties":{"id":"L03-F043","kind":"cabinet","room":"L03-06"},"geometry":{"type":"Polygon","coordinates":[[[90.38467302,23.74009495],[90.38465946,23.74009222],[90.38465857,23.74009591],[90.38467213,23.74009863],[90.38467302,23.74009495]]]}},
{"type":"Feature","properties":{"id":"L03-F044","kind":"plant","room":"L03-06"},"geometry":{"type":"Polygon","coordinates":[[[90.38464305,23.74008937],[90.38463854,23.74008847],[90.38463755,23.74009259],[90.38464206,23.7400935],[90.38464305,23.74008937]]]}},
{"type":"Feature","properties":{"id":"L03-F045","kind":"desk","room":"L03-07"},"geometry":{"type":"Polygon","coordinates":[[[90.38453937,23.74010013],[90.38452497,23.74009723],[90.38452337,23.7401039],[90.38453776,23.7401068],[90.38453937,23.74010013]]]}},
{"type":"Feature","properties":{"id":"L03-F046","kind":"chair","room":"L03-07","height_m":1},"geometry":{"type":"Polygon","coordinates":[[[90.38453653,23.74009311],[90.38453077,23.74009195],[90.38452959,23.74009687],[90.38453534,23.74009803],[90.38453653,23.74009311]]]}},
{"type":"Feature","properties":{"id":"L03-F047","kind":"chair","room":"L03-07"},"geometry":{"type":"Polygon","coordinates":[[[90.38453712,23.74010824],[90.3845328,23.74010737],[90.38453185,23.74011132],[90.38453617,23.74011219],[90.38453712,23.74010824]]]}},
{"type":"Feature","properties":{"id":"L03-F048","kind":"chair","room":"L03-07"},"geometry":{"type":"Polygon","coordinates":[[[90.38452762,23.74010632],[90.3845233,23.74010545],[90.38452235,23.74010941],[90.38452667,23.74011028],[90.38452762,23.74010632]]]}},
{"type":"Feature","properties":{"id":"L03-F049","kind":"cabinet","room":"L03-07"},"geometry":{"type":"Polygon","coordinates":[[[90.38455695,23.74007158],[90.38454339,23.74006886],[90.3845425,23.74007254],[90.38455606,23.74007527],[90.38455695,23.74007158]]]}},
{"type":"Feature","properties":{"id":"L03-F050","kind":"plant","room":"L03-07"},"geometry":{"type":"Polygon","coordinates":[[[90.38452698,23.74006601],[90.38452247,23.7400651],[90.38452148,23.74006923],[90.38452599,23.74007014],[90.38452698,23.74006601]]]}},
{"type":"Feature","properties":{"id":"L03-F051","kind":"shelf","room":"L03-08"},"geometry":{"type":"Polygon","coordinates":[[[90.38450195,23.74012751],[90.38449028,23.74012516],[90.38448922,23.74012955],[90.38450089,23.7401319],[90.38450195,23.74012751]]]}},
{"type":"Feature","properties":{"id":"L03-F052","kind":"shelf","room":"L03-08"},"geometry":{"type":"Polygon","coordinates":[[[90.38448068,23.74012323],[90.38446901,23.74012088],[90.38446796,23.74012527],[90.38447963,23.74012762],[90.38448068,23.74012323]]]}},
{"type":"Feature","properties":{"id":"L03-F053","kind":"shelf","room":"L03-08"},"geometry":{"type":"Polygon","coordinates":[[[90.38450532,23.74011346],[90.38449365,23.74011111],[90.3844926,23.7401155],[90.38450427,23.74011785],[90.38450532,23.74011346]]]}},
{"type":"Feature","properties":{"id":"L03-F054","kind":"shelf","room":"L03-08"},"geometry":{"type":"Polygon","coordinates":[[[90.38448406,23.74010918],[90.38447239,23.74010683],[90.38447133,23.74011122],[90.384483,23.74011357],[90.38448406,23.74010918]]]}},
{"type":"Feature","properties":{"id":"L03-F055","kind":"shelf","room":"L03-08"},"geometry":{"type":"Polygon","coordinates":[[[90.3845087,23.7400994],[90.38449703,23.74009706],[90.38449597,23.74010145],[90.38450764,23.7401038],[90.3845087,23.7400994]]]}},
{"type":"Feature","properties":{"id":"L03-F056","kind":"shelf","room":"L03-08"},"geometry":{"type":"Polygon","coordinates":[[[90.38448743,23.74009512],[90.38447576,23.74009278],[90.38447471,23.74009717],[90.38448638,23.74009952],[90.38448743,23.74009512]]]}},
{"type":"Feature","properties":{"id":"L03-F057","kind":"shelf","room":"L03-08"},"geometry":{"type":"Polygon","coordinates":[[[90.38451207,23.74008535],[90.3845004,23.740083],[90.38449935,23.74008739],[90.38451102,23.74008974],[90.38451207,23.74008535]]]}},
{"type":"Feature","properties":{"id":"L03-F058","kind":"shelf","room":"L03-08"},"geometry":{"type":"Polygon","coordinates":[[[90.38449081,23.74008107],[90.38447914,23.74007872],[90.38447809,23.74008311],[90.38448975,23.74008546],[90.38449081,23.74008107]]]}},
{"type":"Feature","properties":{"id":"L03-F059","kind":"shelf","room":"L03-08"},"geometry":{"type":"Polygon","coordinates":[[[90.38451545,23.7400713],[90.38450378,23.74006895],[90.38450273,23.74007334],[90.38451439,23.74007569],[90.38451545,23.7400713]]]}},
{"type":"Feature","properties":{"id":"L03-F060","kind":"shelf","room":"L03-08"},"geometry":{"type":"Polygon","coordinates":[[[90.38449418,23.74006702],[90.38448252,23.74006467],[90.38448146,23.74006906],[90.38449313,23.74007141],[90.38449418,23.74006702]]]}},
{"type":"Feature","properties":{"id":"L03-F061","kind":"shelf","room":"L03-09"},"geometry":{"type":"Polygon","coordinates":[[[90.38459628,23.74024134],[90.38456527,23.7402351],[90.38456422,23.74023949],[90.38459523,23.74024573],[90.38459628,23.74024134]]]}},
{"type":"Feature","properties":{"id":"L03-F062","kind":"shelf","room":"L03-09"},"geometry":{"type":"Polygon","coordinates":[[[90.38455568,23.74023317],[90.38452466,23.74022693],[90.38452361,23.74023132],[90.38455462,23.74023756],[90.38455568,23.74023317]]]}},
{"type":"Feature","properties":{"id":"L03-F063","kind":"shelf","room":"L03-09"},"geometry":{"type":"Polygon","coordinates":[[[90.38459291,23.74025539],[90.38456189,23.74024915],[90.38456084,23.74025354],[90.38459185,23.74025979],[90.38459291,23.74025539]]]}},
{"type":"Feature","properties":{"id":"L03-F064","kind":"shelf","room":"L03-09"},"geometry":{"type":"Polygon","coordinates":[[[90.3845523,23.74024722],[90.38452129,23.74024098],[90.38452023,23.74024537],[90.38455124,23.74025161],[90.3845523,23.74024722]]]}},
{"type":"Feature","properties":{"id":"L03-F065","kind":"shelf","room":"L03-09"},"geometry":{"type":"Polygon","coordinates":[[[90.38458953,23.74026945],[90.38455852,23.74026321],[90.38455746,23.7402676],[90.38458848,23.74027384],[90.38458953,23.74026945]]]}},
{"type":"Feature","properties":{"id":"L03-F066","kind":"shelf","room":"L03-09"},"geometry":{"type":"Polygon","coordinates":[[[90.38454892,23.74026127],[90.38451791,23.74025503],[90.38451686,23.74025942],[90.38454787,23.74026567],[90.38454892,23.74026127]]]}},
{"type":"Feature","properties":{"id":"L03-F067","kind":"basin","room":"L03-10"},"geometry":{"type":"Polygon","coordinates":[[[90.38452725,23.74019522],[90.38452197,23.74019416],[90.38451555,23.7402209],[90.38452083,23.74022196],[90.38452725,23.74019522]]]}},
{"type":"Feature","properties":{"id":"L03-F068","kind":"cubicle","room":"L03-10"},"geometry":{"type":"Polygon","coordinates":[[[90.38447942,23.7402443],[90.38447894,23.74024421],[90.38447567,23.74025782],[90.38447615,23.74025792],[90.38447942,23.7402443]]]}},
{"type":"Feature","properties":{"id":"L03-F069","kind":"cubicle","room":"L03-10"},"geometry":{"type":"Polygon","coordinates":[[[90.38449142,23.74024672],[90.38449094,23.74024662],[90.38448767,23.74026023],[90.38448815,23.74026033],[90.38449142,23.74024672]]]}},
{"type":"Feature","properties":{"id":"L03-F070","kind":"cubicle","room":"L03-10"},"geometry":{"type":"Polygon","coordinates":[[[90.38450341,23.74024913],[90.38450293,23.74024903],[90.38449966,23.74026265],[90.38450014,23.74026274],[90.38450341,23.74024913]]]}},
{"type":"Feature","properties":{"id":"L03-F071","kind":"basin","room":"L03-11"},"geometry":{"type":"Polygon","coordinates":[[[90.38448856,23.74018743],[90.38448328,23.74018637],[90.38447686,23.74021311],[90.38448214,23.74021417],[90.38448856,23.74018743]]]}},
{"type":"Feature","properties":{"id":"L03-F072","kind":"cubicle","room":"L03-11"},"geometry":{"type":"Polygon","coordinates":[[[90.38444073,23.74023651],[90.38444025,23.74023642],[90.38443698,23.74025003],[90.38443746,23.74025013],[90.38444073,23.74023651]]]}},
{"type":"Feature","properties":{"id":"L03-F073","kind":"cubicle","room":"L03-11"},"geometry":{"type":"Polygon","coordinates":[[[90.38445273,23.74023893],[90.38445225,23.74023883],[90.38444898,23.74025245],[90.38444946,23.74025254],[90.38445273,23.74023893]]]}},
{"type":"Feature","properties":{"id":"L03-F074","kind":"cubicle","room":"L03-11"},"geometry":{"type":"Polygon","coordinates":[[[90.38446472,23.74024134],[90.38446424,23.74024125],[90.38446097,23.74025486],[90.38446145,23.74025496],[90.38446472,23.74024134]]]}},
{"type":"Feature","properties":{"id":"L03-F075","kind":"sofa","room":null},"geometry":{"type":"Polygon","coordinates":[[[90.38462761,23.74008581],[90.3845675,23.74007371],[90.38456581,23.74008073],[90.38462592,23.74009283],[90.38462761,23.74008581]]]}},
{"type":"Feature","properties":{"id":"L03-F076","kind":"table","room":null,"height_m":0.42},"geometry":{"type":"Polygon","coordinates":[[[90.3846027,23.74009184],[90.38458735,23.74008875],[90.38458587,23.7400949],[90.38460122,23.74009799],[90.3846027,23.74009184]]]}},
{"type":"Feature","properties":{"id":"L03-F077","kind":"plant","room":null},"geometry":{"type":"Polygon","coordinates":[[[90.38463422,23.7400876],[90.3846299,23.74008673],[90.38462895,23.74009068],[90.38463327,23.74009155],[90.38463422,23.7400876]]]}},
{"type":"Feature","properties":{"id":"L03-F078","kind":"plant","room":null},"geometry":{"type":"Polygon","coordinates":[[[90.384565,23.74007366],[90.38456068,23.7400728],[90.38455973,23.74007675],[90.38456405,23.74007762],[90.384565,23.74007366]]]}}
]
}
