{
"type": "FeatureCollection",
"name": "corridor",
"crs": {"type":"name","properties":{"name":"urn:ogc:def:crs:OGC:1.3:CRS84"}},
"features": [
{"type":"Feature","properties":{"id":1,"name":"Corridor","class":"corridor"},"geometry":{"type":"Polygon","coordinates":[[[90.40408434,24.22145522],[90.40351026,24.2213432],[90.40351645,24.22131682],[90.40409053,24.22142884],[90.40408434,24.22145522]]]}},
{"type":"Feature","properties":{"id":2,"name":"Lift lobby","class":"lobby"},"geometry":{"type":"Polygon","coordinates":[[[90.40380349,24.22137283],[90.40370781,24.22135416],[90.40371483,24.22132426],[90.40381051,24.22134293],[90.40380349,24.22137283]]]}},
{"type":"Feature","properties":{"id":3,"name":"Entrance lobby","class":"lobby"},"geometry":{"type":"Polygon","coordinates":[[[90.40386547,24.22153511],[90.40376979,24.22151644],[90.4037973,24.22139921],[90.40389298,24.22141788],[90.40386547,24.22153511]]]}}
]
}
