{
"type": "FeatureCollection",
"name": "shops",
"crs": {"type":"name","properties":{"name":"urn:ogc:def:crs:OGC:1.3:CRS84"}},
"features": [
{"type":"Feature","properties":{"id":"L01-01","name":"Reception","class":"reception","room_number":"101"},"geometry":{"type":"Polygon","coordinates":[[[90.40409053,24.22142884],[90.40399485,24.22141017],[90.40402236,24.22129294],[90.40411804,24.22131161],[90.40409053,24.22142884]]]}},
{"type":"Feature","properties":{"id":"L01-02","name":"Sample Receiving","class":"office","room_number":"102"},"geometry":{"type":"Polygon","coordinates":[[[90.40405684,24.22157245],[90.40396115,24.22155378],[90.40398866,24.22143655],[90.40408434,24.22145522],[90.40405684,24.22157245]]]}},
{"type":"Feature","properties":{"id":"L01-03","name":"Prayer Room","class":"prayer","room_number":"103"},"geometry":{"type":"Polygon","coordinates":[[[90.40399485,24.22141017],[90.40389917,24.2213915],[90.40392668,24.22127427],[90.40402236,24.22129294],[90.40399485,24.22141017]]]}},
{"type":"Feature","properties":{"id":"L01-04","name":"Laboratory 104","class":"lab","room_number":"104"},"geometry":{"type":"Polygon","coordinates":[[[90.40396115,24.22155378],[90.40386547,24.22153511],[90.40389298,24.22141788],[90.40398866,24.22143655],[90.40396115,24.22155378]]]}},
{"type":"Feature","properties":{"id":"L01-05","name":"Laboratory 105","class":"lab","room_number":"105"},"geometry":{"type":"Polygon","coordinates":[[[90.40389917,24.2213915],[90.40380349,24.22137283],[90.403831,24.2212556],[90.40392668,24.22127427],[90.40389917,24.2213915]]]}},
{"type":"Feature","properties":{"id":"L01-06","name":"Store","class":"store","room_number":"106"},"geometry":{"type":"Polygon","coordinates":[[[90.40381051,24.22134293],[90.40371483,24.22132426],[90.40373532,24.22123693],[90.403831,24.2212556],[90.40381051,24.22134293]]]}},
{"type":"Feature","properties":{"id":"L01-07","name":"Laboratory 107","class":"lab","room_number":"107"},"geometry":{"type":"Polygon","coordinates":[[[90.40376979,24.22151644],[90.40367411,24.22149777],[90.40370162,24.22138054],[90.4037973,24.22139921],[90.40376979,24.22151644]]]}},
{"type":"Feature","properties":{"id":"L01-08","name":"Laboratory 108","class":"lab","room_number":"108"},"geometry":{"type":"Polygon","coordinates":[[[90.40370781,24.22135416],[90.40361213,24.22133549],[90.40363964,24.22121826],[90.40373532,24.22123693],[90.40370781,24.22135416]]]}},
{"type":"Feature","properties":{"id":"L01-09","name":"Laboratory 109","class":"lab","room_number":"109"},"geometry":{"type":"Polygon","coordinates":[[[90.40367411,24.22149777],[90.40357843,24.2214791],[90.40360594,24.22136187],[90.40370162,24.22138054],[90.40367411,24.22149777]]]}},
{"type":"Feature","properties":{"id":"L01-10","name":"Washroom","class":"toilet","room_number":"110"},"geometry":{"type":"Polygon","coordinates":[[[90.40361213,24.22133549],[90.40351645,24.22131682],[90.40354395,24.22119959],[90.40363964,24.22121826],[90.40361213,24.22133549]]]}},
{"type":"Feature","properties":{"id":"L01-11","name":"Laboratory 111","class":"lab","room_number":"111"},"geometry":{"type":"Polygon","coordinates":[[[90.40357843,24.2214791],[90.40348275,24.22146043],[90.40351026,24.2213432],[90.40360594,24.22136187],[90.40357843,24.2214791]]]}}
]
}
