{
"type": "FeatureCollection",
"name": "walls",
"crs": {"type":"name","properties":{"name":"urn:ogc:def:crs:OGC:1.3:CRS84"}},
"features": [
{"type":"Feature","properties":{"id":1,"kind":"partition"},"geometry":{"type":"LineString","coordinates":[[90.40399485,24.22141017],[90.40402236,24.22129294]]}},
{"type":"Feature","properties":{"id":2,"kind":"partition"},"geometry":{"type":"LineString","coordinates":[[90.40396115,24.22155378],[90.40398866,24.22143655]]}},
{"type":"Feature","properties":{"id":3,"kind":"partition"},"geometry":{"type":"LineString","coordinates":[[90.40389917,24.2213915],[90.40392668,24.22127427]]}},
{"type":"Feature","properties":{"id":4,"kind":"partition"},"geometry":{"type":"LineString","coordinates":[[90.40386547,24.22153511],[90.40389298,24.22141788]]}},
{"type":"Feature","properties":{"id":5,"kind":"partition"},"geometry":{"type":"LineString","coordinates":[[90.40381051,24.22134293],[90.40376749,24.22133453]]}},
{"type":"Feature","properties":{"id":6,"kind":"partition"},"geometry":{"type":"LineString","coordinates":[[90.40375784,24.22133265],[90.40371483,24.22132426]]}},
{"type":"Feature","properties":{"id":7,"kind":"partition"},"geometry":{"type":"LineString","coordinates":[[90.40380349,24.22137283],[90.403831,24.2212556]]}},
{"type":"Feature","properties":{"id":8,"kind":"partition"},"geometry":{"type":"LineString","coordinates":[[90.40376979,24.22151644],[90.4037973,24.22139921]]}},
{"type":"Feature","properties":{"id":9,"kind":"partition"},"geometry":{"type":"LineString","coordinates":[[90.40370781,24.22135416],[90.40373532,24.22123693]]}},
{"type":"Feature","properties":{"id":10,"kind":"partition"},"geometry":{"type":"LineString","coordinates":[[90.40367411,24.22149777],[90.40370162,24.22138054]]}},
{"type":"Feature","properties":{"id":11,"kind":"partition"},"geometry":{"type":"LineString","coordinates":[[90.40361213,24.22133549],[90.40363964,24.22121826]]}},
{"type":"Feature","properties":{"id":12,"kind":"partition"},"geometry":{"type":"LineString","coordinates":[[90.40357843,24.2214791],[90.40360594,24.22136187]]}},
{"type":"Feature","properties":{"id":13,"kind":"corridor"},"geometry":{"type":"LineString","coordinates":[[90.40409053,24.22142884],[90.40404751,24.22142045]]}},
{"type":"Feature","properties":{"id":14,"kind":"corridor"},"geometry":{"type":"LineString","coordinates":[[90.40403787,24.22141857],[90.40395183,24.22140178]]}},
{"type":"Feature","properties":{"id":15,"kind":"corridor"},"geometry":{"type":"LineString","coordinates":[[90.40394219,24.22139989],[90.40385615,24.22138311]]}},
{"type":"Feature","properties":{"id":16,"kind":"corridor"},"geometry":{"type":"LineString","coordinates":[[90.40384651,24.22138122],[90.40380349,24.22137283]]}},
{"type":"Feature","properties":{"id":17,"kind":"corridor"},"geometry":{"type":"LineString","coordinates":[[90.40370781,24.22135416],[90.40366479,24.22134576]]}},
{"type":"Feature","properties":{"id":18,"kind":"corridor"},"geometry":{"type":"LineString","coordinates":[[90.40365515,24.22134388],[90.40356911,24.22132709]]}},
{"type":"Feature","properties":{"id":19,"kind":"corridor"},"geometry":{"type":"LineString","coordinates":[[90.40355947,24.22132521],[90.40351645,24.22131682]]}},
{"type":"Feature","properties":{"id":20,"kind":"corridor"},"geometry":{"type":"LineString","coordinates":[[90.40408434,24.22145522],[90.40404132,24.22144683]]}},
{"type":"Feature","properties":{"id":21,"kind":"corridor"},"geometry":{"type":"LineString","coordinates":[[90.40403168,24.22144495],[90.40394564,24.22142816]]}},
{"type":"Feature","properties":{"id":22,"kind":"corridor"},"geometry":{"type":"LineString","coordinates":[[90.403936,24.22142628],[90.40389298,24.22141788]]}},
{"type":"Feature","properties":{"id":23,"kind":"corridor"},"geometry":{"type":"LineString","coordinates":[[90.4037973,24.22139921],[90.40375428,24.22139082]]}},
{"type":"Feature","properties":{"id":24,"kind":"corridor"},"geometry":{"type":"LineString","coordinates":[[90.40374464,24.22138893],[90.4036586,24.22137215]]}},
{"type":"Feature","properties":{"id":25,"kind":"corridor"},"geometry":{"type":"LineString","coordinates":[[90.40364896,24.22137026],[90.40356292,24.22135347]]}},
{"type":"Feature","properties":{"id":26,"kind":"corridor"},"geometry":{"type":"LineString","coordinates":[[90.40355328,24.22135159],[90.40351026,24.2213432]]}},
{"type":"Feature","properties":{"id":27,"kind":"outer"},"geometry":{"type":"LineString","coordinates":[[90.40405684,24.22157245],[90.40377888,24.22151821]]}},
{"type":"Feature","properties":{"id":28,"kind":"outer"},"geometry":{"type":"LineString","coordinates":[[90.40376152,24.22151482],[90.40348275,24.22146043]]}},
{"type":"Feature","properties":{"id":29,"kind":"outer"},"geometry":{"type":"LineString","coordinates":[[90.40411804,24.22131161],[90.40354395,24.22119959]]}},
{"type":"Feature","properties":{"id":30,"kind":"outer"},"geometry":{"type":"LineString","coordinates":[[90.40405684,24.22157245],[90.40411804,24.22131161]]}},
{"type":"Feature","properties":{"id":31,"kind":"outer"},"geometry":{"type":"LineString","coordinates":[[90.40348275,24.22146043],[90.40354395,24.22119959]]}}
]
}
