{
"type": "FeatureCollection",
"name": "corridor",
"crs": {"type":"name","properties":{"name":"urn:ogc:def:crs:OGC:1.3:CRS84"}},
"features": [
{"type":"Feature","properties":{"id":1,"name":"Corridor","class":"corridor"},"geometry":{"type":"Polygon","coordinates":[[[90.38477101,23.74020192],[90.38446149,23.74013963],[90.38445516,23.74016598],[90.38476468,23.74022827],[90.38477101,23.74020192]]]}},
{"type":"Feature","properties":{"id":2,"name":"Lift lobby","class":"lobby"},"geometry":{"type":"Polygon","coordinates":[[[90.38460992,23.74019713],[90.38453254,23.74018155],[90.38452537,23.74021141],[90.38460275,23.74022699],[90.38460992,23.74019713]]]}},
{"type":"Feature","properties":{"id":3,"name":"Entrance lobby","class":"lobby"},"geometry":{"type":"Polygon","coordinates":[[[90.38471405,23.74010136],[90.38463667,23.74008579],[90.38461625,23.74017078],[90.38469363,23.74018635],[90.38471405,23.74010136]]]}}
]
}
