{
"type": "FeatureCollection",
"name": "doors",
"crs": {"type":"name","properties":{"name":"urn:ogc:def:crs:OGC:1.3:CRS84"}},
"features": [
{"type":"Feature","properties":{"id":"L01-D01","room":"L01-01","thickness_m":0.12},"geometry":{"type":"LineString","coordinates":[[90.38475413,23.74022615],[90.38474453,23.74022422]]}},
{"type":"Feature","properties":{"id":"L01-D02","room":"L01-01","thickness_m":0.12},"geometry":{"type":"LineString","coordinates":[[90.38463007,23.74020118],[90.38462048,23.74019925]]}},
{"type":"Feature","properties":{"id":"L01-D03","room":"L01-02","thickness_m":0.12},"geometry":{"type":"LineString","coordinates":[[90.38471378,23.74019041],[90.38470419,23.74018847]]}},
{"type":"Feature","properties":{"id":"L01-D04","room":"L01-03","thickness_m":0.12},"geometry":{"type":"LineString","coordinates":[[90.3846057,23.74016865],[90.3845961,23.74016672]]}},
{"type":"Feature","properties":{"id":"L01-D05","room":"L01-04","thickness_m":0.12},"geometry":{"type":"LineString","coordinates":[[90.38452832,23.74015308],[90.38451872,23.74015115]]}},
{"type":"Feature","properties":{"id":"L01-D06","room":"L01-05","thickness_m":0.1},"geometry":{"type":"LineString","coordinates":[[90.38456886,23.74022017],[90.38455926,23.74021824]]}},
{"type":"Feature","properties":{"id":"L01-D07","room":"L01-06","thickness_m":0.12},"geometry":{"type":"LineString","coordinates":[[90.384518,23.74017862],[90.3845084,23.74017669]]}},
{"type":"Feature","properties":{"id":"L01-D08","room":"L01-07","thickness_m":0.12},"geometry":{"type":"LineString","coordinates":[[90.38447931,23.74017084],[90.38446971,23.7401689]]}}
]
}
