{
"type": "FeatureCollection",
"name": "furniture",
"crs": {"type":"name","properties":{"name":"urn:ogc:def:crs:OGC:1.3:CRS84"}},
"features": [
{"type":"Feature","properties":{"id":"L01-F001","kind":"counter","room":"L01-01"},"geometry":{"type":"Polygon","coordinates":[[[90.3847402,23.74030508],[90.38459695,23.74027624],[90.38459569,23.74028151],[90.38473893,23.74031035],[90.3847402,23.74030508]]]}},
{"type":"Feature","properties":{"id":"L01-F002","kind":"table","room":"L01-01"},"geometry":{"type":"Polygon","coordinates":[[[90.3847482,23.74024245],[90.38473956,23.74024071],[90.38473766,23.74024862],[90.3847463,23.74025036],[90.3847482,23.74024245]]]}},
{"type":"Feature","properties":{"id":"L01-F003","kind":"chair","room":"L01-01"},"geometry":{"type":"Polygon","coordinates":[[[90.38474686,23.74023758],[90.38474302,23.74023681],[90.38474217,23.74024032],[90.38474601,23.74024109],[90.38474686,23.74023758]]]}},
{"type":"Feature","properties":{"id":"L01-F004","kind":"chair","room":"L01-01"},"geometry":{"type":"Polygon","coordinates":[[[90.38474369,23.74025075],[90.38473985,23.74024998],[90.38473901,23.74025349],[90.38474285,23.74025427],[90.38474369,23.74025075]]]}},
{"type":"Feature","properties":{"id":"L01-F005","kind":"chair","room":"L01-01"},"geometry":{"type":"Polygon","coordinates":[[[90.38475247,23.74024561],[90.38474863,23.74024484],[90.38474779,23.74024835],[90.38475163,23.74024913],[90.38475247,23.74024561]]]}},
{"type":"Feature","properties":{"id":"L01-F006","kind":"chair","room":"L01-01"},"geometry":{"type":"Polygon","coordinates":[[[90.38473808,23.74024272],[90.38473424,23.74024194],[90.38473339,23.74024546],[90.38473723,23.74024623],[90.38473808,23.74024272]]]}},
{"type":"Feature","properties":{"id":"L01-F007","kind":"table","room":"L01-01"},"geometry":{"type":"Polygon","coordinates":[[[90.38474377,23.7402609],[90.38473513,23.74025916],[90.38473323,23.74026706],[90.38474187,23.7402688],[90.38474377,23.7402609]]]}},
{"type":"Feature","properties":{"id":"L01-F008","kind":"chair","room":"L01-01"},"geometry":{"type":"Polygon","coordinates":[[[90.38474242,23.74025602],[90.38473859,23.74025525],[90.38473774,23.74025876],[90.38474158,23.74025954],[90.38474242,23.74025602]]]}},
{"type":"Feature","properties":{"id":"L01-F009","kind":"chair","room":"L01-01"},"geometry":{"type":"Polygon","coordinates":[[[90.38473926,23.7402692],[90.38473542,23.74026843],[90.38473458,23.74027194],[90.38473842,23.74027271],[90.38473926,23.7402692]]]}},
{"type":"Feature","properties":{"id":"L01-F010","kind":"chair","room":"L01-01"},"geometry":{"type":"Polygon","coordinates":[[[90.38474804,23.74026406],[90.3847442,23.74026329],[90.38474336,23.7402668],[90.38474719,23.74026757],[90.38474804,23.74026406]]]}},
{"type":"Feature","properties":{"id":"L01-F011","kind":"chair","room":"L01-01"},"geometry":{"type":"Polygon","coordinates":[[[90.38473365,23.74026116],[90.38472981,23.74026039],[90.38472896,23.7402639],[90.3847328,23.74026468],[90.38473365,23.74026116]]]}},
{"type":"Feature","properties":{"id":"L01-F012","kind":"table","room":"L01-01"},"geometry":{"type":"Polygon","coordinates":[[[90.38473934,23.74027934],[90.3847307,23.7402776],[90.3847288,23.74028551],[90.38473744,23.74028725],[90.38473934,23.74027934]]]}},
{"type":"Feature","properties":{"id":"L01-F013","kind":"chair","room":"L01-01"},"geometry":{"type":"Polygon","coordinates":[[[90.38473799,23.74027447],[90.38473416,23.7402737],[90.38473331,23.74027721],[90.38473715,23.74027798],[90.38473799,23.74027447]]]}},
{"type":"Feature","properties":{"id":"L01-F014","kind":"chair","room":"L01-01"},"geometry":{"type":"Polygon","coordinates":[[[90.38473483,23.74028764],[90.38473099,23.74028687],[90.38473015,23.74029038],[90.38473399,23.74029116],[90.38473483,23.74028764]]]}},
{"type":"Feature","properties":{"id":"L01-F015","kind":"chair","room":"L01-01"},"geometry":{"type":"Polygon","coordinates":[[[90.38474361,23.7402825],[90.38473977,23.74028173],[90.38473893,23.74028524],[90.38474276,23.74028602],[90.38474361,23.7402825]]]}},
{"type":"Feature","properties":{"id":"L01-F016","kind":"chair","room":"L01-01"},"geometry":{"type":"Polygon","coordinates":[[[90.38472922,23.74027961],[90.38472538,23.74027883],[90.38472453,23.74028235],[90.38472837,23.74028312],[90.38472922,23.74027961]]]}},
{"type":"Feature","properties":{"id":"L01-F017","kind":"table","room":"L01-01"},"geometry":{"type":"Polygon","coordinates":[[[90.38472613,23.74023801],[90.38471749,23.74023627],[90.3847156,23.74024418],[90.38472423,23.74024592],[90.38472613,23.74023801]]]}},
{"type":"Feature","properties":{"id":"L01-F018","kind":"chair","room":"L01-01"},"geometry":{"type":"Polygon","coordinates":[[[90.38472479,23.74023314],[90.38472095,23.74023236],[90.3847201,23.74023588],[90.38472394,23.74023665],[90.38472479,23.74023314]]]}},
{"type":"Feature","properties":{"id":"L01-F019","kind":"chair","room":"L01-01"},"geometry":{"type":"Polygon","coordinates":[[[90.38472162,23.74024631],[90.38471778,23.74024554],[90.38471694,23.74024905],[90.38472078,23.74024982],[90.38472162,23.74024631]]]}},
{"type":"Feature","properties":{"id":"L01-F020","kind":"chair","room":"L01-01"},"geometry":{"type":"Polygon","coordinates":[[[90.3847304,23.74024117],[90.38472656,23.7402404],[90.38472572,23.74024391],[90.38472956,23.74024469],[90.3847304,23.74024117]]]}},
{"type":"Feature","properties":{"id":"L01-F021","kind":"chair","room":"L01-01"},"geometry":{"type":"Polygon","coordinates":[[[90.38471601,23.74023827],[90.38471217,23.7402375],[90.38471133,23.74024102],[90.38471516,23.74024179],[90.38471601,23.74023827]]]}},
{"type":"Feature","properties":{"id":"L01-F022","kind":"table","room":"L01-01"},"geometry":{"type":"Polygon","coordinates":[[[90.3847217,23.74025646],[90.38471306,23.74025472],[90.38471116,23.74026262],[90.3847198,23.74026436],[90.3847217,23.74025646]]]}},
{"type":"Feature","properties":{"id":"L01-F023","kind":"chair","room":"L01-01"},"geometry":{"type":"Polygon","coordinates":[[[90.38472036,23.74025158],[90.38471652,23.74025081],[90.38471567,23.74025432],[90.38471951,23.74025509],[90.38472036,23.74025158]]]}},
{"type":"Feature","properties":{"id":"L01-F024","kind":"chair","room":"L01-01"},"geometry":{"type":"Polygon","coordinates":[[[90.38471719,23.74026476],[90.38471335,23.74026398],[90.38471251,23.7402675],[90.38471635,23.74026827],[90.38471719,23.74026476]]]}},
{"type":"Feature","properties":{"id":"L01-F025","kind":"chair","room":"L01-01"},"geometry":{"type":"Polygon","coordinates":[[[90.38472597,23.74025962],[90.38472213,23.74025884],[90.38472129,23.74026236],[90.38472513,23.74026313],[90.38472597,23.74025962]]]}},
{"type":"Feature","properties":{"id":"L01-F026","kind":"chair","room":"L01-01"},"geometry":{"type":"Polygon","coordinates":[[[90.38471158,23.74025672],[90.38470774,23.74025595],[90.38470689,23.74025946],[90.38471073,23.74026023],[90.38471158,23.74025672]]]}},
{"type":"Feature","properties":{"id":"L01-F027","kind":"table","room":"L01-01"},"geometry":{"type":"Polygon","coordinates":[[[90.38471727,23.7402749],[90.38470863,23.74027316],[90.38470673,23.74028107],[90.38471537,23.74028281],[90.38471727,23.7402749]]]}},
{"type":"Feature","properties":{"id":"L01-F028","kind":"chair","room":"L01-01"},"geometry":{"type":"Polygon","coordinates":[[[90.38471592,23.74027003],[90.38471209,23.74026925],[90.38471124,23.74027277],[90.38471508,23.74027354],[90.38471592,23.74027003]]]}},
{"type":"Feature","properties":{"id":"L01-F029","kind":"chair","room":"L01-01"},"geometry":{"type":"Polygon","coordinates":[[[90.38471276,23.7402832],[90.38470892,23.74028243],[90.38470808,23.74028594],[90.38471192,23.74028671],[90.38471276,23.7402832]]]}},
{"type":"Feature","properties":{"id":"L01-F030","kind":"chair","room":"L01-01"},"geometry":{"type":"Polygon","coordinates":[[[90.38472154,23.74027806],[90.3847177,23.74027729],[90.38471686,23.7402808],[90.38472069,23.74028158],[90.38472154,23.74027806]]]}},
{"type":"Feature","properties":{"id":"L01-F031","kind":"chair","room":"L01-01"},"geometry":{"type":"Polygon","coordinates":[[[90.38470715,23.74027516],[90.38470331,23.74027439],[90.38470246,23.74027791],[90.3847063,23.74027868],[90.38470715,23.74027516]]]}},
{"type":"Feature","properties":{"id":"L01-F032","kind":"table","room":"L01-01"},"geometry":{"type":"Polygon","coordinates":[[[90.38470406,23.74023357],[90.38469542,23.74023183],[90.38469353,23.74023974],[90.38470216,23.74024147],[90.38470406,23.74023357]]]}},
{"type":"Feature","properties":{"id":"L01-F033","kind":"chair","room":"L01-01"},"geometry":{"type":"Polygon","coordinates":[[[90.38470272,23.74022869],[90.38469888,23.74022792],[90.38469803,23.74023143],[90.38470187,23.74023221],[90.38470272,23.74022869]]]}},
{"type":"Feature","properties":{"id":"L01-F034","kind":"chair","room":"L01-01"},"geometry":{"type":"Polygon","coordinates":[[[90.38469955,23.74024187],[90.38469571,23.7402411],[90.38469487,23.74024461],[90.38469871,23.74024538],[90.38469955,23.74024187]]]}},
{"type":"Feature","properties":{"id":"L01-F035","kind":"chair","room":"L01-01"},"geometry":{"type":"Polygon","coordinates":[[[90.38470833,23.74023673],[90.38470449,23.74023596],[90.38470365,23.74023947],[90.38470749,23.74024024],[90.38470833,23.74023673]]]}},
{"type":"Feature","properties":{"id":"L01-F036","kind":"chair","room":"L01-01"},"geometry":{"type":"Polygon","coordinates":[[[90.38469394,23.74023383],[90.3846901,23.74023306],[90.38468926,23.74023657],[90.38469309,23.74023735],[90.38469394,23.74023383]]]}},
{"type":"Feature","properties":{"id":"L01-F037","kind":"table","room":"L01-01"},"geometry":{"type":"Polygon","coordinates":[[[90.38469963,23.74025201],[90.38469099,23.74025028],[90.3846891,23.74025818],[90.38469773,23.74025992],[90.38469963,23.74025201]]]}},
{"type":"Feature","properties":{"id":"L01-F038","kind":"chair","room":"L01-01"},"geometry":{"type":"Polygon","coordinates":[[[90.38469829,23.74024714],[90.38469445,23.74024637],[90.3846936,23.74024988],[90.38469744,23.74025065],[90.38469829,23.74024714]]]}},
{"type":"Feature","properties":{"id":"L01-F039","kind":"chair","room":"L01-01"},"geometry":{"type":"Polygon","coordinates":[[[90.38469512,23.74026031],[90.38469128,23.74025954],[90.38469044,23.74026305],[90.38469428,23.74026383],[90.38469512,23.74026031]]]}},
{"type":"Feature","properties":{"id":"L01-F040","kind":"chair","room":"L01-01"},"geometry":{"type":"Polygon","coordinates":[[[90.3847039,23.74025517],[90.38470006,23.7402544],[90.38469922,23.74025792],[90.38470306,23.74025869],[90.3847039,23.74025517]]]}},
{"type":"Feature","properties":{"id":"L01-F041","kind":"chair","room":"L01-01"},"geometry":{"type":"Polygon","coordinates":[[[90.38468951,23.74025228],[90.38468567,23.74025151],[90.38468483,23.74025502],[90.38468866,23.74025579],[90.38468951,23.74025228]]]}},
{"type":"Feature","properties":{"id":"L01-F042","kind":"table","room":"L01-01"},"geometry":{"type":"Polygon","coordinates":[[[90.3846952,23.74027046],[90.38468656,23.74026872],[90.38468466,23.74027663],[90.3846933,23.74027836],[90.3846952,23.74027046]]]}},
{"type":"Feature","properties":{"id":"L01-F043","kind":"chair","room":"L01-01"},"geometry":{"type":"Polygon","coordinates":[[[90.38469386,23.74026558],[90.38469002,23.74026481],[90.38468917,23.74026832],[90.38469301,23.7402691],[90.38469386,23.74026558]]]}},
{"type":"Feature","properties":{"id":"L01-F044","kind":"chair","room":"L01-01"},"geometry":{"type":"Polygon","coordinates":[[[90.38469069,23.74027876],[90.38468685,23.74027799],[90.38468601,23.7402815],[90.38468985,23.74028227],[90.38469069,23.74027876]]]}},
{"type":"Feature","properties":{"id":"L01-F045","kind":"chair","room":"L01-01"},"geometry":{"type":"Polygon","coordinates":[[[90.38469947,23.74027362],[90.38469563,23.74027285],[90.38469479,23.74027636],[90.38469863,23.74027713],[90.38469947,23.74027362]]]}},
{"type":"Feature","properties":{"id":"L01-F046","kind":"chair","room":"L01-01"},"geometry":{"type":"Polygon","coordinates":[[[90.38468508,23.74027072],[90.38468124,23.74026995],[90.38468039,23.74027346],[90.38468423,23.74027424],[90.38468508,23.74027072]]]}},
{"type":"Feature","properties":{"id":"L01-F047","kind":"table","room":"L01-01"},"geometry":{"type":"Polygon","coordinates":[[[90.38468199,23.74022913],[90.38467336,23.74022739],[90.38467146,23.74023529],[90.38468009,23.74023703],[90.38468199,23.74022913]]]}},
{"type":"Feature","properties":{"id":"L01-F048","kind":"chair","room":"L01-01"},"geometry":{"type":"Polygon","coordinates":[[[90.38468065,23.74022425],[90.38467681,23.74022348],[90.38467597,23.74022699],[90.3846798,23.74022777],[90.38468065,23.74022425]]]}},
{"type":"Feature","properties":{"id":"L01-F049","kind":"chair","room":"L01-01"},"geometry":{"type":"Polygon","coordinates":[[[90.38467748,23.74023743],[90.38467364,23.74023665],[90.3846728,23.74024017],[90.38467664,23.74024094],[90.38467748,23.74023743]]]}},
{"type":"Feature","properties":{"id":"L01-F050","kind":"chair","room":"L01-01"},"geometry":{"type":"Polygon","coordinates":[[[90.38468626,23.74023229],[90.38468242,23.74023152],[90.38468158,23.74023503],[90.38468542,23.7402358],[90.38468626,23.74023229]]]}},
{"type":"Feature","properties":{"id":"L01-F051","kind":"chair","room":"L01-01"},"geometry":{"type":"Polygon","coordinates":[[[90.38467187,23.74022939],[90.38466803,23.74022862],[90.38466719,23.74023213],[90.38467102,23.7402329],[90.38467187,23.74022939]]]}},
{"type":"Feature","properties":{"id":"L01-F052","kind":"table","room":"L01-01"},"geometry":{"type":"Polygon","coordinates":[[[90.38467756,23.74024757],[90.38466892,23.74024583],[90.38466703,23.74025374],[90.38467566,23.74025548],[90.38467756,23.74024757]]]}},
{"type":"Feature","properties":{"id":"L01-F053","kind":"chair","room":"L01-01"},"geometry":{"type":"Polygon","coordinates":[[[90.38467622,23.7402427],[90.38467238,23.74024192],[90.38467153,23.74024544],[90.38467537,23.74024621],[90.38467622,23.7402427]]]}},
{"type":"Feature","properties":{"id":"L01-F054","kind":"chair","room":"L01-01"},"geometry":{"type":"Polygon","coordinates":[[[90.38467305,23.74025587],[90.38466921,23.7402551],[90.38466837,23.74025861],[90.38467221,23.74025939],[90.38467305,23.74025587]]]}},
{"type":"Feature","properties":{"id":"L01-F055","kind":"chair","room":"L01-01"},"geometry":{"type":"Polygon","coordinates":[[[90.38468183,23.74025073],[90.38467799,23.74024996],[90.38467715,23.74025347],[90.38468099,23.74025425],[90.38468183,23.74025073]]]}},
{"type":"Feature","properties":{"id":"L01-F056","kind":"chair","room":"L01-01"},"geometry":{"type":"Polygon","coordinates":[[[90.38466744,23.74024784],[90.3846636,23.74024706],[90.38466276,23.74025058],[90.38466659,23.74025135],[90.38466744,23.74024784]]]}},
{"type":"Feature","properties":{"id":"L01-F057","kind":"table","room":"L01-01"},"geometry":{"type":"Polygon","coordinates":[[[90.38467313,23.74026602],[90.38466449,23.74026428],[90.3846626,23.74027218],[90.38467123,23.74027392],[90.38467313,23.74026602]]]}},
{"type":"Feature","properties":{"id":"L01-F058","kind":"chair","room":"L01-01"},"geometry":{"type":"Polygon","coordinates":[[[90.38467179,23.74026114],[90.38466795,23.74026037],[90.3846671,23.74026388],[90.38467094,23.74026466],[90.38467179,23.74026114]]]}},
{"type":"Feature","properties":{"id":"L01-F059","kind":"chair","room":"L01-01"},"geometry":{"type":"Polygon","coordinates":[[[90.38466862,23.74027432],[90.38466478,23.74027354],[90.38466394,23.74027706],[90.38466778,23.74027783],[90.38466862,23.74027432]]]}},
{"type":"Feature","properties":{"id":"L01-F060","kind":"chair","room":"L01-01"},"geometry":{"type":"Polygon","coordinates":[[[90.3846774,23.74026918],[90.38467356,23.74026841],[90.38467272,23.74027192],[90.38467656,23.74027269],[90.3846774,23.74026918]]]}},
{"type":"Feature","properties":{"id":"L01-F061","kind":"chair","room":"L01-01"},"geometry":{"type":"Polygon","coordinates":[[[90.38466301,23.74026628],[90.38465917,23.74026551],[90.38465833,23.74026902],[90.38466216,23.74026979],[90.38466301,23.74026628]]]}},
{"type":"Feature","properties":{"id":"L01-F062","kind":"table","room":"L01-01"},"geometry":{"type":"Polygon","coordinates":[[[90.38465992,23.74022468],[90.38465129,23.74022295],[90.38464939,23.74023085],[90.38465802,23.74023259],[90.38465992,23.74022468]]]}},
{"type":"Feature","properties":{"id":"L01-F063","kind":"chair","room":"L01-01"},"geometry":{"type":"Polygon","coordinates":[[[90.38465858,23.74021981],[90.38465474,23.74021904],[90.3846539,23.74022255],[90.38465773,23.74022332],[90.38465858,23.74021981]]]}},
{"type":"Feature","properties":{"id":"L01-F064","kind":"chair","room":"L01-01"},"geometry":{"type":"Polygon","coordinates":[[[90.38465541,23.74023298],[90.38465158,23.74023221],[90.38465073,23.74023573],[90.38465457,23.7402365],[90.38465541,23.74023298]]]}},
{"type":"Feature","properties":{"id":"L01-F065","kind":"chair","room":"L01-01"},"geometry":{"type":"Polygon","coordinates":[[[90.38466419,23.74022785],[90.38466035,23.74022707],[90.38465951,23.74023059],[90.38466335,23.74023136],[90.38466419,23.74022785]]]}},
{"type":"Feature","properties":{"id":"L01-F066","kind":"chair","room":"L01-01"},"geometry":{"type":"Polygon","coordinates":[[[90.3846498,23.74022495],[90.38464596,23.74022418],[90.38464512,23.74022769],[90.38464896,23.74022846],[90.3846498,23.74022495]]]}},
{"type":"Feature","properties":{"id":"L01-F067","kind":"table","room":"L01-01"},"geometry":{"type":"Polygon","coordinates":[[[90.38465549,23.74024313],[90.38464686,23.74024139],[90.38464496,23.7402493],[90.38465359,23.74025103],[90.38465549,23.74024313]]]}},
{"type":"Feature","properties":{"id":"L01-F068","kind":"chair","room":"L01-01"},"geometry":{"type":"Polygon","coordinates":[[[90.38465415,23.74023825],[90.38465031,23.74023748],[90.38464947,23.740241],[90.3846533,23.74024177],[90.38465415,23.74023825]]]}},
{"type":"Feature","properties":{"id":"L01-F069","kind":"chair","room":"L01-01"},"geometry":{"type":"Polygon","coordinates":[[[90.38465098,23.74025143],[90.38464714,23.74025066],[90.3846463,23.74025417],[90.38465014,23.74025494],[90.38465098,23.74025143]]]}},
{"type":"Feature","properties":{"id":"L01-F070","kind":"chair","room":"L01-01"},"geometry":{"type":"Polygon","coordinates":[[[90.38465976,23.74024629],[90.38465592,23.74024552],[90.38465508,23.74024903],[90.38465892,23.7402498],[90.38465976,23.74024629]]]}},
{"type":"Feature","properties":{"id":"L01-F071","kind":"chair","room":"L01-01"},"geometry":{"type":"Polygon","coordinates":[[[90.38464537,23.74024339],[90.38464153,23.74024262],[90.38464069,23.74024613],[90.38464452,23.74024691],[90.38464537,23.74024339]]]}},
{"type":"Feature","properties":{"id":"L01-F072","kind":"table","room":"L01-01"},"geometry":{"type":"Polygon","coordinates":[[[90.38465106,23.74026157],[90.38464243,23.74025984],[90.38464053,23.74026774],[90.38464916,23.74026948],[90.38465106,23.74026157]]]}},
{"type":"Feature","properties":{"id":"L01-F073","kind":"chair","room":"L01-01"},"geometry":{"type":"Polygon","coordinates":[[[90.38464972,23.7402567],[90.38464588,23.74025593],[90.38464503,23.74025944],[90.38464887,23.74026021],[90.38464972,23.7402567]]]}},
{"type":"Feature","properties":{"id":"L01-F074","kind":"chair","room":"L01-01"},"geometry":{"type":"Polygon","coordinates":[[[90.38464655,23.74026988],[90.38464271,23.7402691],[90.38464187,23.74027262],[90.38464571,23.74027339],[90.38464655,23.74026988]]]}},
{"type":"Feature","properties":{"id":"L01-F075","kind":"chair","room":"L01-01"},"geometry":{"type":"Polygon","coordinates":[[[90.38465533,23.74026474],[90.38465149,23.74026396],[90.38465065,23.74026748],[90.38465449,23.74026825],[90.38465533,23.74026474]]]}},
{"type":"Feature","properties":{"id":"L01-F076","kind":"chair","room":"L01-01"},"geometry":{"type":"Polygon","coordinates":[[[90.38464094,23.74026184],[90.3846371,23.74026107],[90.38463626,23.74026458],[90.38464009,23.74026535],[90.38464094,23.74026184]]]}},
{"type":"Feature","properties":{"id":"L01-F077","kind":"table","room":"L01-01"},"geometry":{"type":"Polygon","coordinates":[[[90.38463785,23.74022024],[90.38462922,23.7402185],[90.38462732,23.74022641],[90.38463595,23.74022815],[90.38463785,23.74022024]]]}},
{"type":"Feature","properties":{"id":"L01-F078","kind":"chair","room":"L01-01"},"geometry":{"type":"Polygon","coordinates":[[[90.38463651,23.74021537],[90.38463267,23.7402146],[90.38463183,23.74021811],[90.38463567,23.74021888],[90.38463651,23.74021537]]]}},
{"type":"Feature","properties":{"id":"L01-F079","kind":"chair","room":"L01-01"},"geometry":{"type":"Polygon","coordinates":[[[90.38463334,23.74022854],[90.38462951,23.74022777],[90.38462866,23.74023128],[90.3846325,23.74023206],[90.38463334,23.74022854]]]}},
{"type":"Feature","properties":{"id":"L01-F080","kind":"chair","room":"L01-01"},"geometry":{"type":"Polygon","coordinates":[[[90.38464212,23.7402234],[90.38463828,23.74022263],[90.38463744,23.74022614],[90.38464128,23.74022692],[90.38464212,23.7402234]]]}},
{"type":"Feature","properties":{"id":"L01-F081","kind":"chair","room":"L01-01"},"geometry":{"type":"Polygon","coordinates":[[[90.38462773,23.74022051],[90.38462389,23.74021973],[90.38462305,23.74022325],[90.38462689,23.74022402],[90.38462773,23.74022051]]]}},
{"type":"Feature","properties":{"id":"L01-F082","kind":"table","room":"L01-01"},"geometry":{"type":"Polygon","coordinates":[[[90.38463342,23.74023869],[90.38462479,23.74023695],[90.38462289,23.74024485],[90.38463152,23.74024659],[90.38463342,23.74023869]]]}},
{"type":"Feature","properties":{"id":"L01-F083","kind":"chair","room":"L01-01"},"geometry":{"type":"Polygon","coordinates":[[[90.38463208,23.74023381],[90.38462824,23.74023304],[90.3846274,23.74023655],[90.38463123,23.74023733],[90.38463208,23.74023381]]]}},
{"type":"Feature","properties":{"id":"L01-F084","kind":"chair","room":"L01-01"},"geometry":{"type":"Polygon","coordinates":[[[90.38462891,23.74024699],[90.38462508,23.74024622],[90.38462423,23.74024973],[90.38462807,23.7402505],[90.38462891,23.74024699]]]}},
{"type":"Feature","properties":{"id":"L01-F085","kind":"chair","room":"L01-01"},"geometry":{"type":"Polygon","coordinates":[[[90.38463769,23.74024185],[90.38463385,23.74024108],[90.38463301,23.74024459],[90.38463685,23.74024536],[90.38463769,23.74024185]]]}},
{"type":"Feature","properties":{"id":"L01-F086","kind":"chair","room":"L01-01"},"geometry":{"type":"Polygon","coordinates":[[[90.3846233,23.74023895],[90.38461946,23.74023818],[90.38461862,23.74024169],[90.38462246,23.74024247],[90.3846233,23.74023895]]]}},
{"type":"Feature","properties":{"id":"L01-F087","kind":"table","room":"L01-01"},"geometry":{"type":"Polygon","coordinates":[[[90.38462899,23.74025713],[90.38462036,23.74025539],[90.38461846,23.7402633],[90.38462709,23.74026504],[90.38462899,23.74025713]]]}},
{"type":"Feature","properties":{"id":"L01-F088","kind":"chair","room":"L01-01"},"geometry":{"type":"Polygon","coordinates":[[[90.38462765,23.74025226],[90.38462381,23.74025149],[90.38462297,23.740255],[90.3846268,23.74025577],[90.38462765,23.74025226]]]}},
{"type":"Feature","properties":{"id":"L01-F089","kind":"chair","room":"L01-01"},"geometry":{"type":"Polygon","coordinates":[[[90.38462448,23.74026543],[90.38462064,23.74026466],[90.3846198,23.74026817],[90.38462364,23.74026895],[90.38462448,23.74026543]]]}},
{"type":"Feature","properties":{"id":"L01-F090","kind":"chair","room":"L01-01"},"geometry":{"type":"Polygon","coordinates":[[[90.38463326,23.74026029],[90.38462942,23.74025952],[90.38462858,23.74026303],[90.38463242,23.74026381],[90.38463326,23.74026029]]]}},
{"type":"Feature","properties":{"id":"L01-F091","kind":"chair","room":"L01-01"},"geometry":{"type":"Polygon","coordinates":[[[90.38461887,23.7402574],[90.38461503,23.74025662],[90.38461419,23.74026014],[90.38461802,23.74026091],[90.38461887,23.7402574]]]}},
{"type":"Feature","properties":{"id":"L01-F092","kind":"carpet","room":"L01-02"},"geometry":{"type":"Polygon","coordinates":[[[90.38477191,23.74017724],[90.38470413,23.7401636],[90.38470202,23.74017238],[90.3847698,23.74018603],[90.38477191,23.74017724]]]}},
{"type":"Feature","properties":{"id":"L01-F093","kind":"carpet","room":"L01-02"},"geometry":{"type":"Polygon","coordinates":[[[90.38477455,23.74016626],[90.38470676,23.74015262],[90.38470465,23.7401614],[90.38477244,23.74017505],[90.38477455,23.74016626]]]}},
{"type":"Feature","properties":{"id":"L01-F094","kind":"carpet","room":"L01-02"},"geometry":{"type":"Polygon","coordinates":[[[90.38477718,23.74015529],[90.3847094,23.74014164],[90.38470729,23.74015043],[90.38477507,23.74016407],[90.38477718,23.74015529]]]}},
{"type":"Feature","properties":{"id":"L01-F095","kind":"carpet","room":"L01-02"},"geometry":{"type":"Polygon","coordinates":[[[90.38477982,23.74014431],[90.38471204,23.74013066],[90.38470993,23.74013945],[90.38477771,23.74015309],[90.38477982,23.74014431]]]}},
{"type":"Feature","properties":{"id":"L01-F096","kind":"carpet","room":"L01-02"},"geometry":{"type":"Polygon","coordinates":[[[90.38478246,23.74013333],[90.38471468,23.74011968],[90.38471257,23.74012847],[90.38478035,23.74014211],[90.38478246,23.74013333]]]}},
{"type":"Feature","properties":{"id":"L01-F097","kind":"carpet","room":"L01-02"},"geometry":{"type":"Polygon","coordinates":[[[90.3847851,23.74012235],[90.38471731,23.7401087],[90.3847152,23.74011749],[90.38478299,23.74013113],[90.3847851,23.74012235]]]}},
{"type":"Feature","properties":{"id":"L01-F098","kind":"shelf","room":"L01-02","height_m":0.9},"geometry":{"type":"Polygon","coordinates":[[[90.38470171,23.74017785],[90.38469787,23.74017707],[90.38469608,23.74018454],[90.38469992,23.74018531],[90.38470171,23.74017785]]]}},
{"type":"Feature","properties":{"id":"L01-F099","kind":"counter","room":"L01-03"},"geometry":{"type":"Polygon","coordinates":[[[90.38459775,23.74013759],[90.38457088,23.74013218],[90.38456961,23.74013745],[90.38459648,23.74014286],[90.38459775,23.74013759]]]}},
{"type":"Feature","properties":{"id":"L01-F100","kind":"counter","room":"L01-03"},"geometry":{"type":"Polygon","coordinates":[[[90.38457854,23.74012543],[90.38457278,23.74012427],[90.38457088,23.74013218],[90.38457664,23.74013334],[90.38457854,23.74012543]]]}},
{"type":"Feature","properties":{"id":"L01-F101","kind":"chair","room":"L01-03","height_m":1},"geometry":{"type":"Polygon","coordinates":[[[90.38458888,23.74012843],[90.38458312,23.74012728],[90.38458207,23.74013167],[90.38458783,23.74013283],[90.38458888,23.74012843]]]}},
{"type":"Feature","properties":{"id":"L01-F102","kind":"sofa","room":"L01-03"},"geometry":{"type":"Polygon","coordinates":[[[90.38462774,23.74011458],[90.38462054,23.74011313],[90.38461632,23.7401307],[90.38462352,23.74013214],[90.38462774,23.74011458]]]}},
{"type":"Feature","properties":{"id":"L01-F103","kind":"cabinet","room":"L01-03"},"geometry":{"type":"Polygon","coordinates":[[[90.3845772,23.7400752],[90.38456137,23.74007201],[90.38456053,23.74007553],[90.38457636,23.74007871],[90.3845772,23.7400752]]]}},
{"type":"Feature","properties":{"id":"L01-F104","kind":"plant","room":"L01-03"},"geometry":{"type":"Polygon","coordinates":[[[90.38463374,23.7400875],[90.38462942,23.74008663],[90.38462847,23.74009058],[90.38463279,23.74009145],[90.38463374,23.7400875]]]}},
{"type":"Feature","properties":{"id":"L01-F105","kind":"shelf","room":"L01-04"},"geometry":{"type":"Polygon","coordinates":[[[90.38454064,23.7401353],[90.38450962,23.74012906],[90.38450857,23.74013345],[90.38453958,23.74013969],[90.38454064,23.7401353]]]}},
{"type":"Feature","properties":{"id":"L01-F106","kind":"shelf","room":"L01-04"},"geometry":{"type":"Polygon","coordinates":[[[90.38450003,23.74012712],[90.38446901,23.74012088],[90.38446796,23.74012527],[90.38449897,23.74013152],[90.38450003,23.74012712]]]}},
{"type":"Feature","properties":{"id":"L01-F107","kind":"shelf","room":"L01-04"},"geometry":{"type":"Polygon","coordinates":[[[90.38454401,23.74012124],[90.384513,23.740115],[90.38451194,23.74011939],[90.38454296,23.74012564],[90.38454401,23.74012124]]]}},
{"type":"Feature","properties":{"id":"L01-F108","kind":"shelf","room":"L01-04"},"geometry":{"type":"Polygon","coordinates":[[[90.3845034,23.74011307],[90.38447239,23.74010683],[90.38447133,23.74011122],[90.38450235,23.74011746],[90.3845034,23.74011307]]]}},
{"type":"Feature","properties":{"id":"L01-F109","kind":"shelf","room":"L01-04"},"geometry":{"type":"Polygon","coordinates":[[[90.38454739,23.74010719],[90.38451637,23.74010095],[90.38451532,23.74010534],[90.38454633,23.74011158],[90.38454739,23.74010719]]]}},
{"type":"Feature","properties":{"id":"L01-F110","kind":"shelf","room":"L01-04"},"geometry":{"type":"Polygon","coordinates":[[[90.38450678,23.74009902],[90.38447576,23.74009278],[90.38447471,23.74009717],[90.38450572,23.74010341],[90.38450678,23.74009902]]]}},
{"type":"Feature","properties":{"id":"L01-F111","kind":"shelf","room":"L01-04"},"geometry":{"type":"Polygon","coordinates":[[[90.38455076,23.74009314],[90.38451975,23.7400869],[90.38451869,23.74009129],[90.38454971,23.74009753],[90.38455076,23.74009314]]]}},
{"type":"Feature","properties":{"id":"L01-F112","kind":"shelf","room":"L01-04"},"geometry":{"type":"Polygon","coordinates":[[[90.38451015,23.74008496],[90.38447914,23.74007872],[90.38447809,23.74008311],[90.3845091,23.74008936],[90.38451015,23.74008496]]]}},
{"type":"Feature","properties":{"id":"L01-F113","kind":"shelf","room":"L01-04"},"geometry":{"type":"Polygon","coordinates":[[[90.38455414,23.74007908],[90.38452313,23.74007284],[90.38452207,23.74007723],[90.38455308,23.74008348],[90.38455414,23.74007908]]]}},
{"type":"Feature","properties":{"id":"L01-F114","kind":"shelf","room":"L01-04"},"geometry":{"type":"Polygon","coordinates":[[[90.38451353,23.74007091],[90.38448252,23.74006467],[90.38448146,23.74006906],[90.38451247,23.7400753],[90.38451353,23.74007091]]]}},
{"type":"Feature","properties":{"id":"L01-F115","kind":"shelf","room":"L01-05"},"geometry":{"type":"Polygon","coordinates":[[[90.38459628,23.74024134],[90.38456527,23.7402351],[90.38456422,23.74023949],[90.38459523,23.74024573],[90.38459628,23.74024134]]]}},
{"type":"Feature","properties":{"id":"L01-F116","kind":"shelf","room":"L01-05"},"geometry":{"type":"Polygon","coordinates":[[[90.38455568,23.74023317],[90.38452466,23.74022693],[90.38452361,23.74023132],[90.38455462,23.74023756],[90.38455568,23.74023317]]]}},
{"type":"Feature","properties":{"id":"L01-F117","kind":"shelf","room":"L01-05"},"geometry":{"type":"Polygon","coordinates":[[[90.38459291,23.74025539],[90.38456189,23.74024915],[90.38456084,23.74025354],[90.38459185,23.74025979],[90.38459291,23.74025539]]]}},
{"type":"Feature","properties":{"id":"L01-F118","kind":"shelf","room":"L01-05"},"geometry":{"type":"Polygon","coordinates":[[[90.3845523,23.74024722],[90.38452129,23.74024098],[90.38452023,23.74024537],[90.38455124,23.74025161],[90.3845523,23.74024722]]]}},
{"type":"Feature","properties":{"id":"L01-F119","kind":"shelf","room":"L01-05"},"geometry":{"type":"Polygon","coordinates":[[[90.38458953,23.74026945],[90.38455852,23.74026321],[90.38455746,23.7402676],[90.38458848,23.74027384],[90.38458953,23.74026945]]]}},
{"type":"Feature","properties":{"id":"L01-F120","kind":"shelf","room":"L01-05"},"geometry":{"type":"Polygon","coordinates":[[[90.38454892,23.74026127],[90.38451791,23.74025503],[90.38451686,23.74025942],[90.38454787,23.74026567],[90.38454892,23.74026127]]]}},
{"type":"Feature","properties":{"id":"L01-F121","kind":"basin","room":"L01-06"},"geometry":{"type":"Polygon","coordinates":[[[90.38452725,23.74019522],[90.38452197,23.74019416],[90.38451555,23.7402209],[90.38452083,23.74022196],[90.38452725,23.74019522]]]}},
{"type":"Feature","properties":{"id":"L01-F122","kind":"cubicle","room":"L01-06"},"geometry":{"type":"Polygon","coordinates":[[[90.38447942,23.7402443],[90.38447894,23.74024421],[90.38447567,23.74025782],[90.38447615,23.74025792],[90.38447942,23.7402443]]]}},
{"type":"Feature","properties":{"id":"L01-F123","kind":"cubicle","room":"L01-06"},"geometry":{"type":"Polygon","coordinates":[[[90.38449142,23.74024672],[90.38449094,23.74024662],[90.38448767,23.74026023],[90.38448815,23.74026033],[90.38449142,23.74024672]]]}},
{"type":"Feature","properties":{"id":"L01-F124","kind":"cubicle","room":"L01-06"},"geometry":{"type":"Polygon","coordinates":[[[90.38450341,23.74024913],[90.38450293,23.74024903],[90.38449966,23.74026265],[90.38450014,23.74026274],[90.38450341,23.74024913]]]}},
{"type":"Feature","properties":{"id":"L01-F125","kind":"basin","room":"L01-07"},"geometry":{"type":"Polygon","coordinates":[[[90.38448856,23.74018743],[90.38448328,23.74018637],[90.38447686,23.74021311],[90.38448214,23.74021417],[90.38448856,23.74018743]]]}},
{"type":"Feature","properties":{"id":"L01-F126","kind":"cubicle","room":"L01-07"},"geometry":{"type":"Polygon","coordinates":[[[90.38444073,23.74023651],[90.38444025,23.74023642],[90.38443698,23.74025003],[90.38443746,23.74025013],[90.38444073,23.74023651]]]}},
{"type":"Feature","properties":{"id":"L01-F127","kind":"cubicle","room":"L01-07"},"geometry":{"type":"Polygon","coordinates":[[[90.38445273,23.74023893],[90.38445225,23.74023883],[90.38444898,23.74025245],[90.38444946,23.74025254],[90.38445273,23.74023893]]]}},
{"type":"Feature","properties":{"id":"L01-F128","kind":"cubicle","room":"L01-07"},"geometry":{"type":"Polygon","coordinates":[[[90.38446472,23.74024134],[90.38446424,23.74024125],[90.38446097,23.74025486],[90.38446145,23.74025496],[90.38446472,23.74024134]]]}},
{"type":"Feature","properties":{"id":"L01-F129","kind":"plant","room":null},"geometry":{"type":"Polygon","coordinates":[[[90.38471112,23.74010308],[90.3847068,23.74010221],[90.38470585,23.74010616],[90.38471017,23.74010703],[90.38471112,23.74010308]]]}},
{"type":"Feature","properties":{"id":"L01-F130","kind":"plant","room":null},"geometry":{"type":"Polygon","coordinates":[[[90.38464286,23.74008934],[90.38463854,23.74008847],[90.38463759,23.74009242],[90.38464191,23.74009329],[90.38464286,23.74008934]]]}},
{"type":"Feature","properties":{"id":"L01-F131","kind":"sofa","room":null},"geometry":{"type":"Polygon","coordinates":[[[90.38463275,23.74014187],[90.38462556,23.74014042],[90.38462134,23.74015799],[90.38462853,23.74015943],[90.38463275,23.74014187]]]}}
]
}
