{
"type": "FeatureCollection",
"name": "area",
"crs": { "type": "name", "properties": { "name": "urn:ogc:def:crs:OGC:1.3:CRS84" } },
"features": [
{ "type": "Feature", "properties": { "id": 1, "name": "Taqwa Fabrics Ltd", "color": "#FFFFFF" }, "geometry": { "type": "Polygon", "coordinates": [ [ [ 90.406646143010661, 24.194727861959315 ], [ 90.406857827828972, 24.194826571510465 ], [ 90.40697747576975, 24.194600390883942 ], [ 90.407037299740139, 24.194626621394036 ], [ 90.40707434458335, 24.194649170429027 ], [ 90.40696620125226, 24.194858784417594 ], [ 90.406823313999894, 24.195166647772925 ], [ 90.407044662690353, 24.195262826309939 ], [ 90.407243922530213, 24.194845439070356 ], [ 90.40727981691245, 24.19477825214976 ], [ 90.407385659321605, 24.194829332616788 ], [ 90.407323534429267, 24.194859244601982 ], [ 90.407264170643273, 24.19492597133819 ], [ 90.407215851282572, 24.195018928584485 ], [ 90.407095743157413, 24.195312526223795 ], [ 90.407488050347879, 24.195474971312635 ], [ 90.407456527717329, 24.195557344318026 ], [ 90.407868622836446, 24.195722550513189 ], [ 90.407812940525559, 24.195931704317367 ], [ 90.407833878915199, 24.195936076069049 ], [ 90.407818232646022, 24.196017183567374 ], [ 90.407765081349268, 24.196014077322765 ], [ 90.407735859640653, 24.196229558662271 ], [ 90.407553051392668, 24.196224266541819 ], [ 90.407538440538403, 24.196410641218808 ], [ 90.407516696826079, 24.1964107562649 ], [ 90.407513935719749, 24.196453093228559 ], [ 90.407420058104677, 24.196453783505142 ], [ 90.407423739579755, 24.196757965385363 ], [ 90.407203541350256, 24.196820550462085 ], [ 90.407164885861704, 24.196470235097003 ], [ 90.40672471949496, 24.19648093438402 ], [ 90.406751812850786, 24.196914255508023 ], [ 90.406676112519023, 24.196912069632184 ], [ 90.406548756489769, 24.196908503203183 ], [ 90.406429453687281, 24.196898724284942 ], [ 90.406336956625353, 24.196892109134364 ], [ 90.406167551247691, 24.19685385630715 ], [ 90.406173188506415, 24.196772518716646 ], [ 90.406122683269899, 24.1967684345802 ], [ 90.406151444794133, 24.196472190880701 ], [ 90.405943671543156, 24.196455336627505 ], [ 90.40597410123577, 24.196293294200032 ], [ 90.405960410750239, 24.196291913646874 ], [ 90.405961101026818, 24.196284032989237 ], [ 90.40570500841514, 24.196223288650085 ], [ 90.405595139392602, 24.196197345755227 ], [ 90.405606126294856, 24.196116008164722 ], [ 90.405621427425757, 24.196005966573047 ], [ 90.405748208224537, 24.196021555319174 ], [ 90.40576753596882, 24.195814012160387 ], [ 90.40592388361452, 24.195834260273443 ], [ 90.406083797689234, 24.195267543200142 ], [ 90.406094381930146, 24.19526984412208 ], [ 90.406137064032066, 24.195141567724043 ], [ 90.406129470989683, 24.195139496894299 ], [ 90.406137179078172, 24.195113266384208 ], [ 90.406101514788133, 24.195103142327682 ], [ 90.406111178660225, 24.19505309727554 ], [ 90.406224384019566, 24.195088071288996 ], [ 90.406299624166934, 24.19492815721431 ], [ 90.406418581831133, 24.194990052014443 ], [ 90.406497963638003, 24.195034229715652 ], [ 90.406646373102944, 24.194728207097917 ], [ 90.406646143010661, 24.194727861959315 ] ] ] } }
]
}
