{
  "type": "FeatureCollection",
  "features": [
    {
      "type": "Feature",
      "geometry": {
        "type": "Polygon",
        "coordinates": [
          [
            [
              90.40639295113111,
              24.19663661531187
            ],
            [
              90.40668604790213,
              24.196612492867224
            ],
            [
              90.40670563605265,
              24.196862604530093
            ],
            [
              90.4064118137946,
              24.196887089718256
            ],
            [
              90.40639295113111,
              24.19663661531187
            ]
          ]
        ]
      },
      "properties": {
        "id": "1",
        "name_en": "Generator Building",
        "name_bn": null,
        "name_en_short": null,
        "entrance_coords": null,
        "color": null,
        "base_m": null,
        "top_m": null,
        "image": null,
        "building_model": null
      }
    },
    {
      "type": "Feature",
      "geometry": {
        "type": "Polygon",
        "coordinates": [
          [
            [
              90.4063428925242,
              24.196497503168686
            ],
            [
              90.4065081222014,
              24.19648353754284
            ],
            [
              90.40651610255905,
              24.196590728255497
            ],
            [
              90.40635087288183,
              24.196603605650765
            ],
            [
              90.4063428925242,
              24.196497503168686
            ]
          ]
        ]
      },
      "properties": {
        "id": "2",
        "name_en": "Boiler Building",
        "name_bn": null,
        "name_en_short": null,
        "entrance_coords": null,
        "color": null,
        "base_m": null,
        "top_m": null,
        "image": null,
        "building_model": null
      }
    },
    {
      "type": "Feature",
      "geometry": {
        "type": "Polygon",
        "coordinates": [
          [
            [
              90.40652263194256,
              24.196482222597545
            ],
            [
              90.40667480285276,
              24.19647020671816
            ],
            [
              90.406684596928,
              24.19659680420959
            ],
            [
              90.40653224464604,
              24.196608956117796
            ],
            [
              90.40652263194256,
              24.196482222597545
            ]
          ]
        ]
      },
      "properties": {
        "id": "3",
        "name_en": "Transformer",
        "name_bn": null,
        "name_en_short": null,
        "entrance_coords": null,
        "color": null,
        "base_m": null,
        "top_m": null,
        "image": null,
        "building_model": null
      }
    },
    {
      "type": "Feature",
      "geometry": {
        "type": "Polygon",
        "coordinates": [
          [
            [
              90.40613730762944,
              24.19675849713739
            ],
            [
              90.40622944448567,
              24.196765389264435
            ],
            [
              90.40623416015154,
              24.19672585021983
            ],
            [
              90.40614093506473,
              24.196719683579847
            ],
            [
              90.40613730762944,
              24.19675849713739
            ]
          ]
        ]
      },
      "properties": {
        "id": "4",
        "name_en": "RMS",
        "name_bn": null,
        "name_en_short": null,
        "entrance_coords": null,
        "color": null,
        "base_m": null,
        "top_m": null,
        "image": null,
        "building_model": null
      }
    },
    {
      "type": "Feature",
      "geometry": {
        "type": "Polygon",
        "coordinates": [
          [
            [
              90.40616560162468,
              24.196503851180413
            ],
            [
              90.40625048361034,
              24.196510017820398
            ],
            [
              90.40623270917743,
              24.19668449745759
            ],
            [
              90.40614891542234,
              24.196677968074074
            ],
            [
              90.40616560162468,
              24.196503851180413
            ]
          ]
        ]
      },
      "properties": {
        "id": "5",
        "name_en": "WTP WATER RESERVOIR\nSINGLE STORIED",
        "name_bn": null,
        "name_en_short": null,
        "entrance_coords": null,
        "color": null,
        "base_m": null,
        "top_m": null,
        "image": null,
        "building_model": null
      }
    },
    {
      "type": "Feature",
      "geometry": {
        "type": "Polygon",
        "coordinates": [
          [
            [
              90.4058162796067,
              24.195841844240977
            ],
            [
              90.40599347982035,
              24.195875035273822
            ],
            [
              90.40595067608393,
              24.196078171649766
            ],
            [
              90.40620205734918,
              24.19612387733435
            ],
            [
              90.40612660669522,
              24.19645868961112
            ],
            [
              90.40596409759448,
              24.196429670128843
            ],
            [
              90.40600363663906,
              24.19625355814578
            ],
            [
              90.40562402553647,
              24.19618681333653
            ],
            [
              90.40565921165873,
              24.19602756892753
            ],
            [
              90.40577166215256,
              24.196047519821594
            ],
            [
              90.4058162796067,
              24.195841844240977
            ]
          ]
        ]
      },
      "properties": {
        "id": "6",
        "name_en": "NEW DYEING FINISHING SHED\nSINGLE STORIED",
        "name_bn": null,
        "name_en_short": null,
        "entrance_coords": null,
        "color": null,
        "base_m": null,
        "top_m": null,
        "image": null,
        "building_model": null
      }
    },
    {
      "type": "Feature",
      "geometry": {
        "type": "Polygon",
        "coordinates": [
          [
            [
              90.40634407144049,
              24.196458145495814
            ],
            [
              90.40667344256434,
              24.196431302474707
            ],
            [
              90.4066476877738,
              24.196130225346092
            ],
            [
              90.40631849802169,
              24.19615579876485
            ],
            [
              90.40634243909453,
              24.196456150406405
            ],
            [
              90.40634407144049,
              24.196458145495814
            ]
          ]
        ]
      },
      "properties": {
        "id": "7",
        "name_en": "WAREHOUSE\n",
        "name_bn": null,
        "name_en_short": null,
        "entrance_coords": null,
        "color": null,
        "base_m": null,
        "top_m": null,
        "image": null,
        "building_model": null
      }
    },
    {
      "type": "Feature",
      "geometry": {
        "type": "Polygon",
        "coordinates": [
          [
            [
              90.40610701854452,
              24.19584420207389
            ],
            [
              90.40634389006861,
              24.19589643714199
            ],
            [
              90.40636601742382,
              24.195901152807856
            ],
            [
              90.40635948804031,
              24.19592654485485
            ],
            [
              90.40643022302837,
              24.195941417339522
            ],
            [
              90.40642061032486,
              24.195980230897067
            ],
            [
              90.40637889481908,
              24.19597225053944
            ],
            [
              90.40636039489911,
              24.196041897296908
            ],
            [
              90.40627768937462,
              24.1960252110946
            ],
            [
              90.40623996404766,
              24.196042985527495
            ],
            [
              90.40617757216076,
              24.196030289504005
            ],
            [
              90.40617467021254,
              24.196043711014557
            ],
            [
              90.40603029828821,
              24.19601432878875
            ],
            [
              90.40604009236348,
              24.195916388036064
            ],
            [
              90.40605496484815,
              24.195859074558566
            ],
            [
              90.40610139601979,
              24.19586814314678
            ],
            [
              90.40610701854452,
              24.19584420207389
            ]
          ]
        ]
      },
      "properties": {
        "id": "8",
        "name_en": "7-Storied\nPrinting\nBuilding",
        "name_bn": null,
        "name_en_short": null,
        "entrance_coords": null,
        "color": null,
        "base_m": null,
        "top_m": null,
        "image": null,
        "building_model": null
      }
    },
    {
      "type": "Feature",
      "geometry": {
        "type": "Polygon",
        "coordinates": [
          [
            [
              90.40645216901183,
              24.195706359533094
            ],
            [
              90.40662048200903,
              24.19576367301059
            ],
            [
              90.40662628590549,
              24.1959588290289
            ],
            [
              90.40646014936945,
              24.195963181951242
            ],
            [
              90.40645216901183,
              24.195706359533094
            ]
          ]
        ]
      },
      "properties": {
        "id": "9",
        "name_en": "NEW ADMIN BUILDING\n",
        "name_bn": null,
        "name_en_short": null,
        "entrance_coords": null,
        "color": null,
        "base_m": null,
        "top_m": null,
        "image": null,
        "building_model": null
      }
    },
    {
      "type": "Feature",
      "geometry": {
        "type": "Polygon",
        "coordinates": [
          [
            [
              90.4066839621265,
              24.195905324358453
            ],
            [
              90.40667906508887,
              24.195905505730217
            ],
            [
              90.40667824891594,
              24.19585871181505
            ],
            [
              90.40668287389593,
              24.19585834907152
            ],
            [
              90.4066822390947,
              24.19582243746221
            ],
            [
              90.40682969433905,
              24.19581763111045
            ],
            [
              90.40683041982611,
              24.195852454489184
            ],
            [
              90.40684311584961,
              24.195852817232712
            ],
            [
              90.40684438545196,
              24.195899429776123
            ],
            [
              90.40683168942846,
              24.195899429776123
            ],
            [
              90.40683223354374,
              24.195936066872495
            ],
            [
              90.40668459692768,
              24.19594123596777
            ],
            [
              90.4066839621265,
              24.195905324358453
            ]
          ]
        ]
      },
      "properties": {
        "id": "10",
        "name_en": "Masjid",
        "name_bn": null,
        "name_en_short": null,
        "entrance_coords": null,
        "color": null,
        "base_m": null,
        "top_m": null,
        "image": null,
        "building_model": null
      }
    },
    {
      "type": "Feature",
      "geometry": {
        "type": "Polygon",
        "coordinates": [
          [
            [
              90.40667081267358,
              24.19603137773458
            ],
            [
              90.40684719671425,
              24.19602539246636
            ],
            [
              90.40684792220131,
              24.1961839113883
            ],
            [
              90.40669919735464,
              24.196196970155324
            ],
            [
              90.40669411894524,
              24.196144735087223
            ],
            [
              90.40668958465115,
              24.196144190971932
            ],
            [
              90.40667081267358,
              24.19603137773458
            ]
          ]
        ]
      },
      "properties": {
        "id": "11",
        "name_en": "4 storied Admin Building",
        "name_bn": null,
        "name_en_short": null,
        "entrance_coords": null,
        "color": null,
        "base_m": null,
        "top_m": null,
        "image": null,
        "building_model": null
      }
    },
    {
      "type": "Feature",
      "geometry": {
        "type": "Polygon",
        "coordinates": [
          [
            [
              90.40688256420826,
              24.196179739837717
            ],
            [
              90.40711181811827,
              24.196172122223622
            ],
            [
              90.40711435732297,
              24.19597914266648
            ],
            [
              90.40706466145956,
              24.19598059364059
            ],
            [
              90.40706466145956,
              24.19602557383812
            ],
            [
              90.40688111323418,
              24.19603210322163
            ],
            [
              90.40688256420826,
              24.196179739837717
            ]
          ]
        ]
      },
      "properties": {
        "id": "12",
        "name_en": "1 storied Building",
        "name_bn": null,
        "name_en_short": null,
        "entrance_coords": null,
        "color": null,
        "base_m": null,
        "top_m": null,
        "image": null,
        "building_model": null
      }
    },
    {
      "type": "Feature",
      "geometry": {
        "type": "Polygon",
        "coordinates": [
          [
            [
              90.40669683952173,
              24.196196063296487
            ],
            [
              90.40684774082958,
              24.19618155355535
            ],
            [
              90.40722862153443,
              24.19616849478832
            ],
            [
              90.4072322489697,
              24.196303435380905
            ],
            [
              90.40727305761669,
              24.19630307263738
            ],
            [
              90.40727686642376,
              24.196446174959355
            ],
            [
              90.4067441775522,
              24.196463223905187
            ],
            [
              90.4067405501169,
              24.196310146136177
            ],
            [
              90.40671153063462,
              24.196311234366764
            ],
            [
              90.40670967157403,
              24.19624503367282
            ],
            [
              90.40670273410404,
              24.196245260387528
            ],
            [
              90.40669683952173,
              24.196196063296487
            ]
          ]
        ]
      },
      "properties": {
        "id": "12",
        "name_en": "6-Storied Rcc\nGarments Building",
        "name_bn": null,
        "name_en_short": null,
        "entrance_coords": null,
        "color": null,
        "base_m": null,
        "top_m": null,
        "image": null,
        "building_model": null
      }
    },
    {
      "type": "Feature",
      "geometry": {
        "type": "Polygon",
        "coordinates": [
          [
            [
              90.40720622212154,
              24.19650026908803
            ],
            [
              90.40740355460103,
              24.19649373970452
            ],
            [
              90.40740790752335,
              24.19673967981681
            ],
            [
              90.40721057504388,
              24.196746209200324
            ],
            [
              90.40720622212154,
              24.19650026908803
            ]
          ]
        ]
      },
      "properties": {
        "id": "12",
        "name_en": "WASHING & EMBROIDERY",
        "name_bn": null,
        "name_en_short": null,
        "entrance_coords": null,
        "color": null,
        "base_m": null,
        "top_m": null,
        "image": null,
        "building_model": null
      }
    },
    {
      "type": "Feature",
      "geometry": {
        "type": "Polygon",
        "coordinates": [
          [
            [
              90.40733699116353,
              24.196218054622882
            ],
            [
              90.40752634328538,
              24.196213429642892
            ],
            [
              90.40752625259951,
              24.1963908112283
            ],
            [
              90.40749714243135,
              24.19639072054242
            ],
            [
              90.4074998630078,
              24.196442411495227
            ],
            [
              90.40733971174001,
              24.19645039185285
            ],
            [
              90.40733699116353,
              24.196218054622882
            ]
          ]
        ]
      },
      "properties": {
        "id": "13",
        "name_en": "2-Storied All Over\nPrinting Shed",
        "name_bn": null,
        "name_en_short": null,
        "entrance_coords": null,
        "color": null,
        "base_m": null,
        "top_m": null,
        "image": null,
        "building_model": null
      }
    },
    {
      "type": "Feature",
      "geometry": {
        "type": "Polygon",
        "coordinates": [
          [
            [
              90.40732674365883,
              24.196218054622847
            ],
            [
              90.40733708184939,
              24.196218054622847
            ],
            [
              90.40753640941826,
              24.196213157585206
            ],
            [
              90.40772848211657,
              24.196222226173415
            ],
            [
              90.40775786434234,
              24.19600349182575
            ],
            [
              90.40780901117986,
              24.196006031030446
            ],
            [
              90.40782206994687,
              24.19594635972002
            ],
            [
              90.40779994259164,
              24.195939648964742
            ],
            [
              90.40785707469739,
              24.195727444000596
            ],
            [
              90.40744935097133,
              24.195566748617477
            ],
            [
              90.4074464490231,
              24.195474249017717
            ],
            [
              90.40731441037875,
              24.195420200231975
            ],
            [
              90.40732665297274,
              24.196217873251054
            ],
            [
              90.40732674365883,
              24.196218054622847
            ]
          ]
        ]
      },
      "properties": {
        "id": "14",
        "name_en": "Single-Storied All Over Printing Shed",
        "name_bn": null,
        "name_en_short": null,
        "entrance_coords": null,
        "color": null,
        "base_m": null,
        "top_m": null,
        "image": null,
        "building_model": null
      }
    },
    {
      "type": "Feature",
      "geometry": {
        "type": "Polygon",
        "coordinates": [
          [
            [
              90.40710256815804,
              24.195557680029246
            ],
            [
              90.40728575363991,
              24.195551513389262
            ],
            [
              90.40729155753635,
              24.195809424037993
            ],
            [
              90.40710946028507,
              24.19581522793445
            ],
            [
              90.40710256815804,
              24.195557680029246
            ]
          ]
        ]
      },
      "properties": {
        "id": "16",
        "name_en": "Canteen",
        "name_bn": null,
        "name_en_short": null,
        "entrance_coords": null,
        "color": null,
        "base_m": null,
        "top_m": null,
        "image": null,
        "building_model": null
      }
    },
    {
      "type": "Feature",
      "geometry": {
        "type": "Polygon",
        "coordinates": [
          [
            [
              90.40661703594516,
              24.19514777984208
            ],
            [
              90.4066335407757,
              24.195153583738534
            ],
            [
              90.40664061427451,
              24.195137804395046
            ],
            [
              90.40700045585476,
              24.19526748520647
            ],
            [
              90.40677818475767,
              24.19577741192161
            ],
            [
              90.40640895718859,
              24.195643831617257
            ],
            [
              90.40651383541125,
              24.195384832737922
            ],
            [
              90.40661699060212,
              24.195147949878102
            ],
            [
              90.40661703594516,
              24.19514777984208
            ]
          ]
        ]
      },
      "properties": {
        "id": "17",
        "name_en": "Single-Storied Prefabricated\nOld Dyeing Shed",
        "name_bn": null,
        "name_en_short": null,
        "entrance_coords": null,
        "color": null,
        "base_m": null,
        "top_m": null,
        "image": null,
        "building_model": null
      }
    },
    {
      "type": "Feature",
      "geometry": {
        "type": "Polygon",
        "coordinates": [
          [
            [
              90.40596508380321,
              24.195815602013255
            ],
            [
              90.40610800475329,
              24.195844621495517
            ],
            [
              90.40634415079016,
              24.195896131076523
            ],
            [
              90.40640944462521,
              24.195643661580892
            ],
            [
              90.40649160603431,
              24.19543680708392
            ],
            [
              90.4061740240754,
              24.195320910526657
            ],
            [
              90.40616785743542,
              24.195335964383077
            ],
            [
              90.40609458324272,
              24.195311297823164
            ],
            [
              90.40597814257016,
              24.195765271348723
            ],
            [
              90.40596508380321,
              24.195815602013255
            ]
          ]
        ]
      },
      "properties": {
        "id": null,
        "name_en": "Single-Storied\nPrefabricated Dyeing\nFinishing Section",
        "name_bn": null,
        "name_en_short": null,
        "entrance_coords": null,
        "color": null,
        "base_m": null,
        "top_m": null,
        "image": null,
        "building_model": null
      }
    },
    {
      "type": "Feature",
      "geometry": {
        "type": "Polygon",
        "coordinates": [
          [
            [
              90.40611489688031,
              24.19509637228269
            ],
            [
              90.40615153397667,
              24.19510870556265
            ],
            [
              90.40609603421684,
              24.19527461538387
            ],
            [
              90.40614863202843,
              24.19528966924029
            ],
            [
              90.40621664643997,
              24.195110836680875
            ],
            [
              90.40616169079544,
              24.19509433185035
            ],
            [
              90.40616577166016,
              24.195081907884507
            ],
            [
              90.40612369341088,
              24.195069393232785
            ],
            [
              90.40611489688031,
              24.19509637228269
            ]
          ]
        ]
      },
      "properties": {
        "id": null,
        "name_en": "FIRE WATER RESERVOIR\nTWO STORIED",
        "name_bn": null,
        "name_en_short": null,
        "entrance_coords": null,
        "color": null,
        "base_m": null,
        "top_m": null,
        "image": null,
        "building_model": null
      }
    },
    {
      "type": "Feature",
      "geometry": {
        "type": "Polygon",
        "coordinates": [
          [
            [
              90.40617465887657,
              24.19532041175431
            ],
            [
              90.4062997600508,
              24.195032801479375
            ],
            [
              90.40645796157203,
              24.19509006961389
            ],
            [
              90.40633181751011,
              24.195378269347078
            ],
            [
              90.40617465887657,
              24.19532041175431
            ]
          ]
        ]
      },
      "properties": {
        "id": null,
        "name_en": "DYEING LAB BUILDING",
        "name_bn": null,
        "name_en_short": null,
        "entrance_coords": null,
        "color": null,
        "base_m": null,
        "top_m": null,
        "image": null,
        "building_model": null
      }
    },
    {
      "type": "Feature",
      "geometry": {
        "type": "Polygon",
        "coordinates": [
          [
            [
              90.40645877774496,
              24.1950906137292
            ],
            [
              90.40661765941032,
              24.19514792720666
            ],
            [
              90.40649160603422,
              24.19543639899748
            ],
            [
              90.40633190819595,
              24.195378087975325
            ],
            [
              90.40645877774496,
              24.1950906137292
            ]
          ]
        ]
      },
      "properties": {
        "id": null,
        "name_en": "DYEING SHED\nSINGLE STORIED",
        "name_bn": null,
        "name_en_short": null,
        "entrance_coords": null,
        "color": null,
        "base_m": null,
        "top_m": null,
        "image": null,
        "building_model": null
      }
    },
    {
      "type": "Feature",
      "geometry": {
        "type": "Polygon",
        "coordinates": [
          [
            [
              90.40711280432635,
              24.195936168893496
            ],
            [
              90.40726044094232,
              24.195931271855862
            ],
            [
              90.40726098505762,
              24.195997109806232
            ],
            [
              90.40722452933304,
              24.19599801666505
            ],
            [
              90.40722833814006,
              24.196167599264502
            ],
            [
              90.40711207883925,
              24.196172133558605
            ],
            [
              90.40711479941574,
              24.195979154001606
            ],
            [
              90.40711371118516,
              24.195978247142786
            ],
            [
              90.40711280432635,
              24.195936168893496
            ]
          ]
        ]
      },
      "properties": {
        "id": null,
        "name_en": "4 Storied\nPacking Building",
        "name_bn": null,
        "name_en_short": null,
        "entrance_coords": null,
        "color": null,
        "base_m": null,
        "top_m": null,
        "image": null,
        "building_model": null
      }
    },
    {
      "type": "Feature",
      "geometry": {
        "type": "Polygon",
        "coordinates": [
          [
            [
              90.4066192917562,
              24.194847756937104
            ],
            [
              90.40684999664015,
              24.194961658404967
            ],
            [
              90.40681372228732,
              24.19502985418827
            ],
            [
              90.406822428132,
              24.19503638357178
            ],
            [
              90.40676511465452,
              24.195138677246735
            ],
            [
              90.40674516376046,
              24.195130696889116
            ],
            [
              90.40673718340285,
              24.19514556937377
            ],
            [
              90.40660840945033,
              24.195072657924598
            ],
            [
              90.40659571342684,
              24.195097687228046
            ],
            [
              90.4065398509235,
              24.195063952079924
            ],
            [
              90.40650539028832,
              24.195049805082324
            ],
            [
              90.40651736082474,
              24.19502586400946
            ],
            [
              90.40651337064592,
              24.19502441303535
            ],
            [
              90.40661094865501,
              24.19486027158883
            ],
            [
              90.4066192917562,
              24.194847756937104
            ]
          ]
        ]
      },
      "properties": {
        "id": null,
        "name_en": "ETP",
        "name_bn": null,
        "name_en_short": null,
        "entrance_coords": null,
        "color": null,
        "base_m": null,
        "top_m": null,
        "image": null,
        "building_model": null
      }
    },
    {
      "type": "Feature",
      "geometry": {
        "type": "Polygon",
        "coordinates": [
          [
            [
              90.40670199728058,
              24.194774664116167
            ],
            [
              90.40684310451306,
              24.19483487954185
            ],
            [
              90.40684020256482,
              24.19484358538653
            ],
            [
              90.40689280037643,
              24.194866800972335
            ],
            [
              90.40688590824938,
              24.19487550681701
            ],
            [
              90.40690005524698,
              24.194883487174632
            ],
            [
              90.40686813381653,
              24.19494225162621
            ],
            [
              90.40679776157205,
              24.194912143913367
            ],
            [
              90.40666137000542,
              24.194851203000624
            ],
            [
              90.40670199728058,
              24.194774664116167
            ]
          ]
        ]
      },
      "properties": {
        "id": null,
        "name_en": "ETP EXTENTION",
        "name_bn": null,
        "name_en_short": null,
        "entrance_coords": null,
        "color": null,
        "base_m": null,
        "top_m": null,
        "image": null,
        "building_model": null
      }
    },
    {
      "type": "Feature",
      "geometry": {
        "type": "Polygon",
        "coordinates": [
          [
            [
              90.40697913333612,
              24.194603630542623
            ],
            [
              90.40703590269828,
              24.194628841217835
            ],
            [
              90.40693850606097,
              24.194816198250162
            ],
            [
              90.40688228081409,
              24.194787178767903
            ],
            [
              90.40697913333612,
              24.194603630542623
            ]
          ]
        ]
      },
      "properties": {
        "id": null,
        "name_en": "WTP CONTROL ROOM",
        "name_bn": null,
        "name_en_short": null,
        "entrance_coords": null,
        "color": null,
        "base_m": null,
        "top_m": null,
        "image": null,
        "building_model": null
      }
    }
  ]
}