{
"type": "FeatureCollection",
"name": "garden",
"crs": {"type":"name","properties":{"name":"urn:ogc:def:crs:OGC:1.3:CRS84"}},
"features": [
{"type":"Feature","properties":{"id":1,"base_m":0,"top_m":0.03,"color":"#CDEBB0"},"geometry":{"type":"Polygon","coordinates":[[[90.40162465,24.2215624],[90.40234728,24.22170342],[90.40225512,24.22210149],[90.40153249,24.22196047],[90.40162465,24.2215624]]]}},
{"type":"Feature","properties":{"id":2,"base_m":0,"top_m":0.03,"color":"#CDEBB0"},"geometry":{"type":"Polygon","coordinates":[[[90.40378229,24.22202969],[90.40443747,24.22215755],[90.40435555,24.2225114],[90.40370037,24.22238354],[90.40378229,24.22202969]]]}},
{"type":"Feature","properties":{"id":3,"base_m":0,"top_m":0.03,"color":"#CDEBB0"},"geometry":{"type":"Polygon","coordinates":[[[90.40188065,24.22045664],[90.40308503,24.22069167],[90.40300925,24.22101898],[90.40180488,24.22078394],[90.40188065,24.22045664]]]}},
{"type":"Feature","properties":{"id":4,"base_m":0,"top_m":0.03,"color":"#CDEBB0"},"geometry":{"type":"Polygon","coordinates":[[[90.40395218,24.2208609],[90.40470371,24.22100756],[90.40463613,24.22129948],[90.4038846,24.22115282],[90.40395218,24.2208609]]]}}
]
}
