{
"type": "FeatureCollection",
"name": "pathways",
"crs": {"type":"name","properties":{"name":"urn:ogc:def:crs:OGC:1.3:CRS84"}},
"features": [
{"type":"Feature","properties":{"id":1,"base_m":0,"top_m":0.05,"thickness_m":2,"color":"#F4F1EA"},"geometry":{"type":"LineString","coordinates":[[90.40216905,24.22129881],[90.40214857,24.22138727]]}},
{"type":"Feature","properties":{"id":2,"base_m":0,"top_m":0.05,"thickness_m":2,"color":"#F4F1EA"},"geometry":{"type":"LineString","coordinates":[[90.4028146,24.22142479],[90.40279412,24.22151325]]}},
{"type":"Feature","properties":{"id":3,"base_m":0,"top_m":0.05,"thickness_m":2,"color":"#F4F1EA"},"geometry":{"type":"LineString","coordinates":[[90.40370102,24.22159778],[90.40368054,24.22168624]]}},
{"type":"Feature","properties":{"id":4,"base_m":0,"top_m":0.05,"thickness_m":2,"color":"#F4F1EA"},"geometry":{"type":"LineString","coordinates":[[90.40418277,24.22169179],[90.40416229,24.22178025]]}},
{"type":"Feature","properties":{"id":5,"base_m":0,"top_m":0.05,"thickness_m":2,"color":"#F4F1EA"},"geometry":{"type":"LineString","coordinates":[[90.40222686,24.22131009],[90.40224734,24.22122163]]}},
{"type":"Feature","properties":{"id":6,"base_m":0,"top_m":0.05,"thickness_m":2,"color":"#F4F1EA"},"geometry":{"type":"LineString","coordinates":[[90.40286277,24.22143419],[90.40288325,24.22134573]]}},
{"type":"Feature","properties":{"id":7,"base_m":0,"top_m":0.05,"thickness_m":2,"color":"#F4F1EA"},"geometry":{"type":"LineString","coordinates":[[90.4037492,24.22160718],[90.40376968,24.22151872]]}},
{"type":"Feature","properties":{"id":8,"base_m":0,"top_m":0.05,"thickness_m":2,"color":"#F4F1EA"},"geometry":{"type":"LineString","coordinates":[[90.40427912,24.22171059],[90.4042996,24.22162213]]}},
{"type":"Feature","properties":{"id":9,"base_m":0,"top_m":0.05,"thickness_m":2,"color":"#F4F1EA"},"geometry":{"type":"LineString","coordinates":[[90.40315709,24.22212034],[90.4030222,24.22209401]]}},
{"type":"Feature","properties":{"id":10,"base_m":0,"top_m":0.05,"thickness_m":2,"color":"#F4F1EA"},"geometry":{"type":"LineString","coordinates":[[90.40315709,24.22212034],[90.40331125,24.22215042]]}},
{"type":"Feature","properties":{"id":11,"base_m":0,"top_m":0.05,"thickness_m":2,"color":"#F4F1EA"},"geometry":{"type":"LineString","coordinates":[[90.40343561,24.22091727],[90.40331999,24.22089471]]}},
{"type":"Feature","properties":{"id":12,"base_m":0,"top_m":0.05,"thickness_m":2,"color":"#F4F1EA"},"geometry":{"type":"LineString","coordinates":[[90.40343561,24.22091727],[90.4035705,24.22094359]]}},
{"type":"Feature","properties":{"id":13,"base_m":0,"top_m":0.05,"thickness_m":2,"color":"#F4F1EA"},"geometry":{"type":"LineString","coordinates":[[90.40179329,24.22122548],[90.4017851,24.22126086]]}},
{"type":"Feature","properties":{"id":14,"base_m":0,"top_m":0.05,"thickness_m":2,"color":"#F4F1EA"},"geometry":{"type":"LineString","coordinates":[[90.40179329,24.22122548],[90.40180558,24.2211724]]}},
{"type":"Feature","properties":{"id":15,"base_m":0,"top_m":0.05,"thickness_m":2,"color":"#F4F1EA"},"geometry":{"type":"LineString","coordinates":[[90.40447182,24.2217482],[90.40445953,24.22180128]]}}
]
}
