{
"type": "FeatureCollection",
"name": "roads",
"crs": {"type":"name","properties":{"name":"urn:ogc:def:crs:OGC:1.3:CRS84"}},
"features": [
{"type":"Feature","properties":{"id":1,"name":"Main Road","base_m":0,"top_m":0.06,"thickness_m":6,"color":"#FFFFFF"},"geometry":{"type":"LineString","coordinates":[[90.40170657,24.22120855],[90.40179329,24.22122548],[90.40216905,24.22129881],[90.40222686,24.22131009],[90.4028146,24.22142479],[90.40286277,24.22143419],[90.40329635,24.2215188],[90.40370102,24.22159778],[90.4037492,24.22160718],[90.40418277,24.22169179],[90.40427912,24.22171059],[90.40447182,24.2217482],[90.4045489,24.22176324]]}},
{"type":"Feature","properties":{"id":2,"name":"Cross Road","base_m":0,"top_m":0.06,"thickness_m":5,"color":"#FFFFFF"},"geometry":{"type":"LineString","coordinates":[[90.40346019,24.22081112],[90.40343561,24.22091727],[90.40329635,24.2215188],[90.40315709,24.22212034],[90.40313251,24.22222649]]}}
]
}
