{
"type": "FeatureCollection",
"name": "shops",
"crs": {"type":"name","properties":{"name":"urn:ogc:def:crs:OGC:1.3:CRS84"}},
"features": [
{"type":"Feature","properties":{"id":"L02-01","name":"Production Hall 201","class":"production","room_number":"201"},"geometry":{"type":"Polygon","coordinates":[[[90.40264324,24.22117414],[90.40271972,24.22118907],[90.40274101,24.22109837],[90.40266452,24.22108344],[90.40264324,24.22117414]]]}},
{"type":"Feature","properties":{"id":"L02-02","name":"Production Hall 202","class":"production","room_number":"202"},"geometry":{"type":"Polygon","coordinates":[[[90.40261577,24.22129123],[90.40269225,24.22130615],[90.40271353,24.22121545],[90.40263705,24.22120053],[90.40261577,24.22129123]]]}},
{"type":"Feature","properties":{"id":"L02-03","name":"Production Hall 203","class":"production","room_number":"203"},"geometry":{"type":"Polygon","coordinates":[[[90.40271972,24.22118907],[90.4027962,24.22120399],[90.40281749,24.22111329],[90.40274101,24.22109837],[90.40271972,24.22118907]]]}},
{"type":"Feature","properties":{"id":"L02-04","name":"Production Hall 204","class":"production","room_number":"204"},"geometry":{"type":"Polygon","coordinates":[[[90.40269225,24.22130615],[90.40276873,24.22132108],[90.40279001,24.22123038],[90.40271353,24.22121545],[90.40269225,24.22130615]]]}},
{"type":"Feature","properties":{"id":"L02-05","name":"Production Hall 205","class":"production","room_number":"205"},"geometry":{"type":"Polygon","coordinates":[[[90.4027962,24.22120399],[90.40287268,24.22121892],[90.40289397,24.22112822],[90.40281749,24.22111329],[90.4027962,24.22120399]]]}},
{"type":"Feature","properties":{"id":"L02-06","name":"Production Hall 206","class":"production","room_number":"206"},"geometry":{"type":"Polygon","coordinates":[[[90.40276873,24.22132108],[90.40284521,24.22133601],[90.40286649,24.2212453],[90.40279001,24.22123038],[90.40276873,24.22132108]]]}},
{"type":"Feature","properties":{"id":"L02-07","name":"Store","class":"store","room_number":"207"},"geometry":{"type":"Polygon","coordinates":[[[90.4028797,24.22118902],[90.40295618,24.22120395],[90.40297045,24.22114314],[90.40289397,24.22112822],[90.4028797,24.22118902]]]}},
{"type":"Feature","properties":{"id":"L02-08","name":"Production Hall 208","class":"production","room_number":"208"},"geometry":{"type":"Polygon","coordinates":[[[90.40284521,24.22133601],[90.40292169,24.22135093],[90.40294298,24.22126023],[90.40286649,24.2212453],[90.40284521,24.22133601]]]}},
{"type":"Feature","properties":{"id":"L02-09","name":"Production Hall 209","class":"production","room_number":"209"},"geometry":{"type":"Polygon","coordinates":[[[90.40294917,24.22123385],[90.40302565,24.22124877],[90.40304693,24.22115807],[90.40297045,24.22114314],[90.40294917,24.22123385]]]}},
{"type":"Feature","properties":{"id":"L02-10","name":"Production Hall 210","class":"production","room_number":"210"},"geometry":{"type":"Polygon","coordinates":[[[90.40292169,24.22135093],[90.40299817,24.22136586],[90.40301946,24.22127516],[90.40294298,24.22126023],[90.40292169,24.22135093]]]}},
{"type":"Feature","properties":{"id":"L02-11","name":"Production Hall 211","class":"production","room_number":"211"},"geometry":{"type":"Polygon","coordinates":[[[90.40302565,24.22124877],[90.40310213,24.2212637],[90.40312341,24.221173],[90.40304693,24.22115807],[90.40302565,24.22124877]]]}},
{"type":"Feature","properties":{"id":"L02-12","name":"Production Hall 212","class":"production","room_number":"212"},"geometry":{"type":"Polygon","coordinates":[[[90.40299817,24.22136586],[90.40307465,24.22138078],[90.40309594,24.22129008],[90.40301946,24.22127516],[90.40299817,24.22136586]]]}},
{"type":"Feature","properties":{"id":"L02-13","name":"Washroom","class":"toilet","room_number":"213"},"geometry":{"type":"Polygon","coordinates":[[[90.40310213,24.2212637],[90.40317861,24.22127862],[90.40319989,24.22118792],[90.40312341,24.221173],[90.40310213,24.2212637]]]}},
{"type":"Feature","properties":{"id":"L02-14","name":"Production Hall 214","class":"production","room_number":"214"},"geometry":{"type":"Polygon","coordinates":[[[90.40307465,24.22138078],[90.40315114,24.22139571],[90.40317242,24.22130501],[90.40309594,24.22129008],[90.40307465,24.22138078]]]}}
]
}
