{
"type": "FeatureCollection",
"name": "doors",
"crs": {"type":"name","properties":{"name":"urn:ogc:def:crs:OGC:1.3:CRS84"}},
"features": [
{"type":"Feature","properties":{"id":"L02-D01","room":"L02-01","thickness_m":0.12},"geometry":{"type":"LineString","coordinates":[[90.38475013,23.74022535],[90.38474054,23.74022342]]}},
{"type":"Feature","properties":{"id":"L02-D02","room":"L02-02","thickness_m":0.12},"geometry":{"type":"LineString","coordinates":[[90.38471144,23.74021756],[90.38470185,23.74021563]]}},
{"type":"Feature","properties":{"id":"L02-D03","room":"L02-03","thickness_m":0.12},"geometry":{"type":"LineString","coordinates":[[90.38467276,23.74020977],[90.38466316,23.74020784]]}},
{"type":"Feature","properties":{"id":"L02-D04","room":"L02-04","thickness_m":0.12},"geometry":{"type":"LineString","coordinates":[[90.38463407,23.74020198],[90.38462447,23.74020005]]}},
{"type":"Feature","properties":{"id":"L02-D05","room":"L02-05","thickness_m":0.12},"geometry":{"type":"LineString","coordinates":[[90.38476046,23.7401998],[90.38475086,23.74019787]]}},
{"type":"Feature","properties":{"id":"L02-D06","room":"L02-06","thickness_m":0.12},"geometry":{"type":"LineString","coordinates":[[90.38468308,23.74018423],[90.38467348,23.74018229]]}},
{"type":"Feature","properties":{"id":"L02-D07","room":"L02-06","thickness_m":0.12},"geometry":{"type":"LineString","coordinates":[[90.38448164,23.74014368],[90.38447205,23.74014175]]}},
{"type":"Feature","properties":{"id":"L02-D08","room":"L02-07","thickness_m":0.1},"geometry":{"type":"LineString","coordinates":[[90.38456886,23.74022017],[90.38455926,23.74021824]]}},
{"type":"Feature","properties":{"id":"L02-D09","room":"L02-08","thickness_m":0.12},"geometry":{"type":"LineString","coordinates":[[90.384518,23.74017862],[90.3845084,23.74017669]]}},
{"type":"Feature","properties":{"id":"L02-D10","room":"L02-09","thickness_m":0.12},"geometry":{"type":"LineString","coordinates":[[90.38447931,23.74017084],[90.38446971,23.7401689]]}}
]
}
