{
"type": "FeatureCollection",
"name": "furniture",
"crs": {"type":"name","properties":{"name":"urn:ogc:def:crs:OGC:1.3:CRS84"}},
"features": [
{"type":"Feature","properties":{"id":"L02-F001","kind":"shelf","room":"L02-01"},"geometry":{"type":"Polygon","coordinates":[[[90.38475822,23.74024263],[90.38474655,23.74024028],[90.38474549,23.74024467],[90.38475716,23.74024702],[90.38475822,23.74024263]]]}},
{"type":"Feature","properties":{"id":"L02-F002","kind":"shelf","room":"L02-01"},"geometry":{"type":"Polygon","coordinates":[[[90.38473695,23.74023835],[90.38472528,23.740236],[90.38472423,23.74024039],[90.3847359,23.74024274],[90.38473695,23.74023835]]]}},
{"type":"Feature","properties":{"id":"L02-F003","kind":"shelf","room":"L02-01"},"geometry":{"type":"Polygon","coordinates":[[[90.38475484,23.74025668],[90.38474317,23.74025433],[90.38474212,23.74025872],[90.38475379,23.74026107],[90.38475484,23.74025668]]]}},
{"type":"Feature","properties":{"id":"L02-F004","kind":"shelf","room":"L02-01"},"geometry":{"type":"Polygon","coordinates":[[[90.38473358,23.7402524],[90.38472191,23.74025005],[90.38472085,23.74025444],[90.38473252,23.74025679],[90.38473358,23.7402524]]]}},
{"type":"Feature","properties":{"id":"L02-F005","kind":"shelf","room":"L02-01"},"geometry":{"type":"Polygon","coordinates":[[[90.38475147,23.74027073],[90.3847398,23.74026839],[90.38473874,23.74027278],[90.38475041,23.74027513],[90.38475147,23.74027073]]]}},
{"type":"Feature","properties":{"id":"L02-F006","kind":"shelf","room":"L02-01"},"geometry":{"type":"Polygon","coordinates":[[[90.3847302,23.74026645],[90.38471853,23.74026411],[90.38471748,23.7402685],[90.38472915,23.74027085],[90.3847302,23.74026645]]]}},
{"type":"Feature","properties":{"id":"L02-F007","kind":"shelf","room":"L02-01"},"geometry":{"type":"Polygon","coordinates":[[[90.38474809,23.74028479],[90.38473642,23.74028244],[90.38473537,23.74028683],[90.38474703,23.74028918],[90.38474809,23.74028479]]]}},
{"type":"Feature","properties":{"id":"L02-F008","kind":"shelf","room":"L02-01"},"geometry":{"type":"Polygon","coordinates":[[[90.38472683,23.74028051],[90.38471516,23.74027816],[90.3847141,23.74028255],[90.38472577,23.7402849],[90.38472683,23.74028051]]]}},
{"type":"Feature","properties":{"id":"L02-F009","kind":"shelf","room":"L02-01"},"geometry":{"type":"Polygon","coordinates":[[[90.38474471,23.74029884],[90.38473305,23.74029649],[90.38473199,23.74030088],[90.38474366,23.74030323],[90.38474471,23.74029884]]]}},
{"type":"Feature","properties":{"id":"L02-F010","kind":"shelf","room":"L02-01"},"geometry":{"type":"Polygon","coordinates":[[[90.38472345,23.74029456],[90.38471178,23.74029221],[90.38471073,23.7402966],[90.38472239,23.74029895],[90.38472345,23.74029456]]]}},
{"type":"Feature","properties":{"id":"L02-F011","kind":"desk","room":"L02-02"},"geometry":{"type":"Polygon","coordinates":[[[90.3847028,23.740264],[90.38468841,23.7402611],[90.38468681,23.74026778],[90.3847012,23.74027067],[90.3847028,23.740264]]]}},
{"type":"Feature","properties":{"id":"L02-F012","kind":"chair","room":"L02-02","height_m":1},"geometry":{"type":"Polygon","coordinates":[[[90.38469659,23.74027103],[90.38469083,23.74026987],[90.38468965,23.74027479],[90.38469541,23.74027595],[90.38469659,23.74027103]]]}},
{"type":"Feature","properties":{"id":"L02-F013","kind":"chair","room":"L02-02"},"geometry":{"type":"Polygon","coordinates":[[[90.38470383,23.74025849],[90.38469951,23.74025762],[90.38469856,23.74026158],[90.38470288,23.74026245],[90.38470383,23.74025849]]]}},
{"type":"Feature","properties":{"id":"L02-F014","kind":"chair","room":"L02-02"},"geometry":{"type":"Polygon","coordinates":[[[90.38469433,23.74025658],[90.38469001,23.74025571],[90.38468906,23.74025966],[90.38469338,23.74026053],[90.38469433,23.74025658]]]}},
{"type":"Feature","properties":{"id":"L02-F015","kind":"cabinet","room":"L02-02"},"geometry":{"type":"Polygon","coordinates":[[[90.38470497,23.74029964],[90.38469141,23.74029691],[90.38469052,23.7403006],[90.38470408,23.74030333],[90.38470497,23.74029964]]]}},
{"type":"Feature","properties":{"id":"L02-F016","kind":"plant","room":"L02-02"},"geometry":{"type":"Polygon","coordinates":[[[90.38467532,23.74029275],[90.38467081,23.74029185],[90.38466981,23.74029597],[90.38467432,23.74029688],[90.38467532,23.74029275]]]}},
{"type":"Feature","properties":{"id":"L02-F017","kind":"desk","room":"L02-03"},"geometry":{"type":"Polygon","coordinates":[[[90.38466412,23.74025621],[90.38464972,23.74025331],[90.38464812,23.74025999],[90.38466251,23.74026289],[90.38466412,23.74025621]]]}},
{"type":"Feature","properties":{"id":"L02-F018","kind":"chair","room":"L02-03","height_m":1},"geometry":{"type":"Polygon","coordinates":[[[90.3846579,23.74026325],[90.38465214,23.74026209],[90.38465096,23.74026701],[90.38465672,23.74026816],[90.3846579,23.74026325]]]}},
{"type":"Feature","properties":{"id":"L02-F019","kind":"chair","room":"L02-03"},"geometry":{"type":"Polygon","coordinates":[[[90.38466514,23.74025071],[90.38466082,23.74024984],[90.38465987,23.74025379],[90.38466419,23.74025466],[90.38466514,23.74025071]]]}},
{"type":"Feature","properties":{"id":"L02-F020","kind":"chair","room":"L02-03"},"geometry":{"type":"Polygon","coordinates":[[[90.38465564,23.74024879],[90.38465132,23.74024793],[90.38465037,23.74025188],[90.38465469,23.74025275],[90.38465564,23.74024879]]]}},
{"type":"Feature","properties":{"id":"L02-F021","kind":"cabinet","room":"L02-03"},"geometry":{"type":"Polygon","coordinates":[[[90.38466628,23.74029186],[90.38465272,23.74028913],[90.38465183,23.74029282],[90.38466539,23.74029554],[90.38466628,23.74029186]]]}},
{"type":"Feature","properties":{"id":"L02-F022","kind":"plant","room":"L02-03"},"geometry":{"type":"Polygon","coordinates":[[[90.38463663,23.74028497],[90.38463212,23.74028406],[90.38463112,23.74028819],[90.38463563,23.74028909],[90.38463663,23.74028497]]]}},
{"type":"Feature","properties":{"id":"L02-F023","kind":"desk","room":"L02-04"},"geometry":{"type":"Polygon","coordinates":[[[90.38462543,23.74024842],[90.38461103,23.74024553],[90.38460943,23.7402522],[90.38462382,23.7402551],[90.38462543,23.74024842]]]}},
{"type":"Feature","properties":{"id":"L02-F024","kind":"chair","room":"L02-04","height_m":1},"geometry":{"type":"Polygon","coordinates":[[[90.38461921,23.74025546],[90.38461345,23.7402543],[90.38461227,23.74025922],[90.38461803,23.74026038],[90.38461921,23.74025546]]]}},
{"type":"Feature","properties":{"id":"L02-F025","kind":"chair","room":"L02-04"},"geometry":{"type":"Polygon","coordinates":[[[90.38462645,23.74024292],[90.38462213,23.74024205],[90.38462118,23.740246],[90.3846255,23.74024687],[90.38462645,23.74024292]]]}},
{"type":"Feature","properties":{"id":"L02-F026","kind":"chair","room":"L02-04"},"geometry":{"type":"Polygon","coordinates":[[[90.38461695,23.74024101],[90.38461263,23.74024014],[90.38461168,23.74024409],[90.384616,23.74024496],[90.38461695,23.74024101]]]}},
{"type":"Feature","properties":{"id":"L02-F027","kind":"cabinet","room":"L02-04"},"geometry":{"type":"Polygon","coordinates":[[[90.38462759,23.74028407],[90.38461403,23.74028134],[90.38461314,23.74028503],[90.3846267,23.74028776],[90.38462759,23.74028407]]]}},
{"type":"Feature","properties":{"id":"L02-F028","kind":"plant","room":"L02-04"},"geometry":{"type":"Polygon","coordinates":[[[90.38459794,23.74027718],[90.38459343,23.74027627],[90.38459243,23.7402804],[90.38459694,23.74028131],[90.38459794,23.74027718]]]}},
{"type":"Feature","properties":{"id":"L02-F029","kind":"table","room":"L02-05","color":"#d9c3a0"},"geometry":{"type":"Polygon","coordinates":[[[90.38475551,23.74012168],[90.38474448,23.74011946],[90.38473182,23.74017216],[90.38474285,23.74017438],[90.38475551,23.74012168]]]}},
{"type":"Feature","properties":{"id":"L02-F030","kind":"chair","room":"L02-05"},"geometry":{"type":"Polygon","coordinates":[[[90.38474979,23.7401698],[90.38474556,23.74016895],[90.38474464,23.74017282],[90.38474886,23.74017367],[90.38474979,23.7401698]]]}},
{"type":"Feature","properties":{"id":"L02-F031","kind":"chair","room":"L02-05"},"geometry":{"type":"Polygon","coordinates":[[[90.38473184,23.74016619],[90.38472762,23.74016534],[90.38472669,23.74016921],[90.38473091,23.74017006],[90.38473184,23.74016619]]]}},
{"type":"Feature","properties":{"id":"L02-F032","kind":"chair","room":"L02-05"},"geometry":{"type":"Polygon","coordinates":[[[90.38475159,23.74016227],[90.38474737,23.74016142],[90.38474644,23.74016529],[90.38475067,23.74016614],[90.38475159,23.74016227]]]}},
{"type":"Feature","properties":{"id":"L02-F033","kind":"chair","room":"L02-05"},"geometry":{"type":"Polygon","coordinates":[[[90.38473365,23.74015866],[90.38472943,23.74015781],[90.3847285,23.74016168],[90.38473272,23.74016253],[90.38473365,23.74015866]]]}},
{"type":"Feature","properties":{"id":"L02-F034","kind":"chair","room":"L02-05"},"geometry":{"type":"Polygon","coordinates":[[[90.3847534,23.74015475],[90.38474918,23.7401539],[90.38474825,23.74015776],[90.38475247,23.74015861],[90.3847534,23.74015475]]]}},
{"type":"Feature","properties":{"id":"L02-F035","kind":"chair","room":"L02-05"},"geometry":{"type":"Polygon","coordinates":[[[90.38473546,23.74015113],[90.38473124,23.74015028],[90.38473031,23.74015415],[90.38473453,23.740155],[90.38473546,23.74015113]]]}},
{"type":"Feature","properties":{"id":"L02-F036","kind":"chair","room":"L02-05"},"geometry":{"type":"Polygon","coordinates":[[[90.38475521,23.74014722],[90.38475099,23.74014637],[90.38475006,23.74015023],[90.38475428,23.74015108],[90.38475521,23.74014722]]]}},
{"type":"Feature","properties":{"id":"L02-F037","kind":"chair","room":"L02-05"},"geometry":{"type":"Polygon","coordinates":[[[90.38473727,23.7401436],[90.38473305,23.74014276],[90.38473212,23.74014662],[90.38473634,23.74014747],[90.38473727,23.7401436]]]}},
{"type":"Feature","properties":{"id":"L02-F038","kind":"chair","room":"L02-05"},"geometry":{"type":"Polygon","coordinates":[[[90.38475702,23.74013969],[90.3847528,23.74013884],[90.38475187,23.7401427],[90.38475609,23.74014355],[90.38475702,23.74013969]]]}},
{"type":"Feature","properties":{"id":"L02-F039","kind":"chair","room":"L02-05"},"geometry":{"type":"Polygon","coordinates":[[[90.38473908,23.74013608],[90.38473485,23.74013523],[90.38473393,23.74013909],[90.38473815,23.74013994],[90.38473908,23.74013608]]]}},
{"type":"Feature","properties":{"id":"L02-F040","kind":"chair","room":"L02-05"},"geometry":{"type":"Polygon","coordinates":[[[90.38475883,23.74013216],[90.38475461,23.74013131],[90.38475368,23.74013517],[90.3847579,23.74013602],[90.38475883,23.74013216]]]}},
{"type":"Feature","properties":{"id":"L02-F041","kind":"chair","room":"L02-05"},"geometry":{"type":"Polygon","coordinates":[[[90.38474088,23.74012855],[90.38473666,23.7401277],[90.38473573,23.74013156],[90.38473996,23.74013241],[90.38474088,23.74012855]]]}},
{"type":"Feature","properties":{"id":"L02-F042","kind":"chair","room":"L02-05"},"geometry":{"type":"Polygon","coordinates":[[[90.38476064,23.74012463],[90.38475641,23.74012378],[90.38475549,23.74012765],[90.38475971,23.7401285],[90.38476064,23.74012463]]]}},
{"type":"Feature","properties":{"id":"L02-F043","kind":"chair","room":"L02-05"},"geometry":{"type":"Polygon","coordinates":[[[90.38474269,23.74012102],[90.38473847,23.74012017],[90.38473754,23.74012403],[90.38474176,23.74012488],[90.38474269,23.74012102]]]}},
{"type":"Feature","properties":{"id":"L02-F044","kind":"board","room":"L02-05","base_m":0.8,"height_m":1.1},"geometry":{"type":"Polygon","coordinates":[[[90.38476208,23.74011213],[90.38474289,23.74010827],[90.38474272,23.74010897],[90.38476191,23.74011284],[90.38476208,23.74011213]]]}},
{"type":"Feature","properties":{"id":"L02-F045","kind":"plant","room":"L02-05"},"geometry":{"type":"Polygon","coordinates":[[[90.3847885,23.74011865],[90.38478418,23.74011778],[90.38478323,23.74012173],[90.38478755,23.7401226],[90.3847885,23.74011865]]]}},
{"type":"Feature","properties":{"id":"L02-F046","kind":"desk","room":"L02-06"},"geometry":{"type":"Polygon","coordinates":[[[90.38469044,23.74016195],[90.3846772,23.74015929],[90.38467576,23.74016526],[90.384689,23.74016792],[90.38469044,23.74016195]]]}},
{"type":"Feature","properties":{"id":"L02-F047","kind":"desk","room":"L02-06"},"geometry":{"type":"Polygon","coordinates":[[[90.38467701,23.74015925],[90.38466376,23.74015658],[90.38466233,23.74016255],[90.38467557,23.74016522],[90.38467701,23.74015925]]]}},
{"type":"Feature","properties":{"id":"L02-F048","kind":"desk","room":"L02-06"},"geometry":{"type":"Polygon","coordinates":[[[90.38469192,23.7401558],[90.38467867,23.74015314],[90.38467724,23.74015911],[90.38469048,23.74016177],[90.38469192,23.7401558]]]}},
{"type":"Feature","properties":{"id":"L02-F049","kind":"desk","room":"L02-06"},"geometry":{"type":"Polygon","coordinates":[[[90.38467848,23.7401531],[90.38466524,23.74015043],[90.38466381,23.74015641],[90.38467705,23.74015907],[90.38467848,23.7401531]]]}},
{"type":"Feature","properties":{"id":"L02-F050","kind":"chair","room":"L02-06"},"geometry":{"type":"Polygon","coordinates":[[[90.38468853,23.74014978],[90.38468431,23.74014893],[90.38468338,23.7401528],[90.38468761,23.74015365],[90.38468853,23.74014978]]]}},
{"type":"Feature","properties":{"id":"L02-F051","kind":"chair","room":"L02-06"},"geometry":{"type":"Polygon","coordinates":[[[90.38467071,23.74016535],[90.38466649,23.7401645],[90.38466556,23.74016836],[90.38466978,23.74016921],[90.38467071,23.74016535]]]}},
{"type":"Feature","properties":{"id":"L02-F052","kind":"chair","room":"L02-06"},"geometry":{"type":"Polygon","coordinates":[[[90.3846751,23.74014708],[90.38467088,23.74014623],[90.38466995,23.74015009],[90.38467417,23.74015094],[90.3846751,23.74014708]]]}},
{"type":"Feature","properties":{"id":"L02-F053","kind":"desk","room":"L02-06"},"geometry":{"type":"Polygon","coordinates":[[[90.38469719,23.74013384],[90.38468395,23.74013118],[90.38468251,23.74013715],[90.38469576,23.74013982],[90.38469719,23.74013384]]]}},
{"type":"Feature","properties":{"id":"L02-F054","kind":"desk","room":"L02-06"},"geometry":{"type":"Polygon","coordinates":[[[90.38468376,23.74013114],[90.38467052,23.74012847],[90.38466908,23.74013445],[90.38468232,23.74013711],[90.38468376,23.74013114]]]}},
{"type":"Feature","properties":{"id":"L02-F055","kind":"desk","room":"L02-06"},"geometry":{"type":"Polygon","coordinates":[[[90.38469867,23.7401277],[90.38468543,23.74012503],[90.38468399,23.740131],[90.38469723,23.74013367],[90.38469867,23.7401277]]]}},
{"type":"Feature","properties":{"id":"L02-F056","kind":"desk","room":"L02-06"},"geometry":{"type":"Polygon","coordinates":[[[90.38468523,23.74012499],[90.38467199,23.74012233],[90.38467056,23.7401283],[90.3846838,23.74013096],[90.38468523,23.74012499]]]}},
{"type":"Feature","properties":{"id":"L02-F057","kind":"chair","room":"L02-06"},"geometry":{"type":"Polygon","coordinates":[[[90.3846909,23.74013994],[90.38468668,23.74013909],[90.38468575,23.74014296],[90.38468997,23.74014381],[90.3846909,23.74013994]]]}},
{"type":"Feature","properties":{"id":"L02-F058","kind":"chair","room":"L02-06"},"geometry":{"type":"Polygon","coordinates":[[[90.38469529,23.74012167],[90.38469106,23.74012082],[90.38469014,23.74012469],[90.38469436,23.74012554],[90.38469529,23.74012167]]]}},
{"type":"Feature","properties":{"id":"L02-F059","kind":"chair","room":"L02-06"},"geometry":{"type":"Polygon","coordinates":[[[90.38467746,23.74013724],[90.38467324,23.74013639],[90.38467231,23.74014025],[90.38467654,23.7401411],[90.38467746,23.74013724]]]}},
{"type":"Feature","properties":{"id":"L02-F060","kind":"chair","room":"L02-06"},"geometry":{"type":"Polygon","coordinates":[[[90.38468185,23.74011897],[90.38467763,23.74011812],[90.3846767,23.74012199],[90.38468092,23.74012283],[90.38468185,23.74011897]]]}},
{"type":"Feature","properties":{"id":"L02-F061","kind":"desk","room":"L02-06"},"geometry":{"type":"Polygon","coordinates":[[[90.3846559,23.740155],[90.38464265,23.74015233],[90.38464122,23.74015831],[90.38465446,23.74016097],[90.3846559,23.740155]]]}},
{"type":"Feature","properties":{"id":"L02-F062","kind":"desk","room":"L02-06"},"geometry":{"type":"Polygon","coordinates":[[[90.38464246,23.74015229],[90.38462922,23.74014963],[90.38462779,23.7401556],[90.38464103,23.74015827],[90.38464246,23.74015229]]]}},
{"type":"Feature","properties":{"id":"L02-F063","kind":"desk","room":"L02-06"},"geometry":{"type":"Polygon","coordinates":[[[90.38465737,23.74014885],[90.38464413,23.74014618],[90.3846427,23.74015216],[90.38465594,23.74015482],[90.38465737,23.74014885]]]}},
{"type":"Feature","properties":{"id":"L02-F064","kind":"desk","room":"L02-06"},"geometry":{"type":"Polygon","coordinates":[[[90.38464394,23.74014615],[90.3846307,23.74014348],[90.38462926,23.74014945],[90.3846425,23.74015212],[90.38464394,23.74014615]]]}},
{"type":"Feature","properties":{"id":"L02-F065","kind":"chair","room":"L02-06"},"geometry":{"type":"Polygon","coordinates":[[[90.3846496,23.7401611],[90.38464538,23.74016025],[90.38464445,23.74016411],[90.38464867,23.74016496],[90.3846496,23.7401611]]]}},
{"type":"Feature","properties":{"id":"L02-F066","kind":"chair","room":"L02-06"},"geometry":{"type":"Polygon","coordinates":[[[90.38465399,23.74014283],[90.38464977,23.74014198],[90.38464884,23.74014584],[90.38465306,23.74014669],[90.38465399,23.74014283]]]}},
{"type":"Feature","properties":{"id":"L02-F067","kind":"chair","room":"L02-06"},"geometry":{"type":"Polygon","coordinates":[[[90.38463617,23.74015839],[90.38463195,23.74015754],[90.38463102,23.74016141],[90.38463524,23.74016226],[90.38463617,23.74015839]]]}},
{"type":"Feature","properties":{"id":"L02-F068","kind":"chair","room":"L02-06"},"geometry":{"type":"Polygon","coordinates":[[[90.38464056,23.74014012],[90.38463634,23.74013927],[90.38463541,23.74014314],[90.38463963,23.74014399],[90.38464056,23.74014012]]]}},
{"type":"Feature","properties":{"id":"L02-F069","kind":"desk","room":"L02-06"},"geometry":{"type":"Polygon","coordinates":[[[90.38466265,23.74012689],[90.38464941,23.74012423],[90.38464797,23.7401302],[90.38466121,23.74013286],[90.38466265,23.74012689]]]}},
{"type":"Feature","properties":{"id":"L02-F070","kind":"desk","room":"L02-06"},"geometry":{"type":"Polygon","coordinates":[[[90.38464921,23.74012419],[90.38463597,23.74012152],[90.38463454,23.74012749],[90.38464778,23.74013016],[90.38464921,23.74012419]]]}},
{"type":"Feature","properties":{"id":"L02-F071","kind":"desk","room":"L02-06"},"geometry":{"type":"Polygon","coordinates":[[[90.38466412,23.74012074],[90.38465088,23.74011808],[90.38464945,23.74012405],[90.38466269,23.74012672],[90.38466412,23.74012074]]]}},
{"type":"Feature","properties":{"id":"L02-F072","kind":"desk","room":"L02-06"},"geometry":{"type":"Polygon","coordinates":[[[90.38465069,23.74011804],[90.38463745,23.74011537],[90.38463601,23.74012135],[90.38464926,23.74012401],[90.38465069,23.74011804]]]}},
{"type":"Feature","properties":{"id":"L02-F073","kind":"chair","room":"L02-06"},"geometry":{"type":"Polygon","coordinates":[[[90.38465635,23.74013299],[90.38465213,23.74013214],[90.3846512,23.74013601],[90.38465543,23.74013686],[90.38465635,23.74013299]]]}},
{"type":"Feature","properties":{"id":"L02-F074","kind":"chair","room":"L02-06"},"geometry":{"type":"Polygon","coordinates":[[[90.38466074,23.74011472],[90.38465652,23.74011387],[90.38465559,23.74011774],[90.38465981,23.74011859],[90.38466074,23.74011472]]]}},
{"type":"Feature","properties":{"id":"L02-F075","kind":"chair","room":"L02-06"},"geometry":{"type":"Polygon","coordinates":[[[90.38464292,23.74013029],[90.3846387,23.74012944],[90.38463777,23.7401333],[90.38464199,23.74013415],[90.38464292,23.74013029]]]}},
{"type":"Feature","properties":{"id":"L02-F076","kind":"chair","room":"L02-06"},"geometry":{"type":"Polygon","coordinates":[[[90.38464731,23.74011202],[90.38464309,23.74011117],[90.38464216,23.74011503],[90.38464638,23.74011588],[90.38464731,23.74011202]]]}},
{"type":"Feature","properties":{"id":"L02-F077","kind":"desk","room":"L02-06"},"geometry":{"type":"Polygon","coordinates":[[[90.38462135,23.74014805],[90.38460811,23.74014538],[90.38460668,23.74015135],[90.38461992,23.74015402],[90.38462135,23.74014805]]]}},
{"type":"Feature","properties":{"id":"L02-F078","kind":"desk","room":"L02-06"},"geometry":{"type":"Polygon","coordinates":[[[90.38460792,23.74014534],[90.38459468,23.74014268],[90.38459324,23.74014865],[90.38460648,23.74015131],[90.38460792,23.74014534]]]}},
{"type":"Feature","properties":{"id":"L02-F079","kind":"desk","room":"L02-06"},"geometry":{"type":"Polygon","coordinates":[[[90.38462283,23.7401419],[90.38460959,23.74013923],[90.38460815,23.7401452],[90.3846214,23.74014787],[90.38462283,23.7401419]]]}},
{"type":"Feature","properties":{"id":"L02-F080","kind":"desk","room":"L02-06"},"geometry":{"type":"Polygon","coordinates":[[[90.3846094,23.74013919],[90.38459615,23.74013653],[90.38459472,23.7401425],[90.38460796,23.74014517],[90.3846094,23.74013919]]]}},
{"type":"Feature","properties":{"id":"L02-F081","kind":"chair","room":"L02-06"},"geometry":{"type":"Polygon","coordinates":[[[90.38461506,23.74015414],[90.38461084,23.7401533],[90.38460991,23.74015716],[90.38461413,23.74015801],[90.38461506,23.74015414]]]}},
{"type":"Feature","properties":{"id":"L02-F082","kind":"chair","room":"L02-06"},"geometry":{"type":"Polygon","coordinates":[[[90.38461945,23.74013588],[90.38461523,23.74013503],[90.3846143,23.74013889],[90.38461852,23.74013974],[90.38461945,23.74013588]]]}},
{"type":"Feature","properties":{"id":"L02-F083","kind":"chair","room":"L02-06"},"geometry":{"type":"Polygon","coordinates":[[[90.38460163,23.74015144],[90.3845974,23.74015059],[90.38459648,23.74015446],[90.3846007,23.74015531],[90.38460163,23.74015144]]]}},
{"type":"Feature","properties":{"id":"L02-F084","kind":"chair","room":"L02-06"},"geometry":{"type":"Polygon","coordinates":[[[90.38460601,23.74013317],[90.38460179,23.74013232],[90.38460086,23.74013619],[90.38460509,23.74013704],[90.38460601,23.74013317]]]}},
{"type":"Feature","properties":{"id":"L02-F085","kind":"desk","room":"L02-06"},"geometry":{"type":"Polygon","coordinates":[[[90.3846281,23.74011994],[90.38461486,23.74011727],[90.38461343,23.74012325],[90.38462667,23.74012591],[90.3846281,23.74011994]]]}},
{"type":"Feature","properties":{"id":"L02-F086","kind":"desk","room":"L02-06"},"geometry":{"type":"Polygon","coordinates":[[[90.38461467,23.74011723],[90.38460143,23.74011457],[90.38459999,23.74012054],[90.38461324,23.74012321],[90.38461467,23.74011723]]]}},
{"type":"Feature","properties":{"id":"L02-F087","kind":"desk","room":"L02-06"},"geometry":{"type":"Polygon","coordinates":[[[90.38462958,23.74011379],[90.38461634,23.74011112],[90.3846149,23.7401171],[90.38462815,23.74011976],[90.38462958,23.74011379]]]}},
{"type":"Feature","properties":{"id":"L02-F088","kind":"desk","room":"L02-06"},"geometry":{"type":"Polygon","coordinates":[[[90.38461615,23.74011109],[90.38460291,23.74010842],[90.38460147,23.74011439],[90.38461471,23.74011706],[90.38461615,23.74011109]]]}},
{"type":"Feature","properties":{"id":"L02-F089","kind":"chair","room":"L02-06"},"geometry":{"type":"Polygon","coordinates":[[[90.38462181,23.74012604],[90.38461759,23.74012519],[90.38461666,23.74012905],[90.38462088,23.7401299],[90.38462181,23.74012604]]]}},
{"type":"Feature","properties":{"id":"L02-F090","kind":"chair","room":"L02-06"},"geometry":{"type":"Polygon","coordinates":[[[90.3846262,23.74010777],[90.38462198,23.74010692],[90.38462105,23.74011078],[90.38462527,23.74011163],[90.3846262,23.74010777]]]}},
{"type":"Feature","properties":{"id":"L02-F091","kind":"chair","room":"L02-06"},"geometry":{"type":"Polygon","coordinates":[[[90.38460838,23.74012333],[90.38460416,23.74012248],[90.38460323,23.74012635],[90.38460745,23.7401272],[90.38460838,23.74012333]]]}},
{"type":"Feature","properties":{"id":"L02-F092","kind":"chair","room":"L02-06"},"geometry":{"type":"Polygon","coordinates":[[[90.38461277,23.74010506],[90.38460854,23.74010422],[90.38460762,23.74010808],[90.38461184,23.74010893],[90.38461277,23.74010506]]]}},
{"type":"Feature","properties":{"id":"L02-F093","kind":"desk","room":"L02-06"},"geometry":{"type":"Polygon","coordinates":[[[90.38458681,23.74014109],[90.38457357,23.74013843],[90.38457213,23.7401444],[90.38458538,23.74014707],[90.38458681,23.74014109]]]}},
{"type":"Feature","properties":{"id":"L02-F094","kind":"desk","room":"L02-06"},"geometry":{"type":"Polygon","coordinates":[[[90.38457338,23.74013839],[90.38456013,23.74013572],[90.3845587,23.7401417],[90.38457194,23.74014436],[90.38457338,23.74013839]]]}},
{"type":"Feature","properties":{"id":"L02-F095","kind":"desk","room":"L02-06"},"geometry":{"type":"Polygon","coordinates":[[[90.38458829,23.74013494],[90.38457505,23.74013228],[90.38457361,23.74013825],[90.38458685,23.74014092],[90.38458829,23.74013494]]]}},
{"type":"Feature","properties":{"id":"L02-F096","kind":"desk","room":"L02-06"},"geometry":{"type":"Polygon","coordinates":[[[90.38457485,23.74013224],[90.38456161,23.74012958],[90.38456018,23.74013555],[90.38457342,23.74013821],[90.38457485,23.74013224]]]}},
{"type":"Feature","properties":{"id":"L02-F097","kind":"chair","room":"L02-06"},"geometry":{"type":"Polygon","coordinates":[[[90.38458052,23.74014719],[90.38457629,23.74014634],[90.38457537,23.74015021],[90.38457959,23.74015106],[90.38458052,23.74014719]]]}},
{"type":"Feature","properties":{"id":"L02-F098","kind":"chair","room":"L02-06"},"geometry":{"type":"Polygon","coordinates":[[[90.3845849,23.74012892],[90.38458068,23.74012807],[90.38457975,23.74013194],[90.38458398,23.74013279],[90.3845849,23.74012892]]]}},
{"type":"Feature","properties":{"id":"L02-F099","kind":"chair","room":"L02-06"},"geometry":{"type":"Polygon","coordinates":[[[90.38456708,23.74014449],[90.38456286,23.74014364],[90.38456193,23.7401475],[90.38456615,23.74014835],[90.38456708,23.74014449]]]}},
{"type":"Feature","properties":{"id":"L02-F100","kind":"chair","room":"L02-06"},"geometry":{"type":"Polygon","coordinates":[[[90.38457147,23.74012622],[90.38456725,23.74012537],[90.38456632,23.74012923],[90.38457054,23.74013008],[90.38457147,23.74012622]]]}},
{"type":"Feature","properties":{"id":"L02-F101","kind":"desk","room":"L02-06"},"geometry":{"type":"Polygon","coordinates":[[[90.38459356,23.74011299],[90.38458032,23.74011032],[90.38457888,23.74011629],[90.38459213,23.74011896],[90.38459356,23.74011299]]]}},
{"type":"Feature","properties":{"id":"L02-F102","kind":"desk","room":"L02-06"},"geometry":{"type":"Polygon","coordinates":[[[90.38458013,23.74011028],[90.38456689,23.74010762],[90.38456545,23.74011359],[90.38457869,23.74011625],[90.38458013,23.74011028]]]}},
{"type":"Feature","properties":{"id":"L02-F103","kind":"desk","room":"L02-06"},"geometry":{"type":"Polygon","coordinates":[[[90.38459504,23.74010684],[90.3845818,23.74010417],[90.38458036,23.74011014],[90.3845936,23.74011281],[90.38459504,23.74010684]]]}},
{"type":"Feature","properties":{"id":"L02-F104","kind":"desk","room":"L02-06"},"geometry":{"type":"Polygon","coordinates":[[[90.3845816,23.74010413],[90.38456836,23.74010147],[90.38456693,23.74010744],[90.38458017,23.74011011],[90.3845816,23.74010413]]]}},
{"type":"Feature","properties":{"id":"L02-F105","kind":"chair","room":"L02-06"},"geometry":{"type":"Polygon","coordinates":[[[90.38458727,23.74011909],[90.38458305,23.74011824],[90.38458212,23.7401221],[90.38458634,23.74012295],[90.38458727,23.74011909]]]}},
{"type":"Feature","properties":{"id":"L02-F106","kind":"chair","room":"L02-06"},"geometry":{"type":"Polygon","coordinates":[[[90.38459166,23.74010082],[90.38458743,23.74009997],[90.38458651,23.74010383],[90.38459073,23.74010468],[90.38459166,23.74010082]]]}},
{"type":"Feature","properties":{"id":"L02-F107","kind":"chair","room":"L02-06"},"geometry":{"type":"Polygon","coordinates":[[[90.38457383,23.74011638],[90.38456961,23.74011553],[90.38456868,23.7401194],[90.38457291,23.74012025],[90.38457383,23.74011638]]]}},
{"type":"Feature","properties":{"id":"L02-F108","kind":"chair","room":"L02-06"},"geometry":{"type":"Polygon","coordinates":[[[90.38457822,23.74009811],[90.384574,23.74009726],[90.38457307,23.74010113],[90.38457729,23.74010198],[90.38457822,23.74009811]]]}},
{"type":"Feature","properties":{"id":"L02-F109","kind":"desk","room":"L02-06"},"geometry":{"type":"Polygon","coordinates":[[[90.38455227,23.74013414],[90.38453902,23.74013147],[90.38453759,23.74013745],[90.38455083,23.74014011],[90.38455227,23.74013414]]]}},
{"type":"Feature","properties":{"id":"L02-F110","kind":"desk","room":"L02-06"},"geometry":{"type":"Polygon","coordinates":[[[90.38453883,23.74013144],[90.38452559,23.74012877],[90.38452416,23.74013474],[90.3845374,23.74013741],[90.38453883,23.74013144]]]}},
{"type":"Feature","properties":{"id":"L02-F111","kind":"desk","room":"L02-06"},"geometry":{"type":"Polygon","coordinates":[[[90.38455374,23.74012799],[90.3845405,23.74012533],[90.38453907,23.7401313],[90.38455231,23.74013396],[90.38455374,23.74012799]]]}},
{"type":"Feature","properties":{"id":"L02-F112","kind":"desk","room":"L02-06"},"geometry":{"type":"Polygon","coordinates":[[[90.38454031,23.74012529],[90.38452707,23.74012262],[90.38452563,23.7401286],[90.38453888,23.74013126],[90.38454031,23.74012529]]]}},
{"type":"Feature","properties":{"id":"L02-F113","kind":"chair","room":"L02-06"},"geometry":{"type":"Polygon","coordinates":[[[90.38454597,23.74014024],[90.38454175,23.74013939],[90.38454082,23.74014325],[90.38454504,23.7401441],[90.38454597,23.74014024]]]}},
{"type":"Feature","properties":{"id":"L02-F114","kind":"chair","room":"L02-06"},"geometry":{"type":"Polygon","coordinates":[[[90.38455036,23.74012197],[90.38454614,23.74012112],[90.38454521,23.74012499],[90.38454943,23.74012583],[90.38455036,23.74012197]]]}},
{"type":"Feature","properties":{"id":"L02-F115","kind":"chair","room":"L02-06"},"geometry":{"type":"Polygon","coordinates":[[[90.38453254,23.74013754],[90.38452832,23.74013669],[90.38452739,23.74014055],[90.38453161,23.7401414],[90.38453254,23.74013754]]]}},
{"type":"Feature","properties":{"id":"L02-F116","kind":"chair","room":"L02-06"},"geometry":{"type":"Polygon","coordinates":[[[90.38453693,23.74011927],[90.38453271,23.74011842],[90.38453178,23.74012228],[90.384536,23.74012313],[90.38453693,23.74011927]]]}},
{"type":"Feature","properties":{"id":"L02-F117","kind":"desk","room":"L02-06"},"geometry":{"type":"Polygon","coordinates":[[[90.38455902,23.74010603],[90.38454578,23.74010337],[90.38454434,23.74010934],[90.38455758,23.74011201],[90.38455902,23.74010603]]]}},
{"type":"Feature","properties":{"id":"L02-F118","kind":"desk","room":"L02-06"},"geometry":{"type":"Polygon","coordinates":[[[90.38454558,23.74010333],[90.38453234,23.74010066],[90.38453091,23.74010664],[90.38454415,23.7401093],[90.38454558,23.74010333]]]}},
{"type":"Feature","properties":{"id":"L02-F119","kind":"desk","room":"L02-06"},"geometry":{"type":"Polygon","coordinates":[[[90.38456049,23.74009988],[90.38454725,23.74009722],[90.38454582,23.74010319],[90.38455906,23.74010586],[90.38456049,23.74009988]]]}},
{"type":"Feature","properties":{"id":"L02-F120","kind":"desk","room":"L02-06"},"geometry":{"type":"Polygon","coordinates":[[[90.38454706,23.74009718],[90.38453382,23.74009452],[90.38453239,23.74010049],[90.38454563,23.74010315],[90.38454706,23.74009718]]]}},
{"type":"Feature","properties":{"id":"L02-F121","kind":"chair","room":"L02-06"},"geometry":{"type":"Polygon","coordinates":[[[90.38455272,23.74011213],[90.3845485,23.74011128],[90.38454757,23.74011515],[90.3845518,23.740116],[90.38455272,23.74011213]]]}},
{"type":"Feature","properties":{"id":"L02-F122","kind":"chair","room":"L02-06"},"geometry":{"type":"Polygon","coordinates":[[[90.38455711,23.74009386],[90.38455289,23.74009301],[90.38455196,23.74009688],[90.38455618,23.74009773],[90.38455711,23.74009386]]]}},
{"type":"Feature","properties":{"id":"L02-F123","kind":"chair","room":"L02-06"},"geometry":{"type":"Polygon","coordinates":[[[90.38453929,23.74010943],[90.38453507,23.74010858],[90.38453414,23.74011244],[90.38453836,23.74011329],[90.38453929,23.74010943]]]}},
{"type":"Feature","properties":{"id":"L02-F124","kind":"chair","room":"L02-06"},"geometry":{"type":"Polygon","coordinates":[[[90.38454368,23.74009116],[90.38453946,23.74009031],[90.38453853,23.74009417],[90.38454275,23.74009502],[90.38454368,23.74009116]]]}},
{"type":"Feature","properties":{"id":"L02-F125","kind":"desk","room":"L02-06"},"geometry":{"type":"Polygon","coordinates":[[[90.38451772,23.74012719],[90.38450448,23.74012452],[90.38450305,23.74013049],[90.38451629,23.74013316],[90.38451772,23.74012719]]]}},
{"type":"Feature","properties":{"id":"L02-F126","kind":"desk","room":"L02-06"},"geometry":{"type":"Polygon","coordinates":[[[90.38450429,23.74012448],[90.38449105,23.74012182],[90.38448961,23.74012779],[90.38450286,23.74013046],[90.38450429,23.74012448]]]}},
{"type":"Feature","properties":{"id":"L02-F127","kind":"desk","room":"L02-06"},"geometry":{"type":"Polygon","coordinates":[[[90.3845192,23.74012104],[90.38450596,23.74011837],[90.38450452,23.74012435],[90.38451777,23.74012701],[90.3845192,23.74012104]]]}},
{"type":"Feature","properties":{"id":"L02-F128","kind":"desk","room":"L02-06"},"geometry":{"type":"Polygon","coordinates":[[[90.38450577,23.74011834],[90.38449253,23.74011567],[90.38449109,23.74012164],[90.38450433,23.74012431],[90.38450577,23.74011834]]]}},
{"type":"Feature","properties":{"id":"L02-F129","kind":"chair","room":"L02-06"},"geometry":{"type":"Polygon","coordinates":[[[90.38451143,23.74013329],[90.38450721,23.74013244],[90.38450628,23.7401363],[90.3845105,23.74013715],[90.38451143,23.74013329]]]}},
{"type":"Feature","properties":{"id":"L02-F130","kind":"chair","room":"L02-06"},"geometry":{"type":"Polygon","coordinates":[[[90.38451582,23.74011502],[90.3845116,23.74011417],[90.38451067,23.74011803],[90.38451489,23.74011888],[90.38451582,23.74011502]]]}},
{"type":"Feature","properties":{"id":"L02-F131","kind":"chair","room":"L02-06"},"geometry":{"type":"Polygon","coordinates":[[[90.384498,23.74013058],[90.38449377,23.74012973],[90.38449285,23.7401336],[90.38449707,23.74013445],[90.384498,23.74013058]]]}},
{"type":"Feature","properties":{"id":"L02-F132","kind":"chair","room":"L02-06"},"geometry":{"type":"Polygon","coordinates":[[[90.38450238,23.74011231],[90.38449816,23.74011146],[90.38449723,23.74011533],[90.38450146,23.74011618],[90.38450238,23.74011231]]]}},
{"type":"Feature","properties":{"id":"L02-F133","kind":"desk","room":"L02-06"},"geometry":{"type":"Polygon","coordinates":[[[90.38452447,23.74009908],[90.38451123,23.74009642],[90.3845098,23.74010239],[90.38452304,23.74010505],[90.38452447,23.74009908]]]}},
{"type":"Feature","properties":{"id":"L02-F134","kind":"desk","room":"L02-06"},"geometry":{"type":"Polygon","coordinates":[[[90.38451104,23.74009638],[90.3844978,23.74009371],[90.38449637,23.74009968],[90.38450961,23.74010235],[90.38451104,23.74009638]]]}},
{"type":"Feature","properties":{"id":"L02-F135","kind":"desk","room":"L02-06"},"geometry":{"type":"Polygon","coordinates":[[[90.38452595,23.74009293],[90.38451271,23.74009027],[90.38451128,23.74009624],[90.38452452,23.7400989],[90.38452595,23.74009293]]]}},
{"type":"Feature","properties":{"id":"L02-F136","kind":"desk","room":"L02-06"},"geometry":{"type":"Polygon","coordinates":[[[90.38451252,23.74009023],[90.38449928,23.74008756],[90.38449784,23.74009354],[90.38451108,23.7400962],[90.38451252,23.74009023]]]}},
{"type":"Feature","properties":{"id":"L02-F137","kind":"chair","room":"L02-06"},"geometry":{"type":"Polygon","coordinates":[[[90.38451818,23.74010518],[90.38451396,23.74010433],[90.38451303,23.74010819],[90.38451725,23.74010904],[90.38451818,23.74010518]]]}},
{"type":"Feature","properties":{"id":"L02-F138","kind":"chair","room":"L02-06"},"geometry":{"type":"Polygon","coordinates":[[[90.38452257,23.74008691],[90.38451835,23.74008606],[90.38451742,23.74008993],[90.38452164,23.74009078],[90.38452257,23.74008691]]]}},
{"type":"Feature","properties":{"id":"L02-F139","kind":"chair","room":"L02-06"},"geometry":{"type":"Polygon","coordinates":[[[90.38450475,23.74010248],[90.38450053,23.74010163],[90.3844996,23.74010549],[90.38450382,23.74010634],[90.38450475,23.74010248]]]}},
{"type":"Feature","properties":{"id":"L02-F140","kind":"chair","room":"L02-06"},"geometry":{"type":"Polygon","coordinates":[[[90.38450914,23.74008421],[90.38450491,23.74008336],[90.38450399,23.74008722],[90.38450821,23.74008807],[90.38450914,23.74008421]]]}},
{"type":"Feature","properties":{"id":"L02-F141","kind":"cabinet","room":"L02-06"},"geometry":{"type":"Polygon","coordinates":[[[90.38471181,23.74010229],[90.38469454,23.74009882],[90.3846937,23.74010233],[90.38471097,23.74010581],[90.38471181,23.74010229]]]}},
{"type":"Feature","properties":{"id":"L02-F142","kind":"plant","room":"L02-06"},"geometry":{"type":"Polygon","coordinates":[[[90.3844881,23.74005819],[90.38448378,23.74005732],[90.38448283,23.74006127],[90.38448715,23.74006214],[90.3844881,23.74005819]]]}},
{"type":"Feature","properties":{"id":"L02-F143","kind":"shelf","room":"L02-07"},"geometry":{"type":"Polygon","coordinates":[[[90.38459628,23.74024134],[90.38456527,23.7402351],[90.38456422,23.74023949],[90.38459523,23.74024573],[90.38459628,23.74024134]]]}},
{"type":"Feature","properties":{"id":"L02-F144","kind":"shelf","room":"L02-07"},"geometry":{"type":"Polygon","coordinates":[[[90.38455568,23.74023317],[90.38452466,23.74022693],[90.38452361,23.74023132],[90.38455462,23.74023756],[90.38455568,23.74023317]]]}},
{"type":"Feature","properties":{"id":"L02-F145","kind":"shelf","room":"L02-07"},"geometry":{"type":"Polygon","coordinates":[[[90.38459291,23.74025539],[90.38456189,23.74024915],[90.38456084,23.74025354],[90.38459185,23.74025979],[90.38459291,23.74025539]]]}},
{"type":"Feature","properties":{"id":"L02-F146","kind":"shelf","room":"L02-07"},"geometry":{"type":"Polygon","coordinates":[[[90.3845523,23.74024722],[90.38452129,23.74024098],[90.38452023,23.74024537],[90.38455124,23.74025161],[90.3845523,23.74024722]]]}},
{"type":"Feature","properties":{"id":"L02-F147","kind":"shelf","room":"L02-07"},"geometry":{"type":"Polygon","coordinates":[[[90.38458953,23.74026945],[90.38455852,23.74026321],[90.38455746,23.7402676],[90.38458848,23.74027384],[90.38458953,23.74026945]]]}},
{"type":"Feature","properties":{"id":"L02-F148","kind":"shelf","room":"L02-07"},"geometry":{"type":"Polygon","coordinates":[[[90.38454892,23.74026127],[90.38451791,23.74025503],[90.38451686,23.74025942],[90.38454787,23.74026567],[90.38454892,23.74026127]]]}},
{"type":"Feature","properties":{"id":"L02-F149","kind":"basin","room":"L02-08"},"geometry":{"type":"Polygon","coordinates":[[[90.38452725,23.74019522],[90.38452197,23.74019416],[90.38451555,23.7402209],[90.38452083,23.74022196],[90.38452725,23.74019522]]]}},
{"type":"Feature","properties":{"id":"L02-F150","kind":"cubicle","room":"L02-08"},"geometry":{"type":"Polygon","coordinates":[[[90.38447942,23.7402443],[90.38447894,23.74024421],[90.38447567,23.74025782],[90.38447615,23.74025792],[90.38447942,23.7402443]]]}},
{"type":"Feature","properties":{"id":"L02-F151","kind":"cubicle","room":"L02-08"},"geometry":{"type":"Polygon","coordinates":[[[90.38449142,23.74024672],[90.38449094,23.74024662],[90.38448767,23.74026023],[90.38448815,23.74026033],[90.38449142,23.74024672]]]}},
{"type":"Feature","properties":{"id":"L02-F152","kind":"cubicle","room":"L02-08"},"geometry":{"type":"Polygon","coordinates":[[[90.38450341,23.74024913],[90.38450293,23.74024903],[90.38449966,23.74026265],[90.38450014,23.74026274],[90.38450341,23.74024913]]]}},
{"type":"Feature","properties":{"id":"L02-F153","kind":"basin","room":"L02-09"},"geometry":{"type":"Polygon","coordinates":[[[90.38448856,23.74018743],[90.38448328,23.74018637],[90.38447686,23.74021311],[90.38448214,23.74021417],[90.38448856,23.74018743]]]}},
{"type":"Feature","properties":{"id":"L02-F154","kind":"cubicle","room":"L02-09"},"geometry":{"type":"Polygon","coordinates":[[[90.38444073,23.74023651],[90.38444025,23.74023642],[90.38443698,23.74025003],[90.38443746,23.74025013],[90.38444073,23.74023651]]]}},
{"type":"Feature","properties":{"id":"L02-F155","kind":"cubicle","room":"L02-09"},"geometry":{"type":"Polygon","coordinates":[[[90.38445273,23.74023893],[90.38445225,23.74023883],[90.38444898,23.74025245],[90.38444946,23.74025254],[90.38445273,23.74023893]]]}},
{"type":"Feature","properties":{"id":"L02-F156","kind":"cubicle","room":"L02-09"},"geometry":{"type":"Polygon","coordinates":[[[90.38446472,23.74024134],[90.38446424,23.74024125],[90.38446097,23.74025486],[90.38446145,23.74025496],[90.38446472,23.74024134]]]}}
]
}
