{
"type": "FeatureCollection",
"name": "shops",
"crs": {"type":"name","properties":{"name":"urn:ogc:def:crs:OGC:1.3:CRS84"}},
"features": [
{"type":"Feature","properties":{"id":"L02-01","name":"Dispatch Section","class":"store","room_number":"201"},"geometry":{"type":"Polygon","coordinates":[[[90.38476468,23.74022827],[90.38472599,23.74022049],[90.38470558,23.74030547],[90.38474427,23.74031326],[90.38476468,23.74022827]]]}},
{"type":"Feature","properties":{"id":"L02-02","name":"Section Officer","class":"office","room_number":"202"},"geometry":{"type":"Polygon","coordinates":[[[90.38472599,23.74022049],[90.3846873,23.7402127],[90.38466689,23.74029769],[90.38470558,23.74030547],[90.38472599,23.74022049]]]}},
{"type":"Feature","properties":{"id":"L02-03","name":"Assistant Secretary","class":"office","room_number":"203"},"geometry":{"type":"Polygon","coordinates":[[[90.3846873,23.7402127],[90.38464861,23.74020491],[90.3846282,23.7402899],[90.38466689,23.74029769],[90.3846873,23.7402127]]]}},
{"type":"Feature","properties":{"id":"L02-04","name":"Deputy Secretary (Admin)","class":"office","room_number":"204"},"geometry":{"type":"Polygon","coordinates":[[[90.38464861,23.74020491],[90.38460992,23.74019713],[90.38458951,23.74028211],[90.3846282,23.7402899],[90.38464861,23.74020491]]]}},
{"type":"Feature","properties":{"id":"L02-05","name":"Meeting Room","class":"meeting","room_number":"205"},"geometry":{"type":"Polygon","coordinates":[[[90.38479143,23.74011694],[90.38471405,23.74010136],[90.38469363,23.74018635],[90.38477101,23.74020192],[90.38479143,23.74011694]]]}},
{"type":"Feature","properties":{"id":"L02-06","name":"Administration Section","class":"office","room_number":"206"},"geometry":{"type":"Polygon","coordinates":[[[90.38471405,23.74010136],[90.38448191,23.74005464],[90.38446149,23.74013963],[90.38469363,23.74018635],[90.38471405,23.74010136]]]}},
{"type":"Feature","properties":{"id":"L02-07","name":"Electrical Room","class":"store","room_number":"207"},"geometry":{"type":"Polygon","coordinates":[[[90.38460275,23.74022699],[90.38452537,23.74021141],[90.38451213,23.74026654],[90.38458951,23.74028211],[90.38460275,23.74022699]]]}},
{"type":"Feature","properties":{"id":"L02-08","name":"Gents Washroom","class":"toilet","room_number":"208"},"geometry":{"type":"Polygon","coordinates":[[[90.38453254,23.74018155],[90.38449385,23.74017376],[90.38447344,23.74025875],[90.38451213,23.74026654],[90.38453254,23.74018155]]]}},
{"type":"Feature","properties":{"id":"L02-09","name":"Ladies Washroom","class":"toilet","room_number":"209"},"geometry":{"type":"Polygon","coordinates":[[[90.38449385,23.74017376],[90.38445516,23.74016598],[90.38443475,23.74025096],[90.38447344,23.74025875],[90.38449385,23.74017376]]]}}
]
}
